{"type":"FeatureCollection", "features": [
{"type":"Feature","geometry":{"type":"Polygon","coordinates":[[[-48.9705,-10.37212],[-48.93909,-10.51809],[-48.80536,-10.49354],[-48.72493,-10.40713],[-48.87675,-10.31982],[-48.9705,-10.37212]]]},"properties":{"cod_ibge":"171845","name":"Pugmil","uf":"TO"}},
{"type":"Feature","geometry":{"type":"Polygon","coordinates":[[[-48.42701,-7.1521],[-48.30566,-7.11982],[-48.29281,-6.9411],[-48.31613,-6.92519],[-48.42368,-6.97612],[-48.42701,-7.1521]]]},"properties":{"cod_ibge":"170388","name":"Carmolândia","uf":"TO"}},
{"type":"Feature","geometry":{"type":"Polygon","coordinates":[[[-47.84022,-5.60189],[-47.67793,-5.59598],[-47.75122,-5.76742],[-47.59322,-5.67602],[-47.58989,-5.56461],[-47.74837,-5.57188],[-47.84022,-5.60189]]]},"properties":{"cod_ibge":"172080","name":"Sítio Novo do Tocantins","uf":"TO"}},
{"type":"Feature","geometry":{"type":"Polygon","coordinates":[[[-49.39834,-9.96103],[-49.2432,-9.92829],[-49.1009,-9.96922],[-48.96765,-9.85281],[-48.88769,-9.7705],[-48.97669,-9.71275],[-49.16658,-9.74276],[-49.26557,-9.70956],[-49.46402,-9.44081],[-49.59727,-9.31485],[-49.72244,-9.34895],[-49.68056,-9.53995],[-49.5711,-9.58496],[-49.45498,-9.70047],[-49.52303,-9.84235],[-49.40406,-9.96513],[-49.39834,-9.96103]]]},"properties":{"cod_ibge":"170710","name":"Divinópolis do Tocantins","uf":"TO"}},
{"type":"Feature","geometry":{"type":"Polygon","coordinates":[[[-48.98526,-11.94188],[-48.92719,-12.12242],[-48.92101,-12.2934],[-48.91101,-12.29476],[-48.74778,-12.30931],[-48.62642,-12.21336],[-48.78014,-12.13333],[-48.75539,-11.99281],[-48.89245,-11.8664],[-48.98526,-11.94188]]]},"properties":{"cod_ibge":"172085","name":"Sucupira","uf":"TO"}},
{"type":"Feature","geometry":{"type":"Polygon","coordinates":[[[-47.68412,-7.24533],[-47.66032,-7.15119],[-47.54706,-7.01659],[-47.75503,-6.90609],[-47.73457,-6.9843],[-48.13909,-7.12255],[-48.04629,-7.3581],[-47.98299,-7.41131],[-47.76502,-7.35537],[-47.68412,-7.24533]]]},"properties":{"cod_ibge":"170300","name":"Babaçulândia","uf":"TO"}},
{"type":"Feature","geometry":{"type":"Polygon","coordinates":[[[-48.70304,-8.21847],[-48.63499,-8.39991],[-48.62214,-8.33352],[-48.63689,-8.27622],[-48.62975,-7.96518],[-48.4984,-7.85286],[-48.51839,-7.73554],[-48.61405,-7.62321],[-48.75825,-7.60412],[-48.80584,-7.86286],[-48.84867,-7.88651],[-48.78585,-8.09751],[-48.70304,-8.21847]]]},"properties":{"cod_ibge":"170305","name":"Bandeirantes do Tocantins","uf":"TO"}},
{"type":"Feature","geometry":{"type":"Polygon","coordinates":[[[-47.59179,-7.43995],[-47.62939,-7.61685],[-47.71934,-7.69734],[-47.7141,-7.81512],[-47.55467,-7.99155],[-47.48186,-7.76737],[-47.56229,-7.72781],[-47.42998,-7.54727],[-47.5028,-7.43905],[-47.59179,-7.43995]]]},"properties":{"cod_ibge":"170307","name":"Barra do Ouro","uf":"TO"}},
{"type":"Feature","geometry":{"type":"Polygon","coordinates":[[[-47.72172,-6.28855],[-47.95777,-6.22671],[-47.94587,-6.27855],[-47.82356,-6.42679],[-47.5837,-6.41588],[-47.57609,-6.41588],[-47.72172,-6.28855]]]},"properties":{"cod_ibge":"171430","name":"Nazaré","uf":"TO"}},
{"type":"Feature","geometry":{"type":"Polygon","coordinates":[[[-48.29328,-8.52178],[-48.13338,-8.54406],[-48.15241,-8.15071],[-48.29614,-8.14571],[-48.33278,-8.23893],[-48.28234,-8.33761],[-48.29328,-8.52178]]]},"properties":{"cod_ibge":"172130","name":"Tupiratins","uf":"TO"}},
{"type":"Feature","geometry":{"type":"Polygon","coordinates":[[[-47.5837,-6.41588],[-47.82356,-6.42679],[-47.86211,-6.54093],[-47.77121,-6.55685],[-47.63463,-6.45044],[-47.5837,-6.41588]]]},"properties":{"cod_ibge":"172000","name":"Santa Terezinha do Tocantins","uf":"TO"}},
{"type":"Feature","geometry":{"type":"Polygon","coordinates":[[[-49.96706,-9.23118],[-50.00132,-9.38988],[-49.99466,-9.67409],[-49.85046,-9.68137],[-49.68056,-9.53995],[-49.72244,-9.34895],[-49.71244,-9.17524],[-49.85141,-9.06383],[-49.86283,-9.08157],[-49.96706,-9.23118]]]},"properties":{"cod_ibge":"170390","name":"Caseara","uf":"TO"}},
{"type":"Feature","geometry":{"type":"Polygon","coordinates":[[[-48.67211,-10.09064],[-48.82392,-10.05653],[-48.88912,-10.0629],[-48.94861,-10.12383],[-49.11042,-10.14975],[-48.97954,-10.35893],[-48.97669,-10.36212],[-48.9705,-10.37212],[-48.87675,-10.31982],[-48.72493,-10.40713],[-48.59739,-10.32437],[-48.69971,-10.19068],[-48.67211,-10.09064]]]},"properties":{"cod_ibge":"171610","name":"Paraíso do Tocantins","uf":"TO"}},
{"type":"Feature","geometry":{"type":"Polygon","coordinates":[[[-47.40429,-8.79463],[-47.21773,-8.85965],[-47.23819,-8.95879],[-47.13873,-8.92332],[-47.03831,-9.00062],[-46.91838,-8.85693],[-46.84604,-8.53406],[-47.02974,-8.50268],[-47.16681,-8.39309],[-47.25104,-8.47949],[-47.33052,-8.63729],[-47.30339,-8.74597],[-47.40429,-8.79463]]]},"properties":{"cod_ibge":"171850","name":"Recursolândia","uf":"TO"}},
{"type":"Feature","geometry":{"type":"Polygon","coordinates":[[[-48.28805,-6.44908],[-48.21619,-6.45089],[-48.12529,-6.58504],[-48.01488,-6.56958],[-47.9768,-6.41724],[-48.10292,-6.44225],[-48.16669,-6.34721],[-48.33564,-6.37677],[-48.28805,-6.44908]]]},"properties":{"cod_ibge":"171855","name":"Riachinho","uf":"TO"}},
{"type":"Feature","geometry":{"type":"Polygon","coordinates":[[[-47.23819,-8.95879],[-47.21773,-8.85965],[-47.40429,-8.79463],[-47.47329,-8.79735],[-47.54277,-8.93741],[-47.68507,-9.18343],[-47.7241,-9.3194],[-47.65366,-9.35532],[-47.4119,-9.23572],[-47.34622,-9.28711],[-47.26104,-9.18297],[-47.23819,-8.95879]]]},"properties":{"cod_ibge":"170410","name":"Centenário","uf":"TO"}},
{"type":"Feature","geometry":{"type":"Polygon","coordinates":[[[-49.03761,-6.80923],[-49.00429,-6.95202],[-48.8106,-7.10572],[-48.66687,-7.13346],[-48.68496,-7.28216],[-48.56217,-7.2767],[-48.5636,-7.07844],[-48.86961,-6.8547],[-48.85343,-6.7492],[-49.03761,-6.80923]]]},"properties":{"cod_ibge":"171395","name":"Muricilândia","uf":"TO"}},
{"type":"Feature","geometry":{"type":"Polygon","coordinates":[[[-48.6664,-6.66417],[-48.85343,-6.7492],[-48.86961,-6.8547],[-48.5636,-7.07844],[-48.56217,-7.2767],[-48.42701,-7.1521],[-48.42368,-6.97612],[-48.56455,-6.9452],[-48.64308,-6.79513],[-48.64355,-6.79513],[-48.6664,-6.66417]]]},"properties":{"cod_ibge":"170130","name":"Aragominas","uf":"TO"}},
{"type":"Feature","geometry":{"type":"Polygon","coordinates":[[[-49.39359,-9.15023],[-49.35884,-9.25619],[-49.15515,-9.56814],[-48.97098,-9.59815],[-48.88769,-9.7705],[-48.86057,-9.73003],[-48.87437,-9.58269],[-48.7492,-9.40716],[-48.75349,-9.19798],[-48.81678,-9.07611],[-49.02285,-9.04746],[-49.22321,-8.94242],[-49.3874,-8.90968],[-49.39359,-9.15023]]]},"properties":{"cod_ibge":"170720","name":"Dois Irmãos do Tocantins","uf":"TO"}},
{"type":"Feature","geometry":{"type":"Polygon","coordinates":[[[-47.79358,-10.1643],[-47.85545,-10.31073],[-47.83784,-10.3944],[-47.66889,-10.39304],[-47.64462,-10.26526],[-47.56847,-10.2457],[-47.79358,-10.1643]]]},"properties":{"cod_ibge":"171900","name":"Santa Tereza do Tocantins","uf":"TO"}},
{"type":"Feature","geometry":{"type":"Polygon","coordinates":[[[-48.45747,-10.92736],[-48.55932,-11.03149],[-48.45414,-11.2625],[-48.25902,-11.2816],[-48.21761,-11.20975],[-48.31089,-11.08652],[-48.45747,-10.92736]]]},"properties":{"cod_ibge":"170980","name":"Ipueiras","uf":"TO"}},
{"type":"Feature","geometry":{"type":"Polygon","coordinates":[[[-48.97812,-8.193],[-48.9686,-8.41083],[-49.12232,-8.64684],[-48.93576,-8.71232],[-48.85819,-8.59772],[-48.9172,-8.49541],[-48.85724,-8.42992],[-48.76063,-8.19073],[-48.70304,-8.21847],[-48.78585,-8.09751],[-48.84819,-8.13025],[-49.01,-8.08432],[-48.97812,-8.193]]]},"properties":{"cod_ibge":"171665","name":"Pequizeiro","uf":"TO"}},
{"type":"Feature","geometry":{"type":"Polygon","coordinates":[[[-47.82975,-7.766],[-47.91969,-7.65959],[-48.08579,-7.54773],[-48.15146,-7.52817],[-48.20238,-7.66778],[-48.14194,-7.77328],[-48.41131,-7.80056],[-48.46604,-7.85741],[-48.45319,-8.06613],[-48.37847,-8.13798],[-48.29614,-8.14571],[-48.15241,-8.15071],[-48.10435,-8.08523],[-47.94587,-8.04885],[-47.95444,-7.92562],[-47.82975,-7.766]]]},"properties":{"cod_ibge":"171570","name":"Palmeirante","uf":"TO"}},
{"type":"Feature","geometry":{"type":"Polygon","coordinates":[[[-48.51601,-13.13921],[-48.46176,-13.27518],[-48.14385,-13.1524],[-48.14004,-12.98733],[-48.22095,-12.83818],[-48.43082,-12.84227],[-48.50221,-12.79043],[-48.56312,-12.93094],[-48.51173,-12.98597],[-48.51601,-13.13921]]]},"properties":{"cod_ibge":"171575","name":"Palmeirópolis","uf":"TO"}},
{"type":"Feature","geometry":{"type":"Polygon","coordinates":[[[-48.35896,-10.0538],[-48.42178,-10.19295],[-48.40179,-10.38121],[-48.1567,-10.45807],[-48.08293,-10.46034],[-47.98299,-10.33165],[-47.85545,-10.31073],[-47.79358,-10.1643],[-47.81928,-10.01879],[-47.963,-10.17567],[-48.12243,-10.10928],[-48.22332,-9.96285],[-48.36848,-9.92329],[-48.35896,-10.0538]]]},"properties":{"cod_ibge":"172100","name":"Palmas","uf":"TO"}},
{"type":"Feature","geometry":{"type":"Polygon","coordinates":[[[-49.01,-8.08432],[-49.17562,-8.00929],[-49.22083,-8.20392],[-49.14659,-8.2553],[-48.97812,-8.193],[-49.01,-8.08432]]]},"properties":{"cod_ibge":"171180","name":"Juarina","uf":"TO"}},
{"type":"Feature","geometry":{"type":"Polygon","coordinates":[[[-48.01726,-8.65138],[-47.85783,-8.74642],[-47.74408,-8.73005],[-47.55896,-8.83828],[-47.47329,-8.79735],[-47.40429,-8.79463],[-47.30339,-8.74597],[-47.33052,-8.63729],[-47.25104,-8.47949],[-47.47282,-8.48631],[-47.69745,-8.45948],[-47.81547,-8.33989],[-47.90209,-8.16572],[-47.9768,-8.20665],[-47.99156,-8.36308],[-47.94539,-8.57226],[-48.01726,-8.65138]]]},"properties":{"cod_ibge":"171050","name":"Itacajá","uf":"TO"}},
{"type":"Feature","geometry":{"type":"Polygon","coordinates":[[[-47.90209,-8.16572],[-47.81547,-8.33989],[-47.69745,-8.45948],[-47.47282,-8.48631],[-47.25104,-8.47949],[-47.16681,-8.39309],[-47.06782,-8.27349],[-47.01499,-8.05886],[-47.31339,-7.73099],[-47.42998,-7.54727],[-47.56229,-7.72781],[-47.48186,-7.76737],[-47.55467,-7.99155],[-47.7141,-7.81512],[-47.71934,-7.69734],[-47.82975,-7.766],[-47.95444,-7.92562],[-47.884,-8.07432],[-47.90209,-8.16572]]]},"properties":{"cod_ibge":"170900","name":"Goiatins","uf":"TO"}},
{"type":"Feature","geometry":{"type":"Polygon","coordinates":[[[-47.68412,-7.24533],[-47.76502,-7.35537],[-47.98299,-7.41131],[-48.04629,-7.3581],[-48.08579,-7.54773],[-47.91969,-7.65959],[-47.82975,-7.766],[-47.71934,-7.69734],[-47.62939,-7.61685],[-47.59179,-7.43995],[-47.47805,-7.33673],[-47.54277,-7.26533],[-47.68412,-7.24533]]]},"properties":{"cod_ibge":"170770","name":"Filadélfia","uf":"TO"}},
{"type":"Feature","geometry":{"type":"Polygon","coordinates":[[[-48.22047,-10.99102],[-48.121,-11.12381],[-48.02487,-11.17246],[-47.86068,-11.1038],[-47.88115,-10.97238],[-47.74218,-10.90644],[-47.85545,-10.56084],[-47.83784,-10.3944],[-47.85545,-10.31073],[-47.98299,-10.33165],[-48.08293,-10.46034],[-48.1567,-10.45807],[-48.30851,-10.57994],[-48.15908,-10.67725],[-48.26758,-10.78048],[-48.22047,-10.99102]]]},"properties":{"cod_ibge":"171360","name":"Monte do Carmo","uf":"TO"}},
{"type":"Feature","geometry":{"type":"Polygon","coordinates":[[[-48.37847,-8.13798],[-48.46842,-8.21483],[-48.63689,-8.27622],[-48.62214,-8.33352],[-48.48174,-8.4231],[-48.28234,-8.33761],[-48.33278,-8.23893],[-48.29614,-8.14571],[-48.37847,-8.13798]]]},"properties":{"cod_ibge":"170360","name":"Brasilândia do Tocantins","uf":"TO"}},
{"type":"Feature","geometry":{"type":"Polygon","coordinates":[[[-48.80441,-7.56956],[-49.22702,-7.6073],[-49.34219,-7.65596],[-49.16087,-7.79147],[-49.16705,-7.8565],[-48.84867,-7.88651],[-48.80584,-7.86286],[-48.75825,-7.60412],[-48.80441,-7.56956]]]},"properties":{"cod_ibge":"170230","name":"Arapoema","uf":"TO"}},
{"type":"Feature","geometry":{"type":"Polygon","coordinates":[[[-48.31089,-11.08652],[-48.22047,-10.99102],[-48.26758,-10.78048],[-48.15908,-10.67725],[-48.30851,-10.57994],[-48.1567,-10.45807],[-48.40179,-10.38121],[-48.42178,-10.19295],[-48.35896,-10.0538],[-48.56931,-10.02879],[-48.67211,-10.09064],[-48.69971,-10.19068],[-48.59739,-10.32437],[-48.72493,-10.40713],[-48.80536,-10.49354],[-48.82821,-10.56266],[-48.78299,-10.69589],[-48.78918,-10.79457],[-48.54742,-10.85687],[-48.45747,-10.92736],[-48.31089,-11.08652]]]},"properties":{"cod_ibge":"171820","name":"Porto Nacional","uf":"TO"}},
{"type":"Feature","geometry":{"type":"Polygon","coordinates":[[[-48.33564,-6.37677],[-48.16669,-6.34721],[-48.10292,-6.44225],[-47.9768,-6.41724],[-47.94587,-6.27855],[-47.95777,-6.22671],[-47.97204,-6.18351],[-47.99108,-6.15713],[-48.15575,-6.1203],[-48.22428,-6.00343],[-48.23284,-5.9475],[-48.33469,-6.00434],[-48.28805,-6.09756],[-48.39132,-6.14667],[-48.43606,-6.20124],[-48.37562,-6.34494],[-48.33564,-6.37677]]]},"properties":{"cod_ibge":"170100","name":"Ananás","uf":"TO"}},
{"type":"Feature","geometry":{"type":"Polygon","coordinates":[[[-47.62273,-11.44212],[-47.64129,-11.30616],[-47.77597,-11.27205],[-47.90875,-11.39574],[-47.99061,-11.56991],[-48.17383,-11.60492],[-48.08912,-11.72224],[-47.82737,-11.76044],[-47.69364,-11.63857],[-47.69411,-11.49942],[-47.62273,-11.44212]]]},"properties":{"cod_ibge":"170510","name":"Chapada da Natividade","uf":"TO"}},
{"type":"Feature","geometry":{"type":"Polygon","coordinates":[[[-47.9768,-6.41724],[-48.01488,-6.56958],[-47.86211,-6.54093],[-47.82356,-6.42679],[-47.94587,-6.27855],[-47.9768,-6.41724]]]},"properties":{"cod_ibge":"170105","name":"Angico","uf":"TO"}},
{"type":"Feature","geometry":{"type":"Polygon","coordinates":[[[-49.38454,-12.14834],[-49.2589,-11.96644],[-49.40643,-11.75953],[-49.61964,-11.37846],[-49.67818,-11.38937],[-50.66997,-11.58173],[-50.71709,-11.72725],[-50.68615,-11.85912],[-50.6814,-12.217],[-50.62381,-12.45529],[-50.68377,-12.64809],[-50.62524,-12.79998],[-50.51102,-12.86091],[-50.47913,-12.71267],[-50.30543,-12.49257],[-50.14171,-12.39526],[-50.08698,-12.14197],[-50.01369,-12.07421],[-49.74957,-12.12014],[-49.64724,-12.22519],[-49.47401,-12.22882],[-49.38454,-12.14834]]]},"properties":{"cod_ibge":"170820","name":"Formoso do Araguaia","uf":"TO"}},
{"type":"Feature","geometry":{"type":"Polygon","coordinates":[[[-48.93576,-8.71232],[-48.83534,-8.82373],[-48.75158,-9.02791],[-48.73731,-9.19662],[-48.73207,-9.18297],[-48.65783,-8.99335],[-48.59549,-8.82919],[-48.67687,-8.68822],[-48.85819,-8.59772],[-48.93576,-8.71232]]]},"properties":{"cod_ibge":"171670","name":"Colméia","uf":"TO"}},
{"type":"Feature","geometry":{"type":"Polygon","coordinates":[[[-48.25902,-11.2816],[-48.07199,-11.27978],[-47.8031,-11.20884],[-47.69126,-11.04877],[-47.72552,-10.95055],[-47.74218,-10.90644],[-47.88115,-10.97238],[-47.86068,-11.1038],[-48.02487,-11.17246],[-48.121,-11.12381],[-48.22047,-10.99102],[-48.31089,-11.08652],[-48.21761,-11.20975],[-48.25902,-11.2816]]]},"properties":{"cod_ibge":"172065","name":"Silvanópolis","uf":"TO"}},
{"type":"Feature","geometry":{"type":"Polygon","coordinates":[[[-48.65783,-8.99335],[-48.73207,-9.18297],[-48.56455,-9.22117],[-48.49745,-9.06156],[-48.368,-9.07475],[-48.3937,-8.97516],[-48.45652,-8.93241],[-48.65783,-8.99335]]]},"properties":{"cod_ibge":"170825","name":"Tabocão","uf":"TO"}},
{"type":"Feature","geometry":{"type":"Polygon","coordinates":[[[-49.16705,-11.74407],[-49.10756,-11.86822],[-48.99144,-11.95598],[-48.98526,-11.94188],[-48.89245,-11.8664],[-48.76396,-11.74453],[-48.67829,-11.52261],[-48.56979,-11.39574],[-48.76443,-11.36755],[-48.78775,-11.44758],[-48.95004,-11.51761],[-49.09567,-11.60037],[-49.16705,-11.74407]]]},"properties":{"cod_ibge":"170950","name":"Gurupi","uf":"TO"}},
{"type":"Feature","geometry":{"type":"Polygon","coordinates":[[[-48.36705,-9.34077],[-48.36562,-9.69592],[-48.25902,-9.77232],[-48.22761,-9.95103],[-48.15717,-9.94239],[-47.89495,-9.77095],[-47.93016,-9.48447],[-47.90542,-9.3394],[-48.18811,-9.43808],[-48.20667,-9.35077],[-48.34944,-9.28756],[-48.36705,-9.34077]]]},"properties":{"cod_ibge":"172110","name":"Tocantínia","uf":"TO"}},
{"type":"Feature","geometry":{"type":"Polygon","coordinates":[[[-49.79858,-10.99602],[-49.75766,-10.90144],[-49.62964,-10.92645],[-49.55587,-10.82686],[-49.51447,-10.69089],[-49.58585,-10.56948],[-49.76051,-10.51263],[-49.93993,-10.57039],[-50.60335,-10.65997],[-50.60335,-10.66088],[-50.57051,-10.75228],[-50.63285,-10.93191],[-50.60953,-11.06742],[-50.69996,-11.31298],[-50.73898,-11.54444],[-50.66997,-11.58173],[-49.67818,-11.38937],[-49.81905,-11.09652],[-49.79858,-10.99602]]]},"properties":{"cod_ibge":"171190","name":"Lagoa da Confusão","uf":"TO"}},
{"type":"Feature","geometry":{"type":"Polygon","coordinates":[[[-49.71244,-9.17524],[-49.60108,-9.25664],[-49.45974,-9.27665],[-49.39359,-9.15023],[-49.3874,-8.90968],[-49.22321,-8.94242],[-49.22464,-8.76916],[-49.28984,-8.64183],[-49.39977,-8.54497],[-49.48163,-8.67366],[-49.59252,-8.83965],[-49.68437,-8.85647],[-49.85141,-9.06383],[-49.71244,-9.17524]]]},"properties":{"cod_ibge":"170190","name":"Araguacema","uf":"TO"}},
{"type":"Feature","geometry":{"type":"Polygon","coordinates":[[[-47.30292,-10.44079],[-47.36288,-10.37667],[-47.36669,-10.2407],[-47.44759,-10.15885],[-47.56847,-10.2457],[-47.64462,-10.26526],[-47.66889,-10.39304],[-47.53992,-10.42442],[-47.4633,-10.53128],[-47.30292,-10.44079]]]},"properties":{"cod_ibge":"171195","name":"Lagoa do Tocantins","uf":"TO"}},
{"type":"Feature","geometry":{"type":"Polygon","coordinates":[[[-48.96765,-9.85281],[-49.1009,-9.96922],[-49.2432,-9.92829],[-49.39834,-9.96103],[-49.11042,-10.14975],[-48.94861,-10.12383],[-48.88912,-10.0629],[-48.85057,-9.89919],[-48.96765,-9.85281]]]},"properties":{"cod_ibge":"171370","name":"Monte Santo do Tocantins","uf":"TO"}},
{"type":"Feature","geometry":{"type":"Polygon","coordinates":[[[-46.47531,-9.90465],[-46.51291,-9.79733],[-46.64426,-9.74049],[-46.57335,-9.47765],[-46.63284,-9.41171],[-46.81892,-9.30348],[-46.86127,-9.14659],[-47.05782,-9.05292],[-47.03831,-9.00062],[-47.13873,-8.92332],[-47.23819,-8.95879],[-47.26104,-9.18297],[-47.34622,-9.28711],[-47.0978,-9.45855],[-47.07162,-9.80051],[-47.20393,-10.02061],[-47.09447,-10.07199],[-47.01547,-10.00242],[-46.81368,-9.97513],[-46.55241,-9.85644],[-46.47531,-9.90465]]]},"properties":{"cod_ibge":"171240","name":"Lizarda","uf":"TO"}},
{"type":"Feature","geometry":{"type":"Polygon","coordinates":[[[-48.71589,-11.162],[-48.65212,-11.20066],[-48.54218,-11.38346],[-48.47889,-11.36254],[-48.4589,-11.30661],[-48.45414,-11.2625],[-48.55932,-11.03149],[-48.45747,-10.92736],[-48.54742,-10.85687],[-48.78918,-10.79457],[-48.85295,-10.96828],[-48.85771,-11.10425],[-48.71589,-11.162]]]},"properties":{"cod_ibge":"170370","name":"Brejinho de Nazaré","uf":"TO"}},
{"type":"Feature","geometry":{"type":"Polygon","coordinates":[[[-48.38656,-6.85198],[-48.31613,-6.92519],[-48.29281,-6.9411],[-48.1843,-7.01523],[-48.13005,-7.03387],[-48.12862,-6.62279],[-48.12529,-6.58504],[-48.21619,-6.45089],[-48.28805,-6.44908],[-48.38751,-6.64689],[-48.38656,-6.85198]]]},"properties":{"cod_ibge":"171720","name":"Piraquê","uf":"TO"}},
{"type":"Feature","geometry":{"type":"Polygon","coordinates":[[[-46.85461,-13.06737],[-46.75039,-12.96914],[-46.63522,-12.97005],[-46.59286,-12.80453],[-46.60619,-12.73268],[-46.62475,-12.66401],[-46.70565,-12.58489],[-46.89363,-12.46302],[-46.94694,-12.37707],[-46.9812,-12.36661],[-47.11731,-12.36206],[-47.2934,-12.44892],[-47.20964,-12.60853],[-47.36145,-12.73813],[-47.31672,-12.85546],[-47.43474,-12.9796],[-47.39953,-13.12012],[-47.56847,-13.11693],[-47.56514,-13.18014],[-47.39286,-13.26245],[-47.01071,-13.14103],[-46.85461,-13.06737]]]},"properties":{"cod_ibge":"170240","name":"Arraias","uf":"TO"}},
{"type":"Feature","geometry":{"type":"Polygon","coordinates":[[[-48.12862,-6.62279],[-47.75503,-6.90609],[-47.54706,-7.01659],[-47.52041,-6.84061],[-47.49614,-6.69736],[-47.70982,-6.70782],[-47.86211,-6.54093],[-48.01488,-6.56958],[-48.12529,-6.58504],[-48.12862,-6.62279]]]},"properties":{"cod_ibge":"170650","name":"Darcinópolis","uf":"TO"}},
{"type":"Feature","geometry":{"type":"Polygon","coordinates":[[[-48.12862,-6.62279],[-48.13005,-7.03387],[-48.1843,-7.01523],[-48.13909,-7.12255],[-47.73457,-6.9843],[-47.75503,-6.90609],[-48.12862,-6.62279]]]},"properties":{"cod_ibge":"172208","name":"Wanderlândia","uf":"TO"}},
{"type":"Feature","geometry":{"type":"Polygon","coordinates":[[[-47.82737,-5.3868],[-47.82784,-5.3868],[-47.84022,-5.60189],[-47.74837,-5.57188],[-47.68031,-5.41545],[-47.82737,-5.3868]]]},"properties":{"cod_ibge":"171830","name":"Praia Norte","uf":"TO"}},
{"type":"Feature","geometry":{"type":"Polygon","coordinates":[[[-47.95777,-6.22671],[-47.72172,-6.28855],[-47.72886,-6.18305],[-47.7674,-6.1494],[-47.97204,-6.18351],[-47.95777,-6.22671]]]},"properties":{"cod_ibge":"171245","name":"Luzinópolis","uf":"TO"}},
{"type":"Feature","geometry":{"type":"Polygon","coordinates":[[[-49.90899,-12.97505],[-49.36836,-13.27245],[-49.336,-13.06327],[-49.23749,-12.88365],[-49.3479,-12.78997],[-49.3617,-12.53259],[-49.55682,-12.41845],[-49.52303,-12.53123],[-49.78859,-12.70448],[-49.97039,-12.64127],[-50.16789,-12.61399],[-50.19359,-12.56397],[-50.29924,-12.68038],[-50.28544,-12.83954],[-49.90899,-12.97505]]]},"properties":{"cod_ibge":"170200","name":"Araguaçu","uf":"TO"}},
{"type":"Feature","geometry":{"type":"Polygon","coordinates":[[[-49.22321,-8.94242],[-49.02285,-9.04746],[-48.81678,-9.07611],[-48.75349,-9.19798],[-48.73731,-9.19662],[-48.75158,-9.02791],[-48.83534,-8.82373],[-48.93576,-8.71232],[-49.12232,-8.64684],[-49.28984,-8.64183],[-49.22464,-8.76916],[-49.22321,-8.94242]]]},"properties":{"cod_ibge":"170830","name":"Goianorte","uf":"TO"}},
{"type":"Feature","geometry":{"type":"Polygon","coordinates":[[[-48.70304,-8.21847],[-48.76063,-8.19073],[-48.85724,-8.42992],[-48.9172,-8.49541],[-48.85819,-8.59772],[-48.67687,-8.68822],[-48.64212,-8.52042],[-48.63499,-8.39991],[-48.70304,-8.21847]]]},"properties":{"cod_ibge":"171110","name":"Itaporã do Tocantins","uf":"TO"}},
{"type":"Feature","geometry":{"type":"Polygon","coordinates":[[[-47.84069,-9.87827],[-47.89495,-9.77095],[-48.15717,-9.94239],[-48.22761,-9.95103],[-48.22332,-9.96285],[-48.12243,-10.10928],[-47.963,-10.17567],[-47.81928,-10.01879],[-47.84069,-9.87827]]]},"properties":{"cod_ibge":"170110","name":"Aparecida do Rio Negro","uf":"TO"}},
{"type":"Feature","geometry":{"type":"Polygon","coordinates":[[[-47.05687,-11.95098],[-46.86413,-11.99145],[-46.87745,-12.21973],[-46.74896,-12.04193],[-46.78846,-11.8191],[-46.72516,-11.68541],[-46.46151,-11.6554],[-46.34634,-11.57536],[-46.14455,-11.62447],[-46.08078,-11.62402],[-46.11267,-11.60583],[-46.34967,-11.50624],[-46.43914,-11.52125],[-46.56002,-11.37164],[-46.74896,-11.47987],[-46.926,-11.40256],[-47.04212,-11.63675],[-47.15348,-11.74816],[-47.20964,-11.84366],[-47.05687,-11.95098]]]},"properties":{"cod_ibge":"170700","name":"Dianópolis","uf":"TO"}},
{"type":"Feature","geometry":{"type":"Polygon","coordinates":[[[-48.40465,-5.29494],[-48.2514,-5.31768],[-48.18478,-5.2572],[-48.22475,-5.23537],[-48.36372,-5.16853],[-48.48745,-5.19399],[-48.40465,-5.29494]]]},"properties":{"cod_ibge":"172030","name":"São Sebastião do Tocantins","uf":"TO"}},
{"type":"Feature","geometry":{"type":"Polygon","coordinates":[[[-48.78299,-10.69589],[-48.82821,-10.56266],[-48.96051,-10.66497],[-48.96479,-10.76047],[-48.78299,-10.69589]]]},"properties":{"cod_ibge":"171550","name":"Oliveira de Fátima","uf":"TO"}},
{"type":"Feature","geometry":{"type":"Polygon","coordinates":[[[-48.63356,-6.49137],[-48.62499,-6.5805],[-48.51791,-6.66735],[-48.38656,-6.85198],[-48.38751,-6.64689],[-48.28805,-6.44908],[-48.33564,-6.37677],[-48.37562,-6.34494],[-48.5003,-6.35085],[-48.62594,-6.47863],[-48.63356,-6.49137]]]},"properties":{"cod_ibge":"172210","name":"Xambioá","uf":"TO"}},
{"type":"Feature","geometry":{"type":"Polygon","coordinates":[[[-47.75122,-5.76742],[-47.67793,-5.59598],[-47.84022,-5.60189],[-47.83879,-5.64964],[-47.75931,-5.76969],[-47.75122,-5.76742]]]},"properties":{"cod_ibge":"170290","name":"Axixá do Tocantins","uf":"TO"}},
{"type":"Feature","geometry":{"type":"Polygon","coordinates":[[[-48.01488,-5.2381],[-47.93635,-5.34951],[-47.97918,-5.42273],[-47.82784,-5.3868],[-47.82737,-5.3868],[-47.86687,-5.3054],[-47.9373,-5.23947],[-48.01488,-5.2381]]]},"properties":{"cod_ibge":"171880","name":"Sampaio","uf":"TO"}},
{"type":"Feature","geometry":{"type":"Polygon","coordinates":[[[-47.4652,-6.5814],[-47.42523,-6.49728],[-47.43046,-6.4227],[-47.57609,-6.41588],[-47.5837,-6.41588],[-47.63463,-6.45044],[-47.4652,-6.5814]]]},"properties":{"cod_ibge":"170030","name":"Aguiarnópolis","uf":"TO"}},
{"type":"Feature","geometry":{"type":"Polygon","coordinates":[[[-49.18656,-7.19667],[-49.02856,-7.25397],[-48.93053,-7.22986],[-48.68496,-7.28216],[-48.66687,-7.13346],[-48.8106,-7.10572],[-49.00429,-6.95202],[-49.03761,-6.80923],[-49.08329,-6.84334],[-49.2175,-6.96157],[-49.1937,-7.04069],[-49.1937,-7.12982],[-49.18656,-7.19667]]]},"properties":{"cod_ibge":"171886","name":"Santa Fé do Araguaia","uf":"TO"}},
{"type":"Feature","geometry":{"type":"Polygon","coordinates":[[[-47.79358,-10.1643],[-47.56847,-10.2457],[-47.44759,-10.15885],[-47.36669,-10.2407],[-47.36288,-10.37667],[-47.30292,-10.44079],[-47.08685,-10.36894],[-46.94884,-10.17567],[-47.09447,-10.07199],[-47.20393,-10.02061],[-47.27769,-10.05653],[-47.45473,-9.99832],[-47.61369,-9.98923],[-47.84069,-9.87827],[-47.81928,-10.01879],[-47.79358,-10.1643]]]},"properties":{"cod_ibge":"171510","name":"Novo Acordo","uf":"TO"}},
{"type":"Feature","geometry":{"type":"Polygon","coordinates":[[[-48.12576,-8.821],[-47.92112,-8.9556],[-47.74646,-8.96879],[-47.54277,-8.93741],[-47.47329,-8.79735],[-47.55896,-8.83828],[-47.74408,-8.73005],[-47.85783,-8.74642],[-48.01726,-8.65138],[-48.13005,-8.63501],[-48.12767,-8.74097],[-48.12576,-8.821]]]},"properties":{"cod_ibge":"171888","name":"Santa Maria do Tocantins","uf":"TO"}},
{"type":"Feature","geometry":{"type":"Polygon","coordinates":[[[-50.19359,-12.56397],[-50.16789,-12.61399],[-49.97039,-12.64127],[-49.78859,-12.70448],[-49.52303,-12.53123],[-49.55682,-12.41845],[-49.64724,-12.22519],[-49.74957,-12.12014],[-50.01369,-12.07421],[-50.08698,-12.14197],[-50.14171,-12.39526],[-50.19359,-12.56397]]]},"properties":{"cod_ibge":"171884","name":"Sandolândia","uf":"TO"}},
{"type":"Feature","geometry":{"type":"Polygon","coordinates":[[[-46.59286,-12.80453],[-46.63522,-12.97005],[-46.4458,-12.93595],[-46.59286,-12.80453]]]},"properties":{"cod_ibge":"171515","name":"Novo Alegre","uf":"TO"}},
{"type":"Feature","geometry":{"type":"Polygon","coordinates":[[[-48.71589,-11.162],[-48.91054,-11.2525],[-49.14992,-11.22885],[-49.33077,-11.25068],[-49.14468,-11.33299],[-48.95004,-11.51761],[-48.78775,-11.44758],[-48.76443,-11.36755],[-48.56979,-11.39574],[-48.54218,-11.38346],[-48.65212,-11.20066],[-48.71589,-11.162]]]},"properties":{"cod_ibge":"170035","name":"Aliança do Tocantins","uf":"TO"}},
{"type":"Feature","geometry":{"type":"Polygon","coordinates":[[[-49.01476,-10.77638],[-48.90435,-10.84369],[-48.85295,-10.96828],[-48.78918,-10.79457],[-48.78299,-10.69589],[-48.96479,-10.76047],[-49.01476,-10.77638]]]},"properties":{"cod_ibge":"170755","name":"Fátima","uf":"TO"}},
{"type":"Feature","geometry":{"type":"Polygon","coordinates":[[[-48.85295,-10.96828],[-48.90435,-10.84369],[-49.01476,-10.77638],[-49.20227,-10.80049],[-49.3379,-10.74],[-49.55587,-10.82686],[-49.62964,-10.92645],[-49.75766,-10.90144],[-49.79858,-10.99602],[-49.65629,-11.12744],[-49.4426,-11.17337],[-49.19132,-11.07378],[-49.05141,-11.13108],[-48.85771,-11.10425],[-48.85295,-10.96828]]]},"properties":{"cod_ibge":"171889","name":"Santa Rita do Tocantins","uf":"TO"}},
{"type":"Feature","geometry":{"type":"Polygon","coordinates":[[[-49.33077,-11.25068],[-49.14992,-11.22885],[-48.91054,-11.2525],[-48.71589,-11.162],[-48.85771,-11.10425],[-49.05141,-11.13108],[-49.19132,-11.07378],[-49.4426,-11.17337],[-49.33077,-11.25068]]]},"properties":{"cod_ibge":"170625","name":"Crixás do Tocantins","uf":"TO"}},
{"type":"Feature","geometry":{"type":"Polygon","coordinates":[[[-48.13909,-7.12255],[-48.1843,-7.01523],[-48.29281,-6.9411],[-48.30566,-7.11982],[-48.42701,-7.1521],[-48.56217,-7.2767],[-48.68496,-7.28216],[-48.93053,-7.22986],[-49.02856,-7.25397],[-49.18656,-7.19667],[-49.26414,-7.36401],[-49.24082,-7.48088],[-49.01191,-7.49998],[-48.95194,-7.44041],[-48.63641,-7.4968],[-48.59168,-7.56273],[-48.59073,-7.44587],[-48.39894,-7.50271],[-48.33088,-7.44587],[-48.15146,-7.52817],[-48.08579,-7.54773],[-48.04629,-7.3581],[-48.13909,-7.12255]]]},"properties":{"cod_ibge":"170210","name":"Araguaína","uf":"TO"}},
{"type":"Feature","geometry":{"type":"Polygon","coordinates":[[[-47.15348,-11.74816],[-47.04212,-11.63675],[-46.926,-11.40256],[-46.92267,-11.34845],[-47.09161,-11.36436],[-47.08114,-11.52671],[-47.1492,-11.61765],[-47.15348,-11.74816]]]},"properties":{"cod_ibge":"171800","name":"Porto Alegre do Tocantins","uf":"TO"}},
{"type":"Feature","geometry":{"type":"Polygon","coordinates":[[[-46.60619,-12.73268],[-46.4182,-12.82226],[-46.37251,-12.98597],[-46.11314,-12.91821],[-46.30779,-12.94186],[-46.28257,-12.76405],[-46.442,-12.77087],[-46.62475,-12.66401],[-46.60619,-12.73268]]]},"properties":{"cod_ibge":"171215","name":"Lavandeira","uf":"TO"}},
{"type":"Feature","geometry":{"type":"Polygon","coordinates":[[[-48.51791,-6.66735],[-48.62499,-6.5805],[-48.63356,-6.49137],[-48.6664,-6.66417],[-48.64355,-6.79513],[-48.64308,-6.79513],[-48.56455,-6.9452],[-48.42368,-6.97612],[-48.31613,-6.92519],[-48.38656,-6.85198],[-48.51791,-6.66735]]]},"properties":{"cod_ibge":"170215","name":"Araguanã","uf":"TO"}},
{"type":"Feature","geometry":{"type":"Polygon","coordinates":[[[-46.94694,-12.37707],[-46.73849,-12.25929],[-46.66187,-12.27112],[-46.48435,-12.0974],[-46.37109,-12.09968],[-46.38917,-12.04875],[-46.30684,-11.91369],[-46.33777,-11.81319],[-46.44057,-11.75589],[-46.68328,-12.01737],[-46.74896,-12.04193],[-46.87745,-12.21973],[-46.9812,-12.36661],[-46.94694,-12.37707]]]},"properties":{"cod_ibge":"171780","name":"Ponte Alta do Bom Jesus","uf":"TO"}},
{"type":"Feature","geometry":{"type":"Polygon","coordinates":[[[-47.68507,-9.18343],[-47.77216,-9.12067],[-48.00393,-9.1275],[-48.17859,-8.95515],[-48.28281,-9.13523],[-48.34944,-9.28756],[-48.20667,-9.35077],[-48.18811,-9.43808],[-47.90542,-9.3394],[-47.7241,-9.3194],[-47.68507,-9.18343]]]},"properties":{"cod_ibge":"171650","name":"Pedro Afonso","uf":"TO"}},
{"type":"Feature","geometry":{"type":"Polygon","coordinates":[[[-48.4589,-11.30661],[-48.28472,-11.53625],[-48.17383,-11.60492],[-47.99061,-11.56991],[-47.90875,-11.39574],[-47.77597,-11.27205],[-47.8031,-11.20884],[-48.07199,-11.27978],[-48.25902,-11.2816],[-48.45414,-11.2625],[-48.4589,-11.30661]]]},"properties":{"cod_ibge":"171890","name":"Santa Rosa do Tocantins","uf":"TO"}},
{"type":"Feature","geometry":{"type":"Polygon","coordinates":[[[-48.67687,-8.68822],[-48.59549,-8.82919],[-48.65783,-8.99335],[-48.45652,-8.93241],[-48.3937,-8.97516],[-48.29519,-8.80281],[-48.12767,-8.74097],[-48.13005,-8.63501],[-48.13338,-8.54406],[-48.29328,-8.52178],[-48.46271,-8.59363],[-48.64212,-8.52042],[-48.67687,-8.68822]]]},"properties":{"cod_ibge":"170930","name":"Guaraí","uf":"TO"}},
{"type":"Feature","geometry":{"type":"Polygon","coordinates":[[[-48.11529,-12.0874],[-47.94111,-12.05102],[-47.79929,-12.15288],[-47.87068,-12.01373],[-47.86782,-11.87958],[-47.99965,-11.8191],[-48.08912,-11.72224],[-48.17383,-11.60492],[-48.28472,-11.53625],[-48.4589,-11.30661],[-48.47889,-11.36254],[-48.46318,-11.52807],[-48.38323,-11.64767],[-48.33516,-11.92006],[-48.11529,-12.0874]]]},"properties":{"cod_ibge":"172049","name":"São Valério","uf":"TO"}},
{"type":"Feature","geometry":{"type":"Polygon","coordinates":[[[-46.70422,-11.12972],[-46.79655,-11.09015],[-46.98453,-11.16428],[-47.12969,-11.10425],[-47.26342,-10.97829],[-47.33385,-11.00512],[-47.31529,-11.15928],[-47.41333,-11.26978],[-47.47853,-11.51625],[-47.42332,-11.56445],[-47.47615,-11.96371],[-47.20964,-11.84366],[-47.15348,-11.74816],[-47.1492,-11.61765],[-47.08114,-11.52671],[-47.09161,-11.36436],[-46.92267,-11.34845],[-46.70422,-11.12972]]]},"properties":{"cod_ibge":"170040","name":"Almas","uf":"TO"}},
{"type":"Feature","geometry":{"type":"Polygon","coordinates":[[[-46.14455,-11.62447],[-46.34634,-11.57536],[-46.46151,-11.6554],[-46.72516,-11.68541],[-46.78846,-11.8191],[-46.74896,-12.04193],[-46.68328,-12.01737],[-46.44057,-11.75589],[-46.33777,-11.81319],[-46.30779,-11.68677],[-46.14455,-11.62447]]]},"properties":{"cod_ibge":"171525","name":"Novo Jardim","uf":"TO"}},
{"type":"Feature","geometry":{"type":"Polygon","coordinates":[[[-47.77597,-11.27205],[-47.64129,-11.30616],[-47.62273,-11.44212],[-47.41333,-11.26978],[-47.31529,-11.15928],[-47.33385,-11.00512],[-47.4771,-11.01603],[-47.72552,-10.95055],[-47.69126,-11.04877],[-47.8031,-11.20884],[-47.77597,-11.27205]]]},"properties":{"cod_ibge":"171700","name":"Pindorama do Tocantins","uf":"TO"}},
{"type":"Feature","geometry":{"type":"Polygon","coordinates":[[[-48.44129,-5.40818],[-48.32802,-5.49685],[-48.13814,-5.6028],[-48.1724,-5.70876],[-48.27567,-5.72649],[-48.29186,-5.837],[-48.23284,-5.9475],[-48.22428,-6.00343],[-48.11577,-5.97296],[-48.0777,-5.88156],[-47.93873,-5.96978],[-47.75931,-5.76969],[-47.83879,-5.64964],[-48.07817,-5.43819],[-48.2514,-5.31768],[-48.40465,-5.29494],[-48.44129,-5.40818]]]},"properties":{"cod_ibge":"170220","name":"Araguatins","uf":"TO"}},
{"type":"Feature","geometry":{"type":"Polygon","coordinates":[[[-46.19833,-12.50394],[-46.37014,-12.34751],[-46.37109,-12.09968],[-46.48435,-12.0974],[-46.66187,-12.27112],[-46.73849,-12.25929],[-46.94694,-12.37707],[-46.89363,-12.46302],[-46.70565,-12.58489],[-46.5724,-12.59625],[-46.19833,-12.50394]]]},"properties":{"cod_ibge":"172090","name":"Taguatinga","uf":"TO"}},
{"type":"Feature","geometry":{"type":"Polygon","coordinates":[[[-48.99144,-11.95598],[-49.09043,-12.08785],[-49.38454,-12.14834],[-49.47401,-12.22882],[-49.64724,-12.22519],[-49.55682,-12.41845],[-49.3617,-12.53259],[-49.3341,-12.53214],[-49.18561,-12.25656],[-48.92101,-12.2934],[-48.92719,-12.12242],[-48.98526,-11.94188],[-48.99144,-11.95598]]]},"properties":{"cod_ibge":"170765","name":"Figueirópolis","uf":"TO"}},
{"type":"Feature","geometry":{"type":"Polygon","coordinates":[[[-48.82392,-10.05653],[-48.65783,-9.78505],[-48.86057,-9.73003],[-48.88769,-9.7705],[-48.96765,-9.85281],[-48.85057,-9.89919],[-48.88912,-10.0629],[-48.82392,-10.05653]]]},"properties":{"cod_ibge":"170310","name":"Barrolândia","uf":"TO"}},
{"type":"Feature","geometry":{"type":"Polygon","coordinates":[[[-46.87745,-12.21973],[-46.86413,-11.99145],[-47.05687,-11.95098],[-47.12064,-12.25884],[-47.11731,-12.36206],[-46.9812,-12.36661],[-46.87745,-12.21973]]]},"properties":{"cod_ibge":"172093","name":"Taipas do Tocantins","uf":"TO"}},
{"type":"Feature","geometry":{"type":"Polygon","coordinates":[[[-47.72552,-10.95055],[-47.4771,-11.01603],[-47.33385,-11.00512],[-47.26342,-10.97829],[-47.12969,-11.10425],[-46.98453,-11.16428],[-46.79655,-11.09015],[-46.70422,-11.12972],[-46.79512,-10.95464],[-46.88792,-10.88325],[-46.8884,-10.67907],[-46.94836,-10.66133],[-47.08685,-10.36894],[-47.30292,-10.44079],[-47.4633,-10.53128],[-47.53992,-10.42442],[-47.66889,-10.39304],[-47.83784,-10.3944],[-47.85545,-10.56084],[-47.74218,-10.90644],[-47.72552,-10.95055]]]},"properties":{"cod_ibge":"171790","name":"Ponte Alta do Tocantins","uf":"TO"}},
{"type":"Feature","geometry":{"type":"Polygon","coordinates":[[[-48.11529,-12.0874],[-48.33516,-11.92006],[-48.38323,-11.64767],[-48.46318,-11.52807],[-48.47889,-11.36254],[-48.54218,-11.38346],[-48.56979,-11.39574],[-48.67829,-11.52261],[-48.76396,-11.74453],[-48.89245,-11.8664],[-48.75539,-11.99281],[-48.78014,-12.13333],[-48.62642,-12.21336],[-48.74778,-12.30931],[-48.91101,-12.29476],[-48.99715,-12.49485],[-48.79965,-12.38753],[-48.71066,-12.39981],[-48.61262,-12.49803],[-48.447,-12.43664],[-48.3128,-12.2693],[-48.26045,-12.17198],[-48.15527,-12.18017],[-48.11529,-12.0874]]]},"properties":{"cod_ibge":"171660","name":"Peixe","uf":"TO"}},
{"type":"Feature","geometry":{"type":"Polygon","coordinates":[[[-49.23749,-12.88365],[-49.08805,-12.89093],[-48.97574,-12.95686],[-48.8796,-12.81726],[-48.87009,-12.80316],[-48.78157,-12.43437],[-48.71066,-12.39981],[-48.79965,-12.38753],[-48.99715,-12.49485],[-49.05283,-12.61717],[-49.16134,-12.5526],[-49.3341,-12.53214],[-49.3617,-12.53259],[-49.3479,-12.78997],[-49.23749,-12.88365]]]},"properties":{"cod_ibge":"172097","name":"Talismã","uf":"TO"}},
{"type":"Feature","geometry":{"type":"Polygon","coordinates":[[[-47.99108,-6.15713],[-47.86211,-6.02844],[-47.69221,-6.01707],[-47.69982,-5.92931],[-47.75931,-5.76969],[-47.93873,-5.96978],[-48.0777,-5.88156],[-48.11577,-5.97296],[-48.22428,-6.00343],[-48.15575,-6.1203],[-47.99108,-6.15713]]]},"properties":{"cod_ibge":"172010","name":"São Bento do Tocantins","uf":"TO"}},
{"type":"Feature","geometry":{"type":"Polygon","coordinates":[[[-48.15241,-8.15071],[-48.13338,-8.54406],[-48.13005,-8.63501],[-48.01726,-8.65138],[-47.94539,-8.57226],[-47.99156,-8.36308],[-47.9768,-8.20665],[-47.90209,-8.16572],[-47.884,-8.07432],[-47.95444,-7.92562],[-47.94587,-8.04885],[-48.10435,-8.08523],[-48.15241,-8.15071]]]},"properties":{"cod_ibge":"171090","name":"Itapiratins","uf":"TO"}},
{"type":"Feature","geometry":{"type":"Polygon","coordinates":[[[-48.46604,-7.85741],[-48.41131,-7.80056],[-48.14194,-7.77328],[-48.20238,-7.66778],[-48.15146,-7.52817],[-48.33088,-7.44587],[-48.39894,-7.50271],[-48.59073,-7.44587],[-48.59168,-7.56273],[-48.51839,-7.73554],[-48.4984,-7.85286],[-48.46604,-7.85741]]]},"properties":{"cod_ibge":"171488","name":"Nova Olinda","uf":"TO"}},
{"type":"Feature","geometry":{"type":"Polygon","coordinates":[[[-48.97954,-10.35893],[-49.09043,-10.34302],[-49.20227,-10.20341],[-49.35075,-10.13111],[-49.44451,-10.00742],[-49.55587,-9.94876],[-49.63915,-10.0006],[-49.81001,-9.89828],[-49.90519,-9.91965],[-50.0275,-9.77368],[-49.99466,-9.67409],[-50.00132,-9.38988],[-49.96706,-9.23118],[-50.03797,-9.28938],[-50.10555,-9.47537],[-50.08936,-9.54586],[-50.225,-9.84098],[-50.48247,-10.4899],[-50.60335,-10.65997],[-49.93993,-10.57039],[-49.76051,-10.51263],[-49.66485,-10.51855],[-49.43499,-10.44033],[-49.23082,-10.54356],[-49.06521,-10.50354],[-48.97669,-10.36212],[-48.97954,-10.35893]]]},"properties":{"cod_ibge":"171750","name":"Pium","uf":"TO"}},
{"type":"Feature","geometry":{"type":"Polygon","coordinates":[[[-48.17002,-13.30019],[-48.07627,-13.24608],[-47.79834,-13.32884],[-47.67984,-13.46799],[-47.62416,-13.37613],[-47.66699,-13.20833],[-47.56847,-13.11693],[-47.39953,-13.12012],[-47.43474,-12.9796],[-47.31672,-12.85546],[-47.36145,-12.73813],[-47.20964,-12.60853],[-47.2934,-12.44892],[-47.51803,-12.44073],[-47.56752,-12.19017],[-47.79929,-12.15288],[-47.94111,-12.05102],[-48.11529,-12.0874],[-48.15527,-12.18017],[-48.26045,-12.17198],[-48.3128,-12.2693],[-48.22808,-12.39117],[-48.28662,-12.67538],[-48.22095,-12.83818],[-48.14004,-12.98733],[-48.14385,-13.1524],[-48.17002,-13.30019]]]},"properties":{"cod_ibge":"171620","name":"Paranã","uf":"TO"}},
{"type":"Feature","geometry":{"type":"Polygon","coordinates":[[[-46.94884,-10.17567],[-46.75324,-10.14884],[-46.60761,-10.22615],[-46.37061,-10.22433],[-46.195,-10.18295],[-46.32492,-10.1834],[-46.44533,-10.07745],[-46.47531,-9.90465],[-46.55241,-9.85644],[-46.81368,-9.97513],[-47.01547,-10.00242],[-47.09447,-10.07199],[-46.94884,-10.17567]]]},"properties":{"cod_ibge":"172015","name":"São Félix do Tocantins","uf":"TO"}},
{"type":"Feature","geometry":{"type":"Polygon","coordinates":[[[-48.97954,-10.35893],[-49.11042,-10.14975],[-49.39834,-9.96103],[-49.40406,-9.96513],[-49.44451,-10.00742],[-49.35075,-10.13111],[-49.20227,-10.20341],[-49.09043,-10.34302],[-48.97954,-10.35893]]]},"properties":{"cod_ibge":"170460","name":"Chapada de Areia","uf":"TO"}},
{"type":"Feature","geometry":{"type":"Polygon","coordinates":[[[-46.19833,-12.50394],[-46.5724,-12.59625],[-46.70565,-12.58489],[-46.62475,-12.66401],[-46.442,-12.77087],[-46.28257,-12.76405],[-46.30684,-12.63673],[-46.19833,-12.50394]]]},"properties":{"cod_ibge":"170270","name":"Aurora do Tocantins","uf":"TO"}},
{"type":"Feature","geometry":{"type":"Polygon","coordinates":[[[-46.195,-10.18295],[-46.37061,-10.22433],[-46.60761,-10.22615],[-46.75324,-10.14884],[-46.94884,-10.17567],[-47.08685,-10.36894],[-46.94836,-10.66133],[-46.8884,-10.67907],[-46.88792,-10.88325],[-46.79512,-10.95464],[-46.70422,-11.12972],[-46.67662,-11.21703],[-46.55288,-11.26523],[-46.26068,-10.81185],[-46.06079,-10.6004],[-45.81998,-10.45625],[-45.79809,-10.32346],[-45.6991,-10.25843],[-45.72337,-10.15521],[-45.74384,-10.23979],[-46.01225,-10.2507],[-46.195,-10.18295]]]},"properties":{"cod_ibge":"171270","name":"Mateiros","uf":"TO"}},
{"type":"Feature","geometry":{"type":"Polygon","coordinates":[[[-48.37847,-8.13798],[-48.45319,-8.06613],[-48.46604,-7.85741],[-48.4984,-7.85286],[-48.62975,-7.96518],[-48.63689,-8.27622],[-48.46842,-8.21483],[-48.37847,-8.13798]]]},"properties":{"cod_ibge":"170550","name":"Colinas do Tocantins","uf":"TO"}},
{"type":"Feature","geometry":{"type":"Polygon","coordinates":[[[-46.59286,-12.80453],[-46.4458,-12.93595],[-46.4182,-12.82226],[-46.60619,-12.73268],[-46.59286,-12.80453]]]},"properties":{"cod_ibge":"170555","name":"Combinado","uf":"TO"}},
{"type":"Feature","geometry":{"type":"Polygon","coordinates":[[[-48.95004,-11.51761],[-49.14468,-11.33299],[-49.33077,-11.25068],[-49.4426,-11.17337],[-49.65629,-11.12744],[-49.79858,-10.99602],[-49.81905,-11.09652],[-49.67818,-11.38937],[-49.61964,-11.37846],[-49.40643,-11.75953],[-49.16705,-11.74407],[-49.09567,-11.60037],[-48.95004,-11.51761]]]},"properties":{"cod_ibge":"170730","name":"Dueré","uf":"TO"}},
{"type":"Feature","geometry":{"type":"Polygon","coordinates":[[[-46.70422,-11.12972],[-46.92267,-11.34845],[-46.926,-11.40256],[-46.74896,-11.47987],[-46.56002,-11.37164],[-46.55288,-11.26523],[-46.67662,-11.21703],[-46.70422,-11.12972]]]},"properties":{"cod_ibge":"171865","name":"Rio da Conceição","uf":"TO"}},
{"type":"Feature","geometry":{"type":"Polygon","coordinates":[[[-49.12232,-8.64684],[-48.9686,-8.41083],[-48.97812,-8.193],[-49.14659,-8.2553],[-49.22083,-8.20392],[-49.28317,-8.37945],[-49.39977,-8.54497],[-49.28984,-8.64183],[-49.12232,-8.64684]]]},"properties":{"cod_ibge":"170600","name":"Couto Magalhães","uf":"TO"}},
{"type":"Feature","geometry":{"type":"Polygon","coordinates":[[[-49.16705,-7.8565],[-49.17562,-8.00929],[-49.01,-8.08432],[-48.84819,-8.13025],[-48.78585,-8.09751],[-48.84867,-7.88651],[-49.16705,-7.8565]]]},"properties":{"cod_ibge":"170320","name":"Bernardo Sayão","uf":"TO"}},
{"type":"Feature","geometry":{"type":"Polygon","coordinates":[[[-47.74837,-5.57188],[-47.58989,-5.56461],[-47.59322,-5.67602],[-47.4771,-5.63736],[-47.47948,-5.6219],[-47.56038,-5.4632],[-47.68031,-5.41545],[-47.74837,-5.57188]]]},"properties":{"cod_ibge":"172020","name":"São Miguel do Tocantins","uf":"TO"}},
{"type":"Feature","geometry":{"type":"Polygon","coordinates":[[[-47.72886,-6.18305],[-47.56419,-6.12985],[-47.4395,-6.01162],[-47.43807,-5.857],[-47.58751,-5.93067],[-47.69982,-5.92931],[-47.69221,-6.01707],[-47.7674,-6.1494],[-47.72886,-6.18305]]]},"properties":{"cod_ibge":"171280","name":"Maurilândia do Tocantins","uf":"TO"}},
{"type":"Feature","geometry":{"type":"Polygon","coordinates":[[[-49.34219,-7.65596],[-49.22702,-7.6073],[-48.80441,-7.56956],[-48.75825,-7.60412],[-48.61405,-7.62321],[-48.51839,-7.73554],[-48.59168,-7.56273],[-48.63641,-7.4968],[-48.95194,-7.44041],[-49.01191,-7.49998],[-49.24082,-7.48088],[-49.26414,-7.36401],[-49.37788,-7.49634],[-49.36075,-7.61503],[-49.34219,-7.65596]]]},"properties":{"cod_ibge":"171630","name":"Pau D'Arco","uf":"TO"}},
{"type":"Feature","geometry":{"type":"Polygon","coordinates":[[[-48.22095,-12.83818],[-48.28662,-12.67538],[-48.22808,-12.39117],[-48.3128,-12.2693],[-48.447,-12.43664],[-48.47508,-12.60671],[-48.54599,-12.73131],[-48.50221,-12.79043],[-48.43082,-12.84227],[-48.22095,-12.83818]]]},"properties":{"cod_ibge":"172025","name":"São Salvador do Tocantins","uf":"TO"}},
{"type":"Feature","geometry":{"type":"Polygon","coordinates":[[[-48.36705,-9.34077],[-48.34944,-9.28756],[-48.28281,-9.13523],[-48.368,-9.07475],[-48.49745,-9.06156],[-48.56455,-9.22117],[-48.57217,-9.42126],[-48.36705,-9.34077]]]},"properties":{"cod_ibge":"171870","name":"Rio dos Bois","uf":"TO"}},
{"type":"Feature","geometry":{"type":"Polygon","coordinates":[[[-48.80536,-10.49354],[-48.93909,-10.51809],[-48.9705,-10.37212],[-48.97669,-10.36212],[-49.06521,-10.50354],[-49.07425,-10.65315],[-48.96051,-10.66497],[-48.82821,-10.56266],[-48.80536,-10.49354]]]},"properties":{"cod_ibge":"171500","name":"Nova Rosalândia","uf":"TO"}},
{"type":"Feature","geometry":{"type":"Polygon","coordinates":[[[-47.11731,-12.36206],[-47.12064,-12.25884],[-47.05687,-11.95098],[-47.20964,-11.84366],[-47.47615,-11.96371],[-47.48281,-12.16607],[-47.56752,-12.19017],[-47.51803,-12.44073],[-47.2934,-12.44892],[-47.11731,-12.36206]]]},"properties":{"cod_ibge":"170560","name":"Conceição do Tocantins","uf":"TO"}},
{"type":"Feature","geometry":{"type":"Polygon","coordinates":[[[-47.84069,-9.87827],[-47.61369,-9.98923],[-47.45473,-9.99832],[-47.27769,-10.05653],[-47.20393,-10.02061],[-47.07162,-9.80051],[-47.0978,-9.45855],[-47.34622,-9.28711],[-47.4119,-9.23572],[-47.65366,-9.35532],[-47.7241,-9.3194],[-47.90542,-9.3394],[-47.93016,-9.48447],[-47.89495,-9.77095],[-47.84069,-9.87827]]]},"properties":{"cod_ibge":"171875","name":"Rio Sono","uf":"TO"}},
{"type":"Feature","geometry":{"type":"Polygon","coordinates":[[[-49.06521,-10.50354],[-49.23082,-10.54356],[-49.43499,-10.44033],[-49.66485,-10.51855],[-49.76051,-10.51263],[-49.58585,-10.56948],[-49.51447,-10.69089],[-49.55587,-10.82686],[-49.3379,-10.74],[-49.20227,-10.80049],[-49.01476,-10.77638],[-48.96479,-10.76047],[-48.96051,-10.66497],[-49.07425,-10.65315],[-49.06521,-10.50354]]]},"properties":{"cod_ibge":"170610","name":"Cristalândia","uf":"TO"}},
{"type":"Feature","geometry":{"type":"Polygon","coordinates":[[[-48.87009,-12.80316],[-48.60072,-13.05873],[-48.58026,-13.31338],[-48.51601,-13.13921],[-48.51173,-12.98597],[-48.56312,-12.93094],[-48.50221,-12.79043],[-48.54599,-12.73131],[-48.47508,-12.60671],[-48.447,-12.43664],[-48.61262,-12.49803],[-48.71066,-12.39981],[-48.78157,-12.43437],[-48.87009,-12.80316]]]},"properties":{"cod_ibge":"171150","name":"Jaú do Tocantins","uf":"TO"}},
{"type":"Feature","geometry":{"type":"Polygon","coordinates":[[[-48.17859,-8.95515],[-48.00393,-9.1275],[-47.77216,-9.12067],[-47.68507,-9.18343],[-47.54277,-8.93741],[-47.74646,-8.96879],[-47.92112,-8.9556],[-48.12576,-8.821],[-48.17859,-8.95515]]]},"properties":{"cod_ibge":"170330","name":"Bom Jesus do Tocantins","uf":"TO"}},
{"type":"Feature","geometry":{"type":"Polygon","coordinates":[[[-48.87437,-9.58269],[-48.68496,-9.61134],[-48.54123,-9.53267],[-48.57217,-9.42126],[-48.56455,-9.22117],[-48.73207,-9.18297],[-48.73731,-9.19662],[-48.75349,-9.19798],[-48.7492,-9.40716],[-48.87437,-9.58269]]]},"properties":{"cod_ibge":"171330","name":"Miranorte","uf":"TO"}},
{"type":"Feature","geometry":{"type":"Polygon","coordinates":[[[-48.36562,-9.69592],[-48.36848,-9.92329],[-48.22332,-9.96285],[-48.22761,-9.95103],[-48.25902,-9.77232],[-48.36562,-9.69592]]]},"properties":{"cod_ibge":"171200","name":"Lajeado","uf":"TO"}},
{"type":"Feature","geometry":{"type":"Polygon","coordinates":[[[-49.72244,-9.34895],[-49.59727,-9.31485],[-49.46402,-9.44081],[-49.26557,-9.70956],[-49.16658,-9.74276],[-48.97669,-9.71275],[-48.88769,-9.7705],[-48.97098,-9.59815],[-49.15515,-9.56814],[-49.35884,-9.25619],[-49.39359,-9.15023],[-49.45974,-9.27665],[-49.60108,-9.25664],[-49.71244,-9.17524],[-49.72244,-9.34895]]]},"properties":{"cod_ibge":"170025","name":"Abreulândia","uf":"TO"}},
{"type":"Feature","geometry":{"type":"Polygon","coordinates":[[[-47.38097,-6.2499],[-47.43046,-6.06846],[-47.4395,-6.01162],[-47.56419,-6.12985],[-47.72886,-6.18305],[-47.72172,-6.28855],[-47.57609,-6.41588],[-47.43046,-6.4227],[-47.38097,-6.2499]]]},"properties":{"cod_ibge":"172120","name":"Tocantinópolis","uf":"TO"}},
{"type":"Feature","geometry":{"type":"Polygon","coordinates":[[[-47.69982,-5.92931],[-47.58751,-5.93067],[-47.43807,-5.857],[-47.44236,-5.83063],[-47.4771,-5.63736],[-47.59322,-5.67602],[-47.75122,-5.76742],[-47.75931,-5.76969],[-47.69982,-5.92931]]]},"properties":{"cod_ibge":"171070","name":"Itaguatins","uf":"TO"}},
{"type":"Feature","geometry":{"type":"Polygon","coordinates":[[[-48.92101,-12.2934],[-49.18561,-12.25656],[-49.3341,-12.53214],[-49.16134,-12.5526],[-49.05283,-12.61717],[-48.99715,-12.49485],[-48.91101,-12.29476],[-48.92101,-12.2934]]]},"properties":{"cod_ibge":"170070","name":"Alvorada","uf":"TO"}},
{"type":"Feature","geometry":{"type":"Polygon","coordinates":[[[-48.08912,-11.72224],[-47.99965,-11.8191],[-47.86782,-11.87958],[-47.87068,-12.01373],[-47.79929,-12.15288],[-47.56752,-12.19017],[-47.48281,-12.16607],[-47.47615,-11.96371],[-47.42332,-11.56445],[-47.47853,-11.51625],[-47.41333,-11.26978],[-47.62273,-11.44212],[-47.69411,-11.49942],[-47.69364,-11.63857],[-47.82737,-11.76044],[-48.08912,-11.72224]]]},"properties":{"cod_ibge":"171420","name":"Natividade","uf":"TO"}},
{"type":"Feature","geometry":{"type":"Polygon","coordinates":[[[-47.69221,-6.01707],[-47.86211,-6.02844],[-47.99108,-6.15713],[-47.97204,-6.18351],[-47.7674,-6.1494],[-47.69221,-6.01707]]]},"properties":{"cod_ibge":"170382","name":"Cachoeirinha","uf":"TO"}},
{"type":"Feature","geometry":{"type":"Polygon","coordinates":[[[-48.17859,-8.95515],[-48.12576,-8.821],[-48.12767,-8.74097],[-48.29519,-8.80281],[-48.3937,-8.97516],[-48.368,-9.07475],[-48.28281,-9.13523],[-48.17859,-8.95515]]]},"properties":{"cod_ibge":"172125","name":"Tupirama","uf":"TO"}},
{"type":"Feature","geometry":{"type":"Polygon","coordinates":[[[-47.86211,-6.54093],[-47.70982,-6.70782],[-47.49614,-6.69736],[-47.4652,-6.5814],[-47.63463,-6.45044],[-47.77121,-6.55685],[-47.86211,-6.54093]]]},"properties":{"cod_ibge":"171380","name":"Palmeiras do Tocantins","uf":"TO"}},
{"type":"Feature","geometry":{"type":"Polygon","coordinates":[[[-48.2514,-5.31768],[-48.07817,-5.43819],[-48.06342,-5.37998],[-48.06913,-5.2713],[-48.18478,-5.2572],[-48.2514,-5.31768]]]},"properties":{"cod_ibge":"170380","name":"Buriti do Tocantins","uf":"TO"}},
{"type":"Feature","geometry":{"type":"Polygon","coordinates":[[[-49.99466,-9.67409],[-50.0275,-9.77368],[-49.90519,-9.91965],[-49.81001,-9.89828],[-49.63915,-10.0006],[-49.55587,-9.94876],[-49.44451,-10.00742],[-49.40406,-9.96513],[-49.52303,-9.84235],[-49.45498,-9.70047],[-49.5711,-9.58496],[-49.68056,-9.53995],[-49.85046,-9.68137],[-49.99466,-9.67409]]]},"properties":{"cod_ibge":"171250","name":"Marianópolis do Tocantins","uf":"TO"}},
{"type":"Feature","geometry":{"type":"Polygon","coordinates":[[[-48.99144,-11.95598],[-49.10756,-11.86822],[-49.16705,-11.74407],[-49.40643,-11.75953],[-49.2589,-11.96644],[-49.38454,-12.14834],[-49.09043,-12.08785],[-48.99144,-11.95598]]]},"properties":{"cod_ibge":"170386","name":"Cariri do Tocantins","uf":"TO"}},
{"type":"Feature","geometry":{"type":"Polygon","coordinates":[[[-46.80654,-7.95108],[-47.01499,-8.05886],[-47.06782,-8.27349],[-47.16681,-8.39309],[-47.02974,-8.50268],[-46.84604,-8.53406],[-46.72659,-8.38309],[-46.54384,-8.3176],[-46.46579,-8.07295],[-46.50101,-7.97336],[-46.60523,-7.89697],[-46.72707,-7.92334],[-46.80654,-7.95108]]]},"properties":{"cod_ibge":"170384","name":"Campos Lindos","uf":"TO"}},
{"type":"Feature","geometry":{"type":"Polygon","coordinates":[[[-48.64212,-8.52042],[-48.46271,-8.59363],[-48.29328,-8.52178],[-48.28234,-8.33761],[-48.48174,-8.4231],[-48.62214,-8.33352],[-48.63499,-8.39991],[-48.64212,-8.52042]]]},"properties":{"cod_ibge":"171840","name":"Presidente Kennedy","uf":"TO"}},
{"type":"Feature","geometry":{"type":"Polygon","coordinates":[[[-48.06342,-5.37998],[-47.97918,-5.42273],[-47.93635,-5.34951],[-48.01488,-5.2381],[-48.06913,-5.2713],[-48.06342,-5.37998]]]},"properties":{"cod_ibge":"170389","name":"Carrasco Bonito","uf":"TO"}},
{"type":"Feature","geometry":{"type":"Polygon","coordinates":[[[-47.84022,-5.60189],[-47.82784,-5.3868],[-47.97918,-5.42273],[-48.06342,-5.37998],[-48.07817,-5.43819],[-47.83879,-5.64964],[-47.84022,-5.60189]]]},"properties":{"cod_ibge":"170255","name":"Augustinópolis","uf":"TO"}},
{"type":"Feature","geometry":{"type":"Polygon","coordinates":[[[-48.82392,-10.05653],[-48.67211,-10.09064],[-48.56931,-10.02879],[-48.35896,-10.0538],[-48.36848,-9.92329],[-48.36562,-9.69592],[-48.36705,-9.34077],[-48.57217,-9.42126],[-48.54123,-9.53267],[-48.68496,-9.61134],[-48.87437,-9.58269],[-48.86057,-9.73003],[-48.65783,-9.78505],[-48.82392,-10.05653]]]},"properties":{"cod_ibge":"171320","name":"Miracema do Tocantins","uf":"TO"}},
{"type":"Feature","geometry":{"type":"Polygon","coordinates":[[[-48.75492,-5.34906],[-48.59691,-5.42273],[-48.44129,-5.40818],[-48.40465,-5.29494],[-48.48745,-5.19399],[-48.75492,-5.34906]]]},"properties":{"cod_ibge":"170740","name":"Esperantina","uf":"TO"}}
]}