{"type":"FeatureCollection", "features": [
{"type":"Feature","geometry":{"type":"Polygon","coordinates":[[[-40.701106,-20.834784],[-40.653516,-20.805681],[-40.628292,-20.820232],[-40.583081,-20.800679],[-40.570707,-20.765209],[-40.647805,-20.627423],[-40.644473,-20.577856],[-40.649708,-20.547843],[-40.680642,-20.556938],[-40.683974,-20.576037],[-40.672076,-20.594681],[-40.711101,-20.614235],[-40.725854,-20.634698],[-40.759167,-20.65789],[-40.770113,-20.676989],[-40.770589,-20.705638],[-40.838644,-20.687448],[-40.792005,-20.717006],[-40.810566,-20.750657],[-40.784391,-20.748383],[-40.771541,-20.767028],[-40.770589,-20.787036],[-40.727281,-20.807954],[-40.701106,-20.834784]]]},"properties":{"cod_ibge":"320040","name":"Anchieta","uf":"ES"}},
{"type":"Feature","geometry":{"type":"Polygon","coordinates":[[[-40.426031,-18.257316],[-40.397952,-18.255952],[-40.390814,-18.273232],[-40.346078,-18.279144],[-40.340367,-18.295514],[-40.293252,-18.31234],[-40.276596,-18.306883],[-40.250421,-18.32007],[-40.22377,-18.31234],[-40.211872,-18.290058],[-40.196643,-18.297333],[-40.1481,-18.28642],[-40.130016,-18.274142],[-40.090515,-18.179556],[-40.106696,-18.150452],[-40.09813,-18.111799],[-40.104317,-18.094974],[-40.171896,-18.057685],[-40.185221,-18.032675],[-40.209492,-18.021306],[-40.220438,-17.981744],[-40.222342,-17.980379],[-40.25518,-17.971739],[-40.345602,-17.923992],[-40.368446,-17.923082],[-40.388434,-17.960826],[-40.39938,-18.013121],[-40.390814,-18.03222],[-40.419844,-18.086334],[-40.420796,-18.106797],[-40.442688,-18.124987],[-40.44364,-18.15409],[-40.422224,-18.181829],[-40.419844,-18.210933],[-40.426031,-18.257316]]]},"properties":{"cod_ibge":"320350","name":"Montanha","uf":"ES"}},
{"type":"Feature","geometry":{"type":"Polygon","coordinates":[[[-40.416037,-20.016706],[-40.386531,-20.014433],[-40.367018,-20.039443],[-40.352265,-20.046719],[-40.326566,-20.029439],[-40.295632,-20.023073],[-40.274216,-20.035805],[-40.251848,-20.032622],[-40.239951,-20.045355],[-40.220438,-20.02853],[-40.195215,-20.035805],[-40.191884,-20.05445],[-40.183793,-20.039898],[-40.159046,-20.035805],[-40.154287,-20.012159],[-40.168088,-19.999881],[-40.208065,-19.988058],[-40.238523,-20.009431],[-40.264222,-20.009885],[-40.274692,-19.988967],[-40.303247,-19.970778],[-40.30515,-19.955316],[-40.324187,-19.948041],[-40.346078,-19.906659],[-40.424603,-19.907114],[-40.442212,-19.858912],[-40.460772,-19.878011],[-40.505032,-19.853455],[-40.503128,-19.876192],[-40.477429,-19.90484],[-40.474574,-19.937127],[-40.454586,-19.946676],[-40.447447,-19.994879],[-40.416037,-20.016706]]]},"properties":{"cod_ibge":"320220","name":"Fundão","uf":"ES"}},
{"type":"Feature","geometry":{"type":"Polygon","coordinates":[[[-40.374633,-19.079487],[-40.37035,-19.087217],[-40.413182,-19.10859],[-40.448399,-19.099495],[-40.454586,-19.107681],[-40.490755,-19.109954],[-40.505508,-19.121778],[-40.508363,-19.153609],[-40.539297,-19.140877],[-40.560237,-19.140877],[-40.573087,-19.153155],[-40.580226,-19.178165],[-40.602593,-19.189989],[-40.618774,-19.209542],[-40.619726,-19.243648],[-40.613063,-19.27548],[-40.60069,-19.266385],[-40.579274,-19.280482],[-40.557382,-19.271842],[-40.537394,-19.285029],[-40.544057,-19.310495],[-40.532159,-19.320954],[-40.508839,-19.312768],[-40.471242,-19.293215],[-40.43079,-19.2582],[-40.417941,-19.219092],[-40.403187,-19.197719],[-40.41223,-19.189079],[-40.402236,-19.135874],[-40.387958,-19.114502],[-40.365115,-19.095857],[-40.374633,-19.079487]]]},"properties":{"cod_ibge":"320225","name":"Governador Lindenberg","uf":"ES"}},
{"type":"Feature","geometry":{"type":"Polygon","coordinates":[[[-41.628177,-20.861614],[-41.644358,-20.868435],[-41.652449,-20.892081],[-41.670533,-20.889808],[-41.683383,-20.922094],[-41.705275,-20.92164],[-41.733829,-20.943467],[-41.717172,-20.953017],[-41.710034,-20.99076],[-41.722407,-21.00895],[-41.725263,-21.033051],[-41.71622,-21.046693],[-41.721455,-21.073523],[-41.735733,-21.102626],[-41.717172,-21.1049],[-41.708606,-21.090803],[-41.678148,-21.080344],[-41.652925,-21.085801],[-41.632936,-21.069885],[-41.617231,-21.033051],[-41.591532,-21.007585],[-41.585345,-20.97348],[-41.572496,-20.958019],[-41.587249,-20.92937],[-41.579635,-20.911181],[-41.583918,-20.899357],[-41.611045,-20.892536],[-41.628177,-20.861614]]]},"properties":{"cod_ibge":"320480","name":"São José do Calçado","uf":"ES"}},
{"type":"Feature","geometry":{"type":"Polygon","coordinates":[[[-41.782372,-20.504188],[-41.774281,-20.523287],[-41.783324,-20.558757],[-41.798553,-20.576037],[-41.781896,-20.597864],[-41.769522,-20.626968],[-41.750962,-20.638791],[-41.725263,-20.647886],[-41.69528,-20.668804],[-41.671961,-20.667894],[-41.660063,-20.637427],[-41.66863,-20.610597],[-41.664822,-20.584222],[-41.674816,-20.555574],[-41.69528,-20.529199],[-41.713365,-20.526925],[-41.745251,-20.505552],[-41.782372,-20.504188]]]},"properties":{"cod_ibge":"320180","name":"Divino de São Lourenço","uf":"ES"}},
{"type":"Feature","geometry":{"type":"Polygon","coordinates":[[[-40.935254,-19.22273],[-40.910031,-19.236827],[-40.875289,-19.264566],[-40.894326,-19.281391],[-40.86244,-19.30049],[-40.874813,-19.312768],[-40.831506,-19.338689],[-40.82056,-19.356878],[-40.817704,-19.32823],[-40.808186,-19.303219],[-40.783915,-19.292305],[-40.756788,-19.297762],[-40.708245,-19.282301],[-40.701106,-19.241374],[-40.673028,-19.24001],[-40.664937,-19.230006],[-40.657799,-19.166797],[-40.691112,-19.149971],[-40.686353,-19.111318],[-40.713004,-19.108135],[-40.714908,-19.077668],[-40.729661,-19.034467],[-40.768686,-18.994905],[-40.782963,-19.020825],[-40.816752,-19.016278],[-40.858632,-19.021735],[-40.857681,-18.940336],[-40.906223,-18.940336],[-40.916693,-18.940791],[-40.946676,-18.944884],[-40.944296,-18.998088],[-40.895753,-19.013095],[-40.899085,-19.050383],[-40.949531,-19.079032],[-40.938585,-19.094038],[-40.961905,-19.103133],[-40.964284,-19.122232],[-40.948103,-19.141786],[-40.940965,-19.180439],[-40.92288,-19.203176],[-40.935254,-19.22273]]]},"properties":{"cod_ibge":"320400","name":"Pancas","uf":"ES"}},
{"type":"Feature","geometry":{"type":"MultiPolygon","coordinates":[[[[-40.274216,-20.320018],[-40.289445,-20.30865],[-40.288969,-20.283639],[-40.258987,-20.265904],[-40.23424,-20.276363],[-40.214727,-20.242712],[-40.220914,-20.239074],[-40.310861,-20.237255],[-40.329422,-20.239984],[-40.328946,-20.260447],[-40.361783,-20.306376],[-40.354645,-20.326839],[-40.281831,-20.32502],[-40.274216,-20.320018]]],[[[-29.335447,-20.488727],[-29.344013,-20.5101],[-29.32926,-20.524651],[-29.298802,-20.520104],[-29.335447,-20.488727]]]]},"properties":{"cod_ibge":"320530","name":"Vitória","uf":"ES"}},
{"type":"Feature","geometry":{"type":"Polygon","coordinates":[[[-41.64531,-21.143553],[-41.612472,-21.157195],[-41.589153,-21.149464],[-41.578683,-21.169473],[-41.557743,-21.173111],[-41.545845,-21.149464],[-41.5092,-21.1481],[-41.493971,-21.123089],[-41.513007,-21.106719],[-41.503013,-21.072159],[-41.515863,-21.063973],[-41.507296,-21.044874],[-41.506821,-20.990305],[-41.542514,-20.966659],[-41.572496,-20.958019],[-41.585345,-20.97348],[-41.591532,-21.007585],[-41.572496,-21.023956],[-41.586773,-21.056243],[-41.57202,-21.076706],[-41.60105,-21.104445],[-41.63484,-21.127182],[-41.64531,-21.143553]]]},"properties":{"cod_ibge":"320050","name":"Apiacá","uf":"ES"}},
{"type":"Feature","geometry":{"type":"Polygon","coordinates":[[[-41.628177,-20.861614],[-41.618183,-20.846153],[-41.623894,-20.822961],[-41.615328,-20.801133],[-41.630557,-20.776577],[-41.596767,-20.714733],[-41.61152,-20.704728],[-41.598195,-20.683356],[-41.599147,-20.664711],[-41.618183,-20.648341],[-41.644834,-20.651524],[-41.660063,-20.637427],[-41.671961,-20.667894],[-41.69528,-20.668804],[-41.725263,-20.647886],[-41.750962,-20.638791],[-41.76048,-20.64152],[-41.793318,-20.680627],[-41.786179,-20.691541],[-41.787607,-20.721554],[-41.801408,-20.740653],[-41.849475,-20.739289],[-41.844716,-20.777487],[-41.817113,-20.801133],[-41.775233,-20.799769],[-41.740016,-20.817504],[-41.736209,-20.835694],[-41.741444,-20.872528],[-41.712413,-20.86798],[-41.726215,-20.892536],[-41.721931,-20.920275],[-41.733829,-20.943467],[-41.705275,-20.92164],[-41.683383,-20.922094],[-41.670533,-20.889808],[-41.652449,-20.892081],[-41.644358,-20.868435],[-41.628177,-20.861614]]]},"properties":{"cod_ibge":"320230","name":"Guaçuí","uf":"ES"}},
{"type":"Feature","geometry":{"type":"Polygon","coordinates":[[[-39.955357,-18.31143],[-39.92014,-18.315068],[-39.937748,-18.287784],[-39.926802,-18.255952],[-39.92823,-18.235034],[-39.899676,-18.200019],[-39.911573,-18.179101],[-40.220438,-17.981744],[-40.209492,-18.021306],[-40.185221,-18.032675],[-40.171896,-18.057685],[-40.104317,-18.094974],[-40.09813,-18.111799],[-40.106696,-18.150452],[-40.090515,-18.179556],[-40.130016,-18.274142],[-40.094322,-18.282327],[-40.067672,-18.278234],[-40.03531,-18.294605],[-40.017701,-18.287329],[-39.989147,-18.287784],[-39.965351,-18.297788],[-39.955357,-18.31143]]]},"properties":{"cod_ibge":"320405","name":"Pedro Canário","uf":"ES"}},
{"type":"Feature","geometry":{"type":"Polygon","coordinates":[[[-40.368446,-17.923082],[-40.417465,-17.927175],[-40.445067,-17.918989],[-40.462676,-17.928084],[-40.484092,-17.90853],[-40.500749,-17.911714],[-40.51693,-17.894434],[-40.567852,-17.915806],[-40.584509,-17.91808],[-40.587364,-17.938998],[-40.609732,-17.937634],[-40.622106,-17.960371],[-40.626389,-17.990838],[-40.645901,-17.993567],[-40.662082,-18.012666],[-40.640666,-18.034039],[-40.609256,-18.105888],[-40.588792,-18.108161],[-40.578798,-18.095883],[-40.55881,-18.114073],[-40.560713,-18.140903],[-40.541677,-18.112254],[-40.510267,-18.133172],[-40.482664,-18.132717],[-40.458869,-18.11953],[-40.442688,-18.124987],[-40.420796,-18.106797],[-40.419844,-18.086334],[-40.390814,-18.03222],[-40.39938,-18.013121],[-40.388434,-17.960826],[-40.368446,-17.923082]]]},"properties":{"cod_ibge":"320360","name":"Mucurici","uf":"ES"}},
{"type":"Feature","geometry":{"type":"Polygon","coordinates":[[[-40.28421,-18.576999],[-40.246613,-18.568359],[-40.229957,-18.582456],[-40.167612,-18.546076],[-40.157618,-18.510152],[-40.124781,-18.488324],[-40.176655,-18.471499],[-40.199974,-18.48696],[-40.247089,-18.49651],[-40.272312,-18.494236],[-40.30753,-18.458311],[-40.318952,-18.440122],[-40.329897,-18.401924],[-40.354645,-18.377822],[-40.402712,-18.385553],[-40.423652,-18.365544],[-40.44364,-18.361907],[-40.457917,-18.375094],[-40.486472,-18.366454],[-40.486947,-18.377368],[-40.456013,-18.411928],[-40.46458,-18.436484],[-40.461724,-18.46104],[-40.448875,-18.4956],[-40.43317,-18.500148],[-40.42032,-18.542438],[-40.348458,-18.547895],[-40.332277,-18.560628],[-40.330849,-18.580637],[-40.302295,-18.572906],[-40.28421,-18.576999]]]},"properties":{"cod_ibge":"320100","name":"Boa Esperança","uf":"ES"}},
{"type":"Feature","geometry":{"type":"Polygon","coordinates":[[[-40.207589,-18.884403],[-40.124305,-18.77663],[-40.093371,-18.798912],[-40.050539,-18.811645],[-40.007231,-18.813464],[-40.007707,-18.893953],[-39.989147,-18.877127],[-39.966303,-18.880765],[-39.961544,-18.894862],[-39.901579,-18.958981],[-39.861127,-18.996724],[-39.741198,-19.149062],[-39.722637,-19.139512],[-39.719306,-19.096767],[-39.742626,-18.936243],[-39.749764,-18.83802],[-39.746433,-18.706145],[-39.785457,-18.70569],[-39.803542,-18.721151],[-39.816392,-18.693867],[-39.817343,-18.670675],[-39.84685,-18.668856],[-39.88873,-18.61929],[-40.030075,-18.444215],[-40.042924,-18.444669],[-40.059105,-18.464223],[-40.090515,-18.48787],[-40.124781,-18.488324],[-40.157618,-18.510152],[-40.167612,-18.546076],[-40.229957,-18.582456],[-40.246613,-18.568359],[-40.28421,-18.576999],[-40.33656,-18.725699],[-40.347982,-18.745253],[-40.394621,-18.781632],[-40.394145,-18.821194],[-40.40176,-18.850752],[-40.372729,-18.849843],[-40.323711,-18.850752],[-40.261842,-18.838474],[-40.250897,-18.86394],[-40.207589,-18.884403]]]},"properties":{"cod_ibge":"320490","name":"São Mateus","uf":"ES"}},
{"type":"Feature","geometry":{"type":"Polygon","coordinates":[[[-40.5274,-19.715668],[-40.556906,-19.706574],[-40.566424,-19.68611],[-40.580226,-19.685655],[-40.686353,-19.623811],[-40.722998,-19.62472],[-40.725854,-19.642],[-40.756312,-19.652459],[-40.769637,-19.68611],[-40.774396,-19.746136],[-40.782011,-19.758869],[-40.773445,-19.787972],[-40.774872,-19.813892],[-40.761071,-19.82708],[-40.727757,-19.827989],[-40.708245,-19.816166],[-40.709673,-19.79161],[-40.69492,-19.773875],[-40.676835,-19.779332],[-40.626389,-19.770692],[-40.552147,-19.733858],[-40.518833,-19.744772],[-40.5274,-19.715668]]]},"properties":{"cod_ibge":"320495","name":"São Roque do Canaã","uf":"ES"}},
{"type":"Feature","geometry":{"type":"Polygon","coordinates":[[[-40.758691,-20.865706],[-40.828174,-20.890717],[-40.926211,-20.891172],[-40.979513,-20.869344],[-41.006164,-20.869344],[-41.039478,-20.869344],[-41.053279,-20.878894],[-41.052803,-20.902995],[-41.080406,-20.921185],[-41.09278,-20.953471],[-41.107057,-20.957109],[-41.110388,-20.996672],[-41.117527,-21.012133],[-41.075171,-21.021228],[-41.017586,-21.00031],[-41.018062,-21.011678],[-41.039954,-21.027594],[-41.01711,-21.062609],[-40.984748,-21.065792],[-40.960001,-21.077161],[-40.945724,-21.110811],[-40.93335,-21.082163],[-40.930971,-21.047603],[-40.911934,-21.042146],[-40.875765,-21.059881],[-40.848162,-21.045784],[-40.809138,-20.995762],[-40.811041,-20.976663],[-40.794861,-20.925277],[-40.758691,-20.878439],[-40.758691,-20.865706]]]},"properties":{"cod_ibge":"320280","name":"Itapemirim","uf":"ES"}},
{"type":"Feature","geometry":{"type":"Polygon","coordinates":[[[-40.756312,-19.652459],[-40.725854,-19.642],[-40.722998,-19.62472],[-40.686353,-19.623811],[-40.580226,-19.685655],[-40.566424,-19.68611],[-40.556906,-19.706574],[-40.5274,-19.715668],[-40.508363,-19.665647],[-40.463152,-19.630632],[-40.418892,-19.641091],[-40.376537,-19.622447],[-40.375585,-19.598345],[-40.389386,-19.574244],[-40.371302,-19.556509],[-40.373681,-19.536046],[-40.390814,-19.542412],[-40.434597,-19.534227],[-40.485044,-19.532408],[-40.533587,-19.491481],[-40.552623,-19.482387],[-40.568328,-19.438731],[-40.596882,-19.430546],[-40.624961,-19.447826],[-40.633527,-19.433729],[-40.641618,-19.384617],[-40.627341,-19.348238],[-40.604973,-19.351876],[-40.592123,-19.338689],[-40.549292,-19.320499],[-40.544057,-19.310495],[-40.537394,-19.285029],[-40.557382,-19.271842],[-40.579274,-19.280482],[-40.60069,-19.266385],[-40.613063,-19.27548],[-40.630196,-19.241374],[-40.664937,-19.230006],[-40.673028,-19.24001],[-40.701106,-19.241374],[-40.708245,-19.282301],[-40.756788,-19.297762],[-40.783915,-19.292305],[-40.808186,-19.303219],[-40.817704,-19.32823],[-40.82056,-19.356878],[-40.827222,-19.376887],[-40.848638,-19.380525],[-40.861964,-19.401898],[-40.860536,-19.421451],[-40.88338,-19.448281],[-40.873386,-19.477384],[-40.852921,-19.47602],[-40.834361,-19.490117],[-40.840548,-19.503759],[-40.826271,-19.534682],[-40.833885,-19.568787],[-40.852446,-19.577882],[-40.852921,-19.617444],[-40.834361,-19.61699],[-40.82056,-19.593798],[-40.785818,-19.596072],[-40.773921,-19.615625],[-40.779156,-19.634725],[-40.756312,-19.652459]]]},"properties":{"cod_ibge":"320150","name":"Colatina","uf":"ES"}},
{"type":"Feature","geometry":{"type":"Polygon","coordinates":[[[-40.191884,-20.05445],[-40.195215,-20.035805],[-40.220438,-20.02853],[-40.239951,-20.045355],[-40.251848,-20.032622],[-40.274216,-20.035805],[-40.295632,-20.023073],[-40.326566,-20.029439],[-40.352265,-20.046719],[-40.367018,-20.039443],[-40.386531,-20.014433],[-40.416037,-20.016706],[-40.43317,-20.094922],[-40.435549,-20.135394],[-40.411754,-20.169954],[-40.390338,-20.178139],[-40.373205,-20.214973],[-40.361783,-20.233617],[-40.328946,-20.260447],[-40.329422,-20.239984],[-40.310861,-20.237255],[-40.220914,-20.239074],[-40.214727,-20.242712],[-40.198547,-20.215883],[-40.183793,-20.167225],[-40.184269,-20.148581],[-40.171896,-20.108109],[-40.173323,-20.077187],[-40.191884,-20.05445]]]},"properties":{"cod_ibge":"320500","name":"Serra","uf":"ES"}},
{"type":"Feature","geometry":{"type":"Polygon","coordinates":[[[-40.191884,-19.192262],[-40.156667,-19.193172],[-40.148576,-19.216363],[-40.119546,-19.229096],[-40.110979,-19.210907],[-40.084328,-19.235008],[-40.037689,-19.184986],[-40.05387,-19.174527],[-40.088136,-19.16998],[-40.002472,-18.994905],[-40.098606,-18.973077],[-40.164757,-18.953524],[-40.185697,-18.938972],[-40.206161,-18.906685],[-40.263746,-19.033103],[-40.288493,-19.075394],[-40.267553,-19.086763],[-40.238047,-19.123142],[-40.239475,-19.149062],[-40.196643,-19.169071],[-40.191884,-19.192262]]]},"properties":{"cod_ibge":"320501","name":"Sooretama","uf":"ES"}},
{"type":"Feature","geometry":{"type":"Polygon","coordinates":[[[-41.414494,-20.572854],[-41.43829,-20.56103],[-41.451139,-20.579675],[-41.469224,-20.581949],[-41.487784,-20.60605],[-41.50111,-20.58013],[-41.501586,-20.546934],[-41.525381,-20.548298],[-41.531092,-20.560121],[-41.565357,-20.576037],[-41.581538,-20.569671],[-41.601526,-20.545569],[-41.621039,-20.566033],[-41.640075,-20.572399],[-41.623894,-20.599229],[-41.62437,-20.616054],[-41.606761,-20.62333],[-41.610093,-20.646067],[-41.599147,-20.664711],[-41.598195,-20.683356],[-41.61152,-20.704728],[-41.596767,-20.714733],[-41.630557,-20.776577],[-41.615328,-20.801133],[-41.623894,-20.822961],[-41.618183,-20.846153],[-41.628177,-20.861614],[-41.611045,-20.892536],[-41.583918,-20.899357],[-41.579635,-20.911181],[-41.562978,-20.892991],[-41.537279,-20.882987],[-41.513959,-20.889808],[-41.487308,-20.885715],[-41.455422,-20.893446],[-41.45923,-20.837058],[-41.453519,-20.805681],[-41.418301,-20.781125],[-41.393078,-20.71928],[-41.383084,-20.684265],[-41.388795,-20.671532],[-41.372138,-20.645612],[-41.374042,-20.628332],[-41.391651,-20.624239],[-41.397361,-20.596045],[-41.414494,-20.572854]]]},"properties":{"cod_ibge":"320020","name":"Alegre","uf":"ES"}},
{"type":"Feature","geometry":{"type":"Polygon","coordinates":[[[-41.077551,-20.614235],[-41.055183,-20.632425],[-41.084689,-20.682901],[-41.087069,-20.704274],[-41.049948,-20.752931],[-41.032339,-20.757024],[-41.046141,-20.787491],[-41.021869,-20.787491],[-41.015682,-20.820687],[-41.031387,-20.853428],[-41.006164,-20.869344],[-40.979513,-20.869344],[-40.989507,-20.83251],[-40.979037,-20.820687],[-40.994266,-20.78158],[-40.975706,-20.76339],[-40.956194,-20.715187],[-40.959525,-20.696088],[-40.929543,-20.678353],[-40.934302,-20.662892],[-40.915741,-20.643793],[-40.910031,-20.618328],[-40.936206,-20.599683],[-40.944772,-20.606505],[-40.968091,-20.576492],[-40.95667,-20.561485],[-40.961905,-20.538293],[-40.958573,-20.508735],[-40.972375,-20.480541],[-40.969043,-20.462352],[-40.98808,-20.436886],[-41.010447,-20.433703],[-41.005212,-20.470537],[-41.039478,-20.483725],[-41.026628,-20.516466],[-41.045665,-20.53602],[-41.017586,-20.54466],[-41.04043,-20.571944],[-41.057562,-20.567852],[-41.076599,-20.58877],[-41.077551,-20.614235]]]},"properties":{"cod_ibge":"320503","name":"Vargem Alta","uf":"ES"}},
{"type":"Feature","geometry":{"type":"Polygon","coordinates":[[[-41.137039,-18.890769],[-41.127045,-18.894407],[-41.103726,-18.93397],[-41.065177,-18.944884],[-40.916693,-18.940791],[-40.906223,-18.940336],[-40.898133,-18.901228],[-41.025201,-18.83711],[-41.110388,-18.838929],[-41.133708,-18.796638],[-41.146557,-18.798002],[-41.232221,-18.797093],[-41.245071,-18.820739],[-41.243167,-18.853935],[-41.214612,-18.877582],[-41.200335,-18.862576],[-41.166546,-18.858028],[-41.152744,-18.886677],[-41.137039,-18.890769]]]},"properties":{"cod_ibge":"320330","name":"Mantenópolis","uf":"ES"}},
{"type":"Feature","geometry":{"type":"Polygon","coordinates":[[[-41.191293,-20.445526],[-41.165594,-20.445072],[-41.16607,-20.425973],[-41.142274,-20.43143],[-41.097539,-20.408693],[-41.101346,-20.433703],[-41.08231,-20.440524],[-41.068032,-20.460078],[-41.052803,-20.460078],[-41.052327,-20.43916],[-41.078502,-20.383682],[-41.092304,-20.380499],[-41.087069,-20.352759],[-41.098491,-20.344119],[-41.105629,-20.303193],[-41.136563,-20.287732],[-41.157979,-20.282275],[-41.16607,-20.301374],[-41.189865,-20.307285],[-41.216992,-20.327749],[-41.21842,-20.356397],[-41.201763,-20.371404],[-41.181299,-20.408238],[-41.199383,-20.423244],[-41.191293,-20.445526]]]},"properties":{"cod_ibge":"320506","name":"Venda Nova do Imigrante","uf":"ES"}},
{"type":"Feature","geometry":{"type":"Polygon","coordinates":[[[-40.625437,-20.424154],[-40.647329,-20.401417],[-40.646853,-20.385955],[-40.69492,-20.390503],[-40.729661,-20.389139],[-40.741559,-20.380044],[-40.732992,-20.346848],[-40.758691,-20.346848],[-40.778204,-20.365492],[-40.790577,-20.406419],[-40.825319,-20.390048],[-40.834361,-20.375496],[-40.872434,-20.383682],[-40.887663,-20.397324],[-40.91241,-20.44871],[-40.90194,-20.461897],[-40.869578,-20.46508],[-40.855301,-20.49191],[-40.816276,-20.48327],[-40.809138,-20.521468],[-40.77868,-20.497822],[-40.753932,-20.498276],[-40.704914,-20.435067],[-40.688257,-20.434613],[-40.656371,-20.460078],[-40.626389,-20.467809],[-40.625437,-20.424154]]]},"properties":{"cod_ibge":"320334","name":"Marechal Floriano","uf":"ES"}},
{"type":"Feature","geometry":{"type":"Polygon","coordinates":[[[-41.825204,-20.48327],[-41.804264,-20.538293],[-41.828535,-20.557393],[-41.841385,-20.600593],[-41.856614,-20.616964],[-41.820445,-20.627877],[-41.813306,-20.653343],[-41.850427,-20.691086],[-41.860421,-20.738834],[-41.876602,-20.747019],[-41.874698,-20.766118],[-41.851855,-20.763845],[-41.844716,-20.777487],[-41.849475,-20.739289],[-41.801408,-20.740653],[-41.787607,-20.721554],[-41.786179,-20.691541],[-41.793318,-20.680627],[-41.76048,-20.64152],[-41.750962,-20.638791],[-41.769522,-20.626968],[-41.781896,-20.597864],[-41.798553,-20.576037],[-41.783324,-20.558757],[-41.774281,-20.523287],[-41.782372,-20.504188],[-41.799505,-20.476904],[-41.825204,-20.48327]]]},"properties":{"cod_ibge":"320200","name":"Dores do Rio Preto","uf":"ES"}},
{"type":"Feature","geometry":{"type":"Polygon","coordinates":[[[-40.544057,-19.310495],[-40.549292,-19.320499],[-40.592123,-19.338689],[-40.604973,-19.351876],[-40.627341,-19.348238],[-40.641618,-19.384617],[-40.633527,-19.433729],[-40.624961,-19.447826],[-40.596882,-19.430546],[-40.568328,-19.438731],[-40.552623,-19.482387],[-40.533587,-19.491481],[-40.485044,-19.532408],[-40.434597,-19.534227],[-40.390814,-19.542412],[-40.373681,-19.536046],[-40.393193,-19.509671],[-40.416513,-19.508761],[-40.43079,-19.4933],[-40.435073,-19.462833],[-40.444116,-19.457831],[-40.44126,-19.425999],[-40.455537,-19.401898],[-40.494562,-19.369156],[-40.496466,-19.359152],[-40.52502,-19.331868],[-40.508839,-19.312768],[-40.532159,-19.320954],[-40.544057,-19.310495]]]},"properties":{"cod_ibge":"320335","name":"Marilândia","uf":"ES"}},
{"type":"Feature","geometry":{"type":"Polygon","coordinates":[[[-40.809138,-20.995762],[-40.848162,-21.045784],[-40.875765,-21.059881],[-40.911934,-21.042146],[-40.930971,-21.047603],[-40.93335,-21.082163],[-40.945724,-21.110811],[-40.950483,-21.138096],[-40.947151,-21.172201],[-40.926211,-21.190391],[-40.916693,-21.175385],[-40.858632,-21.127637],[-40.831981,-21.053514],[-40.812469,-21.031687],[-40.809138,-20.995762]]]},"properties":{"cod_ibge":"320332","name":"Marataízes","uf":"ES"}},
{"type":"Feature","geometry":{"type":"Polygon","coordinates":[[[-40.604973,-20.002155],[-40.586412,-19.988058],[-40.544532,-19.989877],[-40.510743,-19.954862],[-40.485044,-19.963502],[-40.454586,-19.946676],[-40.474574,-19.937127],[-40.477429,-19.90484],[-40.503128,-19.876192],[-40.505032,-19.853455],[-40.514074,-19.831172],[-40.530255,-19.806162],[-40.518833,-19.744772],[-40.552147,-19.733858],[-40.626389,-19.770692],[-40.676835,-19.779332],[-40.69492,-19.773875],[-40.709673,-19.79161],[-40.708245,-19.816166],[-40.727757,-19.827989],[-40.761071,-19.82708],[-40.774872,-19.813892],[-40.785342,-19.833901],[-40.811517,-19.842541],[-40.828174,-19.866187],[-40.813897,-19.888015],[-40.815325,-19.909842],[-40.79724,-19.910297],[-40.775348,-19.942129],[-40.751553,-19.94895],[-40.755836,-19.973051],[-40.741559,-19.98442],[-40.70539,-19.974416],[-40.696823,-19.980782],[-40.672076,-19.963502],[-40.662082,-19.980782],[-40.630196,-19.964866],[-40.616395,-19.997607],[-40.604973,-20.002155]]]},"properties":{"cod_ibge":"320460","name":"Santa Teresa","uf":"ES"}},
{"type":"Feature","geometry":{"type":"Polygon","coordinates":[[[-40.813897,-19.888015],[-40.829126,-19.891653],[-40.884807,-19.834356],[-40.954766,-19.858912],[-40.93573,-19.872099],[-40.956194,-19.964866],[-40.970471,-19.977144],[-40.968567,-20.038989],[-40.947627,-20.074004],[-40.944296,-20.06218],[-40.911458,-20.056269],[-40.887663,-20.029894],[-40.867199,-20.023527],[-40.853397,-19.986239],[-40.825795,-19.987603],[-40.785818,-19.961683],[-40.775348,-19.942129],[-40.79724,-19.910297],[-40.815325,-19.909842],[-40.813897,-19.888015]]]},"properties":{"cod_ibge":"320290","name":"Itarana","uf":"ES"}},
{"type":"Feature","geometry":{"type":"Polygon","coordinates":[[[-39.746433,-18.706145],[-39.743102,-18.667492],[-39.728348,-18.611104],[-39.730728,-18.587003],[-39.728348,-18.518337],[-39.714547,-18.461949],[-39.667908,-18.337351],[-39.688848,-18.32098],[-39.911573,-18.179101],[-39.899676,-18.200019],[-39.92823,-18.235034],[-39.926802,-18.255952],[-39.937748,-18.287784],[-39.92014,-18.315068],[-39.955357,-18.31143],[-39.959164,-18.345081],[-39.936797,-18.411928],[-39.974393,-18.437393],[-40.001996,-18.432391],[-40.030075,-18.444215],[-39.88873,-18.61929],[-39.84685,-18.668856],[-39.817343,-18.670675],[-39.816392,-18.693867],[-39.803542,-18.721151],[-39.785457,-18.70569],[-39.746433,-18.706145]]]},"properties":{"cod_ibge":"320160","name":"Conceição da Barra","uf":"ES"}},
{"type":"Feature","geometry":{"type":"Polygon","coordinates":[[[-40.374633,-19.079032],[-40.37844,-19.084034],[-40.429362,-19.073575],[-40.458393,-19.04811],[-40.486472,-19.046745],[-40.508839,-19.060388],[-40.542153,-19.044017],[-40.555954,-19.045836],[-40.57975,-19.068118],[-40.654467,-19.089946],[-40.683498,-19.104043],[-40.678739,-19.120413],[-40.691112,-19.149971],[-40.657799,-19.166797],[-40.664937,-19.230006],[-40.630196,-19.241374],[-40.613063,-19.27548],[-40.619726,-19.243648],[-40.618774,-19.209542],[-40.602593,-19.189989],[-40.580226,-19.178165],[-40.573087,-19.153155],[-40.560237,-19.140877],[-40.539297,-19.140877],[-40.508363,-19.153609],[-40.505508,-19.121778],[-40.490755,-19.109954],[-40.454586,-19.107681],[-40.448399,-19.099495],[-40.413182,-19.10859],[-40.37035,-19.087217],[-40.374633,-19.079487],[-40.374633,-19.079032]]]},"properties":{"cod_ibge":"320465","name":"São Domingos do Norte","uf":"ES"}},
{"type":"Feature","geometry":{"type":"Polygon","coordinates":[[[-40.37035,-20.399598],[-40.405567,-20.379134],[-40.404139,-20.358671],[-40.419368,-20.340936],[-40.438881,-20.332296],[-40.463628,-20.333206],[-40.485996,-20.346393],[-40.515502,-20.346848],[-40.523117,-20.302283],[-40.549767,-20.301829],[-40.582605,-20.292279],[-40.57975,-20.322292],[-40.592599,-20.367311],[-40.561665,-20.377315],[-40.538822,-20.391412],[-40.555954,-20.409147],[-40.614967,-20.413695],[-40.625437,-20.424154],[-40.626389,-20.467809],[-40.604973,-20.487363],[-40.537394,-20.472811],[-40.484092,-20.505097],[-40.463628,-20.432339],[-40.437453,-20.433248],[-40.404139,-20.424608],[-40.37035,-20.399598]]]},"properties":{"cod_ibge":"320510","name":"Viana","uf":"ES"}},
{"type":"Feature","geometry":{"type":"Polygon","coordinates":[[[-40.288493,-19.075394],[-40.263746,-19.033103],[-40.206161,-18.906685],[-40.207589,-18.884403],[-40.250897,-18.86394],[-40.261842,-18.838474],[-40.323711,-18.850752],[-40.372729,-18.849843],[-40.373681,-18.946703],[-40.406995,-18.946703],[-40.419368,-18.95989],[-40.437453,-18.951705],[-40.46458,-18.963073],[-40.461724,-18.99445],[-40.433646,-19.019916],[-40.458393,-19.04811],[-40.429362,-19.073575],[-40.37844,-19.084034],[-40.374633,-19.079032],[-40.365591,-19.066299],[-40.346554,-19.083125],[-40.327994,-19.077213],[-40.304674,-19.084489],[-40.288493,-19.075394]]]},"properties":{"cod_ibge":"320517","name":"Vila Valério","uf":"ES"}},
{"type":"Feature","geometry":{"type":"Polygon","coordinates":[[[-40.656371,-20.460078],[-40.688257,-20.434613],[-40.704914,-20.435067],[-40.753932,-20.498276],[-40.77868,-20.497822],[-40.809138,-20.521468],[-40.816276,-20.48327],[-40.855301,-20.49191],[-40.869578,-20.46508],[-40.90194,-20.461897],[-40.91241,-20.44871],[-40.930019,-20.436886],[-40.98808,-20.436886],[-40.969043,-20.462352],[-40.972375,-20.480541],[-40.958573,-20.508735],[-40.961905,-20.538293],[-40.95667,-20.561485],[-40.968091,-20.576492],[-40.944772,-20.606505],[-40.936206,-20.599683],[-40.910031,-20.618328],[-40.915741,-20.643793],[-40.934302,-20.662892],[-40.929543,-20.678353],[-40.910031,-20.686084],[-40.881952,-20.670623],[-40.838644,-20.687448],[-40.770589,-20.705638],[-40.770113,-20.676989],[-40.759167,-20.65789],[-40.725854,-20.634698],[-40.711101,-20.614235],[-40.672076,-20.594681],[-40.683974,-20.576037],[-40.680642,-20.556938],[-40.673028,-20.54466],[-40.693492,-20.526015],[-40.676835,-20.468718],[-40.656371,-20.460078]]]},"properties":{"cod_ibge":"320030","name":"Alfredo Chaves","uf":"ES"}},
{"type":"Feature","geometry":{"type":"Polygon","coordinates":[[[-41.060894,-19.056295],[-41.053755,-19.069028],[-41.012827,-19.075849],[-41.007116,-19.100405],[-40.989507,-19.102224],[-40.964284,-19.122232],[-40.961905,-19.103133],[-40.938585,-19.094038],[-40.949531,-19.079032],[-40.899085,-19.050383],[-40.895753,-19.013095],[-40.944296,-18.998088],[-40.946676,-18.944884],[-40.916693,-18.940791],[-41.065177,-18.944884],[-41.060418,-18.968075],[-41.032339,-18.990812],[-41.061846,-19.006273],[-41.071364,-19.025827],[-41.060894,-19.056295]]]},"properties":{"cod_ibge":"320035","name":"Alto Rio Novo","uf":"ES"}},
{"type":"Feature","geometry":{"type":"Polygon","coordinates":[[[-40.925736,-18.438758],[-40.910506,-18.428753],[-40.866723,-18.432391],[-40.853873,-18.44285],[-40.846259,-18.48696],[-40.829602,-18.501512],[-40.763451,-18.485141],[-40.751077,-18.468316],[-40.72395,-18.468316],[-40.70301,-18.499238],[-40.679215,-18.510152],[-40.652088,-18.513335],[-40.643997,-18.517428],[-40.588316,-18.489689],[-40.551195,-18.493781],[-40.528352,-18.485141],[-40.536442,-18.466042],[-40.5669,-18.443305],[-40.595455,-18.433301],[-40.605449,-18.40829],[-40.583081,-18.368728],[-40.580702,-18.340079],[-40.604973,-18.340534],[-40.610684,-18.298698],[-40.618774,-18.287329],[-40.55881,-18.230941],[-40.54596,-18.203202],[-40.55643,-18.176827],[-40.560713,-18.140903],[-40.55881,-18.114073],[-40.578798,-18.095883],[-40.588792,-18.108161],[-40.609256,-18.105888],[-40.640666,-18.034039],[-40.662082,-18.012666],[-40.681118,-18.009938],[-40.703486,-18.02358],[-40.725854,-18.001297],[-40.752981,-18.009483],[-40.771541,-18.003571],[-40.771065,-17.986291],[-40.798668,-17.956733],[-40.830554,-17.954004],[-40.862916,-17.98811],[-40.902416,-17.986291],[-40.773445,-18.107707],[-40.771541,-18.155909],[-40.845307,-18.149998],[-40.878621,-18.119985],[-40.909079,-18.114983],[-40.932398,-18.136355],[-40.951435,-18.134082],[-40.987128,-18.146814],[-40.993315,-18.166368],[-41.014731,-18.157728],[-41.051851,-18.165004],[-41.056611,-18.178646],[-41.09278,-18.195472],[-41.103726,-18.212297],[-41.096587,-18.255497],[-41.158931,-18.308247],[-41.147509,-18.353266],[-41.144178,-18.405107],[-41.099918,-18.401924],[-41.057562,-18.350993],[-41.035671,-18.362816],[-41.04043,-18.382825],[-41.003785,-18.406016],[-40.986176,-18.410109],[-40.957621,-18.382825],[-40.931446,-18.400559],[-40.936206,-18.423751],[-40.925736,-18.438758]]]},"properties":{"cod_ibge":"320210","name":"Ecoporanga","uf":"ES"}},
{"type":"Feature","geometry":{"type":"Polygon","coordinates":[[[-40.696347,-18.706145],[-40.652564,-18.7066],[-40.640666,-18.725244],[-40.601166,-18.722061],[-40.496466,-18.651121],[-40.493134,-18.631568],[-40.518357,-18.623382],[-40.53549,-18.607012],[-40.534062,-18.592915],[-40.564521,-18.566994],[-40.563093,-18.506059],[-40.551195,-18.493781],[-40.588316,-18.489689],[-40.643997,-18.517428],[-40.652088,-18.513335],[-40.684926,-18.535617],[-40.707769,-18.564266],[-40.759167,-18.576999],[-40.794385,-18.613833],[-40.780107,-18.620654],[-40.746318,-18.6011],[-40.722046,-18.602464],[-40.729661,-18.659307],[-40.71586,-18.682498],[-40.68445,-18.685227],[-40.696347,-18.706145]]]},"properties":{"cod_ibge":"320515","name":"Vila Pavão","uf":"ES"}},
{"type":"Feature","geometry":{"type":"Polygon","coordinates":[[[-41.4697,-21.202669],[-41.435434,-21.215856],[-41.416398,-21.199941],[-41.388319,-21.199031],[-41.315981,-21.213583],[-41.303607,-21.228589],[-41.276005,-21.239958],[-41.241263,-21.220404],[-41.190341,-21.248598],[-41.140371,-21.237684],[-41.137039,-21.227225],[-41.183678,-21.228589],[-41.190341,-21.179023],[-41.210805,-21.129456],[-41.223179,-21.112176],[-41.219847,-21.095805],[-41.233649,-21.078525],[-41.194148,-21.061245],[-41.22889,-21.006221],[-41.245546,-21.024866],[-41.2603,-21.025775],[-41.280288,-21.001674],[-41.358813,-20.995307],[-41.366903,-21.00804],[-41.410687,-21.008495],[-41.472555,-20.991215],[-41.442573,-20.924368],[-41.444952,-20.908452],[-41.455422,-20.893446],[-41.487308,-20.885715],[-41.513959,-20.889808],[-41.537279,-20.882987],[-41.562978,-20.892991],[-41.579635,-20.911181],[-41.587249,-20.92937],[-41.572496,-20.958019],[-41.542514,-20.966659],[-41.506821,-20.990305],[-41.507296,-21.044874],[-41.515863,-21.063973],[-41.503013,-21.072159],[-41.513007,-21.106719],[-41.493971,-21.123089],[-41.5092,-21.1481],[-41.545845,-21.149464],[-41.557743,-21.173111],[-41.5487,-21.183115],[-41.520146,-21.187208],[-41.486356,-21.179932],[-41.4697,-21.202669]]]},"properties":{"cod_ibge":"320340","name":"Mimoso do Sul","uf":"ES"}},
{"type":"Feature","geometry":{"type":"Polygon","coordinates":[[[-40.555954,-19.045836],[-40.542153,-19.044017],[-40.508839,-19.060388],[-40.486472,-19.046745],[-40.458393,-19.04811],[-40.433646,-19.019916],[-40.461724,-18.99445],[-40.46458,-18.963073],[-40.437453,-18.951705],[-40.419368,-18.95989],[-40.406995,-18.946703],[-40.373681,-18.946703],[-40.372729,-18.849843],[-40.40176,-18.850752],[-40.428887,-18.854845],[-40.474098,-18.853026],[-40.523117,-18.873944],[-40.531207,-18.869851],[-40.573087,-18.893953],[-40.593075,-18.93397],[-40.617346,-18.952614],[-40.656371,-18.946248],[-40.634003,-18.987174],[-40.644473,-19.009457],[-40.62163,-19.021735],[-40.615443,-19.041288],[-40.572135,-19.052657],[-40.555954,-19.045836]]]},"properties":{"cod_ibge":"320470","name":"São Gabriel da Palha","uf":"ES"}},
{"type":"Feature","geometry":{"type":"Polygon","coordinates":[[[-41.596291,-20.504188],[-41.577255,-20.499641],[-41.577255,-20.454621],[-41.572496,-20.444617],[-41.542514,-20.431884],[-41.523477,-20.439615],[-41.502537,-20.432339],[-41.475886,-20.41233],[-41.466844,-20.38732],[-41.470651,-20.362309],[-41.463989,-20.335479],[-41.475886,-20.327749],[-41.496351,-20.280001],[-41.537279,-20.286822],[-41.553935,-20.298645],[-41.541086,-20.324111],[-41.593436,-20.363673],[-41.594388,-20.38732],[-41.612948,-20.414604],[-41.646262,-20.392777],[-41.6534,-20.373678],[-41.680527,-20.375951],[-41.700991,-20.368675],[-41.730022,-20.321382],[-41.710034,-20.310014],[-41.708606,-20.292279],[-41.683383,-20.26363],[-41.674816,-20.251352],[-41.665774,-20.206788],[-41.756673,-20.206788],[-41.774757,-20.259992],[-41.782372,-20.294553],[-41.822348,-20.310923],[-41.853282,-20.350486],[-41.859469,-20.372768],[-41.845192,-20.377315],[-41.836625,-20.409147],[-41.803312,-20.422335],[-41.789035,-20.384137],[-41.774757,-20.372313],[-41.738588,-20.381863],[-41.704323,-20.41324],[-41.678148,-20.418242],[-41.670533,-20.395505],[-41.631985,-20.410966],[-41.638647,-20.43916],[-41.631509,-20.460988],[-41.593436,-20.481451],[-41.596291,-20.504188]]]},"properties":{"cod_ibge":"320300","name":"Iúna","uf":"ES"}},
{"type":"Feature","geometry":{"type":"Polygon","coordinates":[[[-40.206161,-18.906685],[-40.185697,-18.938972],[-40.164757,-18.953524],[-40.098606,-18.973077],[-40.002472,-18.994905],[-39.979152,-19.008092],[-39.974869,-19.02128],[-39.930134,-19.059933],[-39.905387,-19.052657],[-39.881591,-19.063116],[-39.871121,-19.080396],[-39.873977,-19.111773],[-39.840187,-19.124506],[-39.82591,-19.139058],[-39.761186,-19.160885],[-39.741198,-19.149062],[-39.861127,-18.996724],[-39.901579,-18.958981],[-39.961544,-18.894862],[-39.966303,-18.880765],[-39.989147,-18.877127],[-40.007707,-18.893953],[-40.007231,-18.813464],[-40.050539,-18.811645],[-40.093371,-18.798912],[-40.124305,-18.77663],[-40.207589,-18.884403],[-40.206161,-18.906685]]]},"properties":{"cod_ibge":"320305","name":"Jaguaré","uf":"ES"}},
{"type":"Feature","geometry":{"type":"Polygon","coordinates":[[[-40.966664,-19.423725],[-40.957621,-19.4501],[-40.944772,-19.461014],[-40.971423,-19.494665],[-40.98808,-19.507852],[-41.019014,-19.504669],[-41.040906,-19.516037],[-41.044713,-19.535591],[-41.036622,-19.570606],[-41.07184,-19.584248],[-41.075171,-19.5988],[-41.099442,-19.604257],[-41.108485,-19.639272],[-41.129425,-19.64291],[-41.137515,-19.657462],[-41.168449,-19.672013],[-41.17416,-19.715668],[-41.191293,-19.745681],[-41.174636,-19.767054],[-41.153696,-19.762052],[-41.12419,-19.772966],[-41.124666,-19.788882],[-41.097063,-19.787517],[-41.061846,-19.772511],[-41.037098,-19.788427],[-41.023297,-19.78206],[-41.005212,-19.805707],[-40.993791,-19.801159],[-40.990935,-19.760688],[-40.972851,-19.725218],[-40.945248,-19.730675],[-40.944296,-19.711576],[-40.921452,-19.69475],[-40.937157,-19.642],[-40.929543,-19.611533],[-40.882904,-19.592434],[-40.851494,-19.560602],[-40.833885,-19.568787],[-40.826271,-19.534682],[-40.840548,-19.503759],[-40.834361,-19.490117],[-40.852921,-19.47602],[-40.873386,-19.477384],[-40.88338,-19.448281],[-40.860536,-19.421451],[-40.861964,-19.401898],[-40.848638,-19.380525],[-40.827222,-19.376887],[-40.82056,-19.356878],[-40.831506,-19.338689],[-40.874813,-19.312768],[-40.86244,-19.30049],[-40.894326,-19.281391],[-40.875289,-19.264566],[-40.910031,-19.236827],[-40.935254,-19.22273],[-40.932398,-19.251379],[-40.921928,-19.271842],[-40.944296,-19.279572],[-40.924784,-19.302309],[-40.92288,-19.322318],[-40.938585,-19.345964],[-40.930495,-19.384163],[-40.950483,-19.392803],[-40.966664,-19.423725]]]},"properties":{"cod_ibge":"320080","name":"Baixo Guandu","uf":"ES"}},
{"type":"Feature","geometry":{"type":"Polygon","coordinates":[[[-40.43079,-19.2582],[-40.416037,-19.270478],[-40.424127,-19.311859],[-40.398428,-19.358697],[-40.380344,-19.367337],[-40.363687,-19.352331],[-40.33656,-19.356424],[-40.325138,-19.375523],[-40.303247,-19.315042],[-40.297536,-19.355969],[-40.272788,-19.368701],[-40.203306,-19.341872],[-40.181414,-19.243193],[-40.193312,-19.220911],[-40.191884,-19.192262],[-40.196643,-19.169071],[-40.239475,-19.149062],[-40.238047,-19.123142],[-40.267553,-19.086763],[-40.288493,-19.075394],[-40.304674,-19.084489],[-40.327994,-19.077213],[-40.346554,-19.083125],[-40.365591,-19.066299],[-40.374633,-19.079032],[-40.374633,-19.079487],[-40.365115,-19.095857],[-40.387958,-19.114502],[-40.402236,-19.135874],[-40.41223,-19.189079],[-40.403187,-19.197719],[-40.417941,-19.219092],[-40.43079,-19.2582]]]},"properties":{"cod_ibge":"320435","name":"Rio Bananal","uf":"ES"}},
{"type":"Feature","geometry":{"type":"Polygon","coordinates":[[[-40.770589,-20.787036],[-40.771541,-20.767028],[-40.784391,-20.748383],[-40.810566,-20.750657],[-40.792005,-20.717006],[-40.838644,-20.687448],[-40.881952,-20.670623],[-40.910031,-20.686084],[-40.930971,-20.726101],[-40.931446,-20.747019],[-40.947151,-20.77203],[-40.918121,-20.792039],[-40.897181,-20.81523],[-40.828174,-20.808409],[-40.828174,-20.856157],[-40.770589,-20.787036]]]},"properties":{"cod_ibge":"320260","name":"Iconha","uf":"ES"}},
{"type":"Feature","geometry":{"type":"Polygon","coordinates":[[[-40.582605,-20.292279],[-40.549767,-20.301829],[-40.523117,-20.302283],[-40.515502,-20.346848],[-40.485996,-20.346393],[-40.463628,-20.333206],[-40.438881,-20.332296],[-40.419368,-20.340936],[-40.404139,-20.358671],[-40.405567,-20.379134],[-40.37035,-20.399598],[-40.354645,-20.326839],[-40.361783,-20.306376],[-40.328946,-20.260447],[-40.361783,-20.233617],[-40.373205,-20.214973],[-40.407947,-20.231344],[-40.468387,-20.220885],[-40.487423,-20.23771],[-40.502652,-20.22907],[-40.530731,-20.256355],[-40.557858,-20.270451],[-40.595455,-20.268632],[-40.594503,-20.245441],[-40.604497,-20.250898],[-40.600214,-20.278182],[-40.582605,-20.292279]]]},"properties":{"cod_ibge":"320130","name":"Cariacica","uf":"ES"}},
{"type":"Feature","geometry":{"type":"Polygon","coordinates":[[[-41.683383,-20.26363],[-41.708606,-20.292279],[-41.710034,-20.310014],[-41.730022,-20.321382],[-41.700991,-20.368675],[-41.680527,-20.375951],[-41.6534,-20.373678],[-41.646262,-20.392777],[-41.612948,-20.414604],[-41.594388,-20.38732],[-41.593436,-20.363673],[-41.541086,-20.324111],[-41.553935,-20.298645],[-41.566785,-20.267723],[-41.589153,-20.264085],[-41.620563,-20.269542],[-41.63722,-20.293188],[-41.669581,-20.320018],[-41.68481,-20.29046],[-41.683383,-20.26363]]]},"properties":{"cod_ibge":"320265","name":"Irupi","uf":"ES"}},
{"type":"Feature","geometry":{"type":"Polygon","coordinates":[[[-40.28421,-18.576999],[-40.302295,-18.572906],[-40.330849,-18.580637],[-40.332277,-18.560628],[-40.348458,-18.547895],[-40.42032,-18.542438],[-40.43317,-18.500148],[-40.448875,-18.4956],[-40.461724,-18.46104],[-40.46458,-18.436484],[-40.456013,-18.411928],[-40.485044,-18.413292],[-40.496942,-18.3901],[-40.508839,-18.390555],[-40.529303,-18.36509],[-40.570707,-18.360088],[-40.583081,-18.368728],[-40.605449,-18.40829],[-40.595455,-18.433301],[-40.5669,-18.443305],[-40.536442,-18.466042],[-40.528352,-18.485141],[-40.551195,-18.493781],[-40.563093,-18.506059],[-40.564521,-18.566994],[-40.534062,-18.592915],[-40.53549,-18.607012],[-40.518357,-18.623382],[-40.493134,-18.631568],[-40.496466,-18.651121],[-40.601166,-18.722061],[-40.640666,-18.725244],[-40.652564,-18.7066],[-40.696347,-18.706145],[-40.716811,-18.725699],[-40.719191,-18.757076],[-40.748221,-18.770718],[-40.75774,-18.793455],[-40.773445,-18.794819],[-40.761547,-18.833017],[-40.762499,-18.848479],[-40.74489,-18.842567],[-40.722046,-18.849388],[-40.714432,-18.874854],[-40.730137,-18.881675],[-40.740131,-18.902138],[-40.741083,-18.93397],[-40.67398,-18.936243],[-40.656371,-18.946248],[-40.617346,-18.952614],[-40.593075,-18.93397],[-40.573087,-18.893953],[-40.531207,-18.869851],[-40.523117,-18.873944],[-40.474098,-18.853026],[-40.428887,-18.854845],[-40.40176,-18.850752],[-40.394145,-18.821194],[-40.394621,-18.781632],[-40.347982,-18.745253],[-40.33656,-18.725699],[-40.28421,-18.576999]]]},"properties":{"cod_ibge":"320390","name":"Nova Venécia","uf":"ES"}},
{"type":"Feature","geometry":{"type":"Polygon","coordinates":[[[-41.383084,-20.684265],[-41.393078,-20.71928],[-41.418301,-20.781125],[-41.453519,-20.805681],[-41.45923,-20.837058],[-41.455422,-20.893446],[-41.444952,-20.908452],[-41.431151,-20.905269],[-41.425916,-20.874347],[-41.414494,-20.852519],[-41.371186,-20.874801],[-41.342156,-20.875256],[-41.337397,-20.863433],[-41.347867,-20.811138],[-41.342156,-20.795222],[-41.352626,-20.769302],[-41.337873,-20.757024],[-41.325023,-20.731103],[-41.359289,-20.722009],[-41.351674,-20.707002],[-41.383084,-20.684265]]]},"properties":{"cod_ibge":"320310","name":"Jerônimo Monteiro","uf":"ES"}},
{"type":"Feature","geometry":{"type":"Polygon","coordinates":[[[-40.514074,-19.831172],[-40.505508,-19.805252],[-40.466007,-19.763416],[-40.45173,-19.757959],[-40.437453,-19.787063],[-40.37844,-19.784334],[-40.369874,-19.769328],[-40.346078,-19.779787],[-40.346078,-19.706119],[-40.353693,-19.68611],[-40.34941,-19.668375],[-40.37035,-19.653369],[-40.376537,-19.622447],[-40.418892,-19.641091],[-40.463152,-19.630632],[-40.508363,-19.665647],[-40.5274,-19.715668],[-40.518833,-19.744772],[-40.530255,-19.806162],[-40.514074,-19.831172]]]},"properties":{"cod_ibge":"320313","name":"João Neiva","uf":"ES"}},
{"type":"Feature","geometry":{"type":"Polygon","coordinates":[[[-40.979513,-20.869344],[-40.926211,-20.891172],[-40.828174,-20.890717],[-40.828174,-20.856157],[-40.828174,-20.808409],[-40.897181,-20.81523],[-40.918121,-20.792039],[-40.947151,-20.77203],[-40.931446,-20.747019],[-40.930971,-20.726101],[-40.910031,-20.686084],[-40.929543,-20.678353],[-40.959525,-20.696088],[-40.956194,-20.715187],[-40.975706,-20.76339],[-40.994266,-20.78158],[-40.979037,-20.820687],[-40.989507,-20.83251],[-40.979513,-20.869344]]]},"properties":{"cod_ibge":"320440","name":"Rio Novo do Sul","uf":"ES"}},
{"type":"Feature","geometry":{"type":"Polygon","coordinates":[[[-41.18701,-19.891653],[-41.177016,-19.906204],[-41.14513,-19.891653],[-41.126093,-19.917118],[-41.124666,-19.935308],[-41.096111,-19.970323],[-41.068032,-19.986694],[-41.016158,-19.970778],[-41.00664,-19.960773],[-40.970471,-19.977144],[-40.956194,-19.964866],[-40.93573,-19.872099],[-40.954766,-19.858912],[-40.958097,-19.830263],[-40.937157,-19.816621],[-40.940965,-19.804797],[-40.993791,-19.801159],[-41.005212,-19.805707],[-41.023297,-19.78206],[-41.037098,-19.788427],[-41.061846,-19.772511],[-41.097063,-19.787517],[-41.124666,-19.788882],[-41.12419,-19.772966],[-41.153696,-19.762052],[-41.174636,-19.767054],[-41.164166,-19.806162],[-41.184154,-19.848907],[-41.18701,-19.891653]]]},"properties":{"cod_ibge":"320316","name":"Laranja da Terra","uf":"ES"}},
{"type":"Feature","geometry":{"type":"Polygon","coordinates":[[[-40.925736,-18.438758],[-40.920501,-18.45149],[-40.92526,-18.486505],[-40.904796,-18.521975],[-40.906699,-18.54926],[-40.920025,-18.558354],[-40.929067,-18.587003],[-40.905747,-18.60974],[-40.910031,-18.665218],[-40.902416,-18.685682],[-40.941441,-18.690684],[-40.940013,-18.770263],[-40.916693,-18.815737],[-40.936681,-18.831198],[-40.963808,-18.841203],[-41.025201,-18.83711],[-40.898133,-18.901228],[-40.860536,-18.895772],[-40.862916,-18.86394],[-40.827222,-18.848024],[-40.802951,-18.843931],[-40.792481,-18.858028],[-40.762499,-18.848479],[-40.761547,-18.833017],[-40.773445,-18.794819],[-40.75774,-18.793455],[-40.748221,-18.770718],[-40.719191,-18.757076],[-40.716811,-18.725699],[-40.696347,-18.706145],[-40.68445,-18.685227],[-40.71586,-18.682498],[-40.729661,-18.659307],[-40.722046,-18.602464],[-40.746318,-18.6011],[-40.780107,-18.620654],[-40.794385,-18.613833],[-40.759167,-18.576999],[-40.707769,-18.564266],[-40.684926,-18.535617],[-40.652088,-18.513335],[-40.679215,-18.510152],[-40.70301,-18.499238],[-40.72395,-18.468316],[-40.751077,-18.468316],[-40.763451,-18.485141],[-40.829602,-18.501512],[-40.846259,-18.48696],[-40.853873,-18.44285],[-40.866723,-18.432391],[-40.910506,-18.428753],[-40.925736,-18.438758]]]},"properties":{"cod_ibge":"320090","name":"Barra de São Francisco","uf":"ES"}},
{"type":"Feature","geometry":{"type":"Polygon","coordinates":[[[-40.954766,-19.858912],[-40.884807,-19.834356],[-40.829126,-19.891653],[-40.813897,-19.888015],[-40.828174,-19.866187],[-40.811517,-19.842541],[-40.785342,-19.833901],[-40.774872,-19.813892],[-40.773445,-19.787972],[-40.782011,-19.758869],[-40.774396,-19.746136],[-40.769637,-19.68611],[-40.756312,-19.652459],[-40.779156,-19.634725],[-40.773921,-19.615625],[-40.785818,-19.596072],[-40.82056,-19.593798],[-40.834361,-19.61699],[-40.852921,-19.617444],[-40.852446,-19.577882],[-40.833885,-19.568787],[-40.851494,-19.560602],[-40.882904,-19.592434],[-40.929543,-19.611533],[-40.937157,-19.642],[-40.921452,-19.69475],[-40.944296,-19.711576],[-40.945248,-19.730675],[-40.972851,-19.725218],[-40.990935,-19.760688],[-40.993791,-19.801159],[-40.940965,-19.804797],[-40.937157,-19.816621],[-40.958097,-19.830263],[-40.954766,-19.858912]]]},"properties":{"cod_ibge":"320270","name":"Itaguaçu","uf":"ES"}},
{"type":"Feature","geometry":{"type":"Polygon","coordinates":[[[-41.374042,-20.628332],[-41.340728,-20.60605],[-41.320264,-20.623785],[-41.305511,-20.651524],[-41.291234,-20.642884],[-41.254589,-20.662892],[-41.204618,-20.671532],[-41.179871,-20.666985],[-41.167497,-20.644703],[-41.151316,-20.643338],[-41.133232,-20.626968],[-41.098966,-20.608778],[-41.077551,-20.614235],[-41.076599,-20.58877],[-41.057562,-20.567852],[-41.04043,-20.571944],[-41.017586,-20.54466],[-41.045665,-20.53602],[-41.026628,-20.516466],[-41.039478,-20.483725],[-41.052803,-20.460078],[-41.068032,-20.460078],[-41.08231,-20.440524],[-41.101346,-20.433703],[-41.097539,-20.408693],[-41.142274,-20.43143],[-41.16607,-20.425973],[-41.165594,-20.445072],[-41.191293,-20.445526],[-41.225558,-20.461442],[-41.209853,-20.491],[-41.27077,-20.492365],[-41.297896,-20.520559],[-41.327879,-20.497367],[-41.328355,-20.514192],[-41.374518,-20.508281],[-41.37309,-20.536929],[-41.405928,-20.546934],[-41.414494,-20.572854],[-41.397361,-20.596045],[-41.391651,-20.624239],[-41.374042,-20.628332]]]},"properties":{"cod_ibge":"320140","name":"Castelo","uf":"ES"}},
{"type":"Feature","geometry":{"type":"Polygon","coordinates":[[[-41.002833,-20.214518],[-41.017586,-20.149945],[-41.036146,-20.13221],[-41.011875,-20.113111],[-40.999501,-20.124025],[-40.972851,-20.110838],[-40.945724,-20.083098],[-40.947627,-20.074004],[-40.968567,-20.038989],[-40.970471,-19.977144],[-41.00664,-19.960773],[-41.016158,-19.970778],[-41.068032,-19.986694],[-41.096111,-19.970323],[-41.124666,-19.935308],[-41.126093,-19.917118],[-41.14513,-19.891653],[-41.177016,-19.906204],[-41.18701,-19.891653],[-41.229841,-19.907114],[-41.244595,-19.937127],[-41.271246,-19.942129],[-41.274101,-19.9585],[-41.258396,-19.972142],[-41.238408,-20.006702],[-41.253161,-20.028075],[-41.232697,-20.051721],[-41.250781,-20.084008],[-41.23936,-20.111747],[-41.22651,-20.121751],[-41.227462,-20.151764],[-41.246498,-20.162678],[-41.252209,-20.180868],[-41.240787,-20.207243],[-41.233649,-20.249533],[-41.238884,-20.277727],[-41.224606,-20.28091],[-41.185582,-20.259538],[-41.165594,-20.267723],[-41.157979,-20.282275],[-41.136563,-20.287732],[-41.129425,-20.269087],[-41.101346,-20.274544],[-41.080882,-20.262266],[-41.057086,-20.232253],[-41.030436,-20.231344],[-41.025676,-20.212245],[-41.002833,-20.214518]]]},"properties":{"cod_ibge":"320010","name":"Afonso Cláudio","uf":"ES"}},
{"type":"Feature","geometry":{"type":"Polygon","coordinates":[[[-41.025676,-18.527432],[-41.041857,-18.605193],[-41.0509,-18.634296],[-41.005212,-18.667492],[-40.953814,-18.681589],[-40.941441,-18.690684],[-40.902416,-18.685682],[-40.910031,-18.665218],[-40.905747,-18.60974],[-40.929067,-18.587003],[-40.920025,-18.558354],[-40.906699,-18.54926],[-40.904796,-18.521975],[-40.92526,-18.486505],[-40.920501,-18.45149],[-40.925736,-18.438758],[-40.936206,-18.423751],[-40.931446,-18.400559],[-40.957621,-18.382825],[-40.986176,-18.410109],[-41.003785,-18.406016],[-41.04043,-18.382825],[-41.035671,-18.362816],[-41.057562,-18.350993],[-41.099918,-18.401924],[-41.144178,-18.405107],[-41.166546,-18.415111],[-41.181775,-18.439667],[-41.173208,-18.44285],[-41.022821,-18.457402],[-41.015682,-18.476956],[-41.025676,-18.527432]]]},"properties":{"cod_ibge":"320016","name":"Água Doce do Norte","uf":"ES"}},
{"type":"Feature","geometry":{"type":"Polygon","coordinates":[[[-40.906223,-18.940336],[-40.857681,-18.940336],[-40.858632,-19.021735],[-40.816752,-19.016278],[-40.782963,-19.020825],[-40.768686,-18.994905],[-40.729661,-19.034467],[-40.714908,-19.077668],[-40.713004,-19.108135],[-40.686353,-19.111318],[-40.691112,-19.149971],[-40.678739,-19.120413],[-40.683498,-19.104043],[-40.654467,-19.089946],[-40.57975,-19.068118],[-40.555954,-19.045836],[-40.572135,-19.052657],[-40.615443,-19.041288],[-40.62163,-19.021735],[-40.644473,-19.009457],[-40.634003,-18.987174],[-40.656371,-18.946248],[-40.67398,-18.936243],[-40.741083,-18.93397],[-40.740131,-18.902138],[-40.730137,-18.881675],[-40.714432,-18.874854],[-40.722046,-18.849388],[-40.74489,-18.842567],[-40.762499,-18.848479],[-40.792481,-18.858028],[-40.802951,-18.843931],[-40.827222,-18.848024],[-40.862916,-18.86394],[-40.860536,-18.895772],[-40.898133,-18.901228],[-40.906223,-18.940336]]]},"properties":{"cod_ibge":"320013","name":"Águia Branca","uf":"ES"}},
{"type":"Feature","geometry":{"type":"Polygon","coordinates":[[[-40.34941,-19.668375],[-40.334181,-19.641546],[-40.309433,-19.652459],[-40.288493,-19.623356],[-40.267553,-19.617444],[-40.257559,-19.59971],[-40.221866,-19.582884],[-40.203306,-19.582884],[-40.167612,-19.553781],[-40.120022,-19.551507],[-40.085756,-19.565149],[-40.06434,-19.586067],[-40.049111,-19.584703],[-40.031502,-19.606985],[-39.911573,-19.68702],[-39.849705,-19.66019],[-39.810681,-19.649731],[-39.808777,-19.63427],[-39.778319,-19.576518],[-39.730252,-19.46829],[-39.696462,-19.366883],[-39.688848,-19.305038],[-39.691227,-19.273206],[-39.704077,-19.209088],[-39.719306,-19.096767],[-39.722637,-19.139512],[-39.741198,-19.149062],[-39.761186,-19.160885],[-39.82591,-19.139058],[-39.840187,-19.124506],[-39.873977,-19.111773],[-39.871121,-19.080396],[-39.881591,-19.063116],[-39.905387,-19.052657],[-39.930134,-19.059933],[-39.974869,-19.02128],[-39.979152,-19.008092],[-40.002472,-18.994905],[-40.088136,-19.16998],[-40.05387,-19.174527],[-40.037689,-19.184986],[-40.084328,-19.235008],[-40.110979,-19.210907],[-40.119546,-19.229096],[-40.148576,-19.216363],[-40.156667,-19.193172],[-40.191884,-19.192262],[-40.193312,-19.220911],[-40.181414,-19.243193],[-40.203306,-19.341872],[-40.272788,-19.368701],[-40.297536,-19.355969],[-40.303247,-19.315042],[-40.325138,-19.375523],[-40.33656,-19.356424],[-40.363687,-19.352331],[-40.380344,-19.367337],[-40.398428,-19.358697],[-40.424127,-19.311859],[-40.416037,-19.270478],[-40.43079,-19.2582],[-40.471242,-19.293215],[-40.508839,-19.312768],[-40.52502,-19.331868],[-40.496466,-19.359152],[-40.494562,-19.369156],[-40.455537,-19.401898],[-40.44126,-19.425999],[-40.444116,-19.457831],[-40.435073,-19.462833],[-40.43079,-19.4933],[-40.416513,-19.508761],[-40.393193,-19.509671],[-40.373681,-19.536046],[-40.371302,-19.556509],[-40.389386,-19.574244],[-40.375585,-19.598345],[-40.376537,-19.622447],[-40.37035,-19.653369],[-40.34941,-19.668375]]]},"properties":{"cod_ibge":"320320","name":"Linhares","uf":"ES"}},
{"type":"Feature","geometry":{"type":"Polygon","coordinates":[[[-40.373205,-20.214973],[-40.390338,-20.178139],[-40.411754,-20.169954],[-40.435549,-20.135394],[-40.43317,-20.094922],[-40.416037,-20.016706],[-40.447447,-19.994879],[-40.454586,-19.946676],[-40.485044,-19.963502],[-40.510743,-19.954862],[-40.544532,-19.989877],[-40.586412,-19.988058],[-40.604973,-20.002155],[-40.601166,-20.012614],[-40.622581,-20.046265],[-40.602593,-20.082189],[-40.624485,-20.106745],[-40.643997,-20.091739],[-40.674931,-20.093557],[-40.683498,-20.139032],[-40.714432,-20.149491],[-40.752029,-20.17632],[-40.745366,-20.189053],[-40.718239,-20.183141],[-40.681594,-20.188598],[-40.660178,-20.207243],[-40.624961,-20.228615],[-40.608304,-20.251807],[-40.594503,-20.245441],[-40.595455,-20.268632],[-40.557858,-20.270451],[-40.530731,-20.256355],[-40.502652,-20.22907],[-40.487423,-20.23771],[-40.468387,-20.220885],[-40.407947,-20.231344],[-40.373205,-20.214973]]]},"properties":{"cod_ibge":"320450","name":"Santa Leopoldina","uf":"ES"}},
{"type":"Feature","geometry":{"type":"Polygon","coordinates":[[[-40.594503,-20.245441],[-40.608304,-20.251807],[-40.624961,-20.228615],[-40.660178,-20.207243],[-40.681594,-20.188598],[-40.718239,-20.183141],[-40.745366,-20.189053],[-40.752029,-20.17632],[-40.771065,-20.160859],[-40.823415,-20.165406],[-40.834361,-20.176775],[-40.899085,-20.203605],[-40.942392,-20.199057],[-40.958097,-20.188598],[-40.973326,-20.200421],[-40.980465,-20.226342],[-41.002833,-20.214518],[-41.025676,-20.212245],[-41.030436,-20.231344],[-41.057086,-20.232253],[-41.080882,-20.262266],[-41.101346,-20.274544],[-41.129425,-20.269087],[-41.136563,-20.287732],[-41.105629,-20.303193],[-41.098491,-20.344119],[-41.087069,-20.352759],[-41.092304,-20.380499],[-41.078502,-20.383682],[-41.052327,-20.43916],[-41.052803,-20.460078],[-41.039478,-20.483725],[-41.005212,-20.470537],[-41.010447,-20.433703],[-40.98808,-20.436886],[-40.930019,-20.436886],[-40.91241,-20.44871],[-40.887663,-20.397324],[-40.872434,-20.383682],[-40.834361,-20.375496],[-40.825319,-20.390048],[-40.790577,-20.406419],[-40.778204,-20.365492],[-40.758691,-20.346848],[-40.732992,-20.346848],[-40.741559,-20.380044],[-40.729661,-20.389139],[-40.69492,-20.390503],[-40.646853,-20.385955],[-40.647329,-20.401417],[-40.625437,-20.424154],[-40.614967,-20.413695],[-40.555954,-20.409147],[-40.538822,-20.391412],[-40.561665,-20.377315],[-40.592599,-20.367311],[-40.57975,-20.322292],[-40.582605,-20.292279],[-40.600214,-20.278182],[-40.604497,-20.250898],[-40.594503,-20.245441]]]},"properties":{"cod_ibge":"320190","name":"Domingos Martins","uf":"ES"}},
{"type":"Feature","geometry":{"type":"Polygon","coordinates":[[[-40.752029,-20.17632],[-40.714432,-20.149491],[-40.683498,-20.139032],[-40.674931,-20.093557],[-40.643997,-20.091739],[-40.624485,-20.106745],[-40.602593,-20.082189],[-40.622581,-20.046265],[-40.601166,-20.012614],[-40.604973,-20.002155],[-40.616395,-19.997607],[-40.630196,-19.964866],[-40.662082,-19.980782],[-40.672076,-19.963502],[-40.696823,-19.980782],[-40.70539,-19.974416],[-40.741559,-19.98442],[-40.755836,-19.973051],[-40.751553,-19.94895],[-40.775348,-19.942129],[-40.785818,-19.961683],[-40.825795,-19.987603],[-40.853397,-19.986239],[-40.867199,-20.023527],[-40.887663,-20.029894],[-40.911458,-20.056269],[-40.944296,-20.06218],[-40.947627,-20.074004],[-40.945724,-20.083098],[-40.972851,-20.110838],[-40.999501,-20.124025],[-41.011875,-20.113111],[-41.036146,-20.13221],[-41.017586,-20.149945],[-41.002833,-20.214518],[-40.980465,-20.226342],[-40.973326,-20.200421],[-40.958097,-20.188598],[-40.942392,-20.199057],[-40.899085,-20.203605],[-40.834361,-20.176775],[-40.823415,-20.165406],[-40.771065,-20.160859],[-40.752029,-20.17632]]]},"properties":{"cod_ibge":"320455","name":"Santa Maria de Jetibá","uf":"ES"}},
{"type":"Feature","geometry":{"type":"Polygon","coordinates":[[[-40.346078,-19.779787],[-40.346078,-19.906659],[-40.324187,-19.948041],[-40.30515,-19.955316],[-40.303247,-19.970778],[-40.274692,-19.988967],[-40.264222,-20.009885],[-40.238523,-20.009431],[-40.208065,-19.988058],[-40.168088,-19.999881],[-40.154287,-20.012159],[-40.132395,-19.96623],[-40.149528,-19.945767],[-40.101937,-19.921211],[-40.082901,-19.876192],[-40.058153,-19.839812],[-40.054822,-19.814802],[-40.015322,-19.767963],[-39.968207,-19.725673],[-39.911573,-19.68702],[-40.031502,-19.606985],[-40.049111,-19.584703],[-40.06434,-19.586067],[-40.085756,-19.565149],[-40.120022,-19.551507],[-40.167612,-19.553781],[-40.203306,-19.582884],[-40.221866,-19.582884],[-40.257559,-19.59971],[-40.267553,-19.617444],[-40.288493,-19.623356],[-40.309433,-19.652459],[-40.334181,-19.641546],[-40.34941,-19.668375],[-40.353693,-19.68611],[-40.346078,-19.706119],[-40.346078,-19.779787]]]},"properties":{"cod_ibge":"320060","name":"Aracruz","uf":"ES"}},
{"type":"Feature","geometry":{"type":"Polygon","coordinates":[[[-40.130016,-18.274142],[-40.1481,-18.28642],[-40.196643,-18.297333],[-40.211872,-18.290058],[-40.22377,-18.31234],[-40.250421,-18.32007],[-40.276596,-18.306883],[-40.293252,-18.31234],[-40.340367,-18.295514],[-40.346078,-18.279144],[-40.390814,-18.273232],[-40.397952,-18.255952],[-40.426031,-18.257316],[-40.469339,-18.248676],[-40.479809,-18.255952],[-40.486472,-18.366454],[-40.457917,-18.375094],[-40.44364,-18.361907],[-40.423652,-18.365544],[-40.402712,-18.385553],[-40.354645,-18.377822],[-40.329897,-18.401924],[-40.318952,-18.440122],[-40.30753,-18.458311],[-40.272312,-18.494236],[-40.247089,-18.49651],[-40.199974,-18.48696],[-40.176655,-18.471499],[-40.124781,-18.488324],[-40.090515,-18.48787],[-40.059105,-18.464223],[-40.042924,-18.444669],[-40.030075,-18.444215],[-40.001996,-18.432391],[-39.974393,-18.437393],[-39.936797,-18.411928],[-39.959164,-18.345081],[-39.955357,-18.31143],[-39.965351,-18.297788],[-39.989147,-18.287784],[-40.017701,-18.287329],[-40.03531,-18.294605],[-40.067672,-18.278234],[-40.094322,-18.282327],[-40.130016,-18.274142]]]},"properties":{"cod_ibge":"320410","name":"Pinheiros","uf":"ES"}},
{"type":"Feature","geometry":{"type":"Polygon","coordinates":[[[-40.570707,-20.765209],[-40.547388,-20.739743],[-40.533111,-20.737015],[-40.515502,-20.707912],[-40.495514,-20.662438],[-40.480761,-20.652433],[-40.464104,-20.623785],[-40.43079,-20.637427],[-40.404615,-20.599229],[-40.402712,-20.582403],[-40.377012,-20.535565],[-40.379868,-20.518285],[-40.484092,-20.505097],[-40.537394,-20.472811],[-40.604973,-20.487363],[-40.626389,-20.467809],[-40.656371,-20.460078],[-40.676835,-20.468718],[-40.693492,-20.526015],[-40.673028,-20.54466],[-40.680642,-20.556938],[-40.649708,-20.547843],[-40.644473,-20.577856],[-40.647805,-20.627423],[-40.570707,-20.765209]]]},"properties":{"cod_ibge":"320240","name":"Guarapari","uf":"ES"}},
{"type":"Feature","geometry":{"type":"Polygon","coordinates":[[[-41.717172,-21.1049],[-41.64531,-21.143553],[-41.63484,-21.127182],[-41.60105,-21.104445],[-41.57202,-21.076706],[-41.586773,-21.056243],[-41.572496,-21.023956],[-41.591532,-21.007585],[-41.617231,-21.033051],[-41.632936,-21.069885],[-41.652925,-21.085801],[-41.678148,-21.080344],[-41.708606,-21.090803],[-41.717172,-21.1049]]]},"properties":{"cod_ibge":"320110","name":"Bom Jesus do Norte","uf":"ES"}},
{"type":"Feature","geometry":{"type":"Polygon","coordinates":[[[-41.415446,-20.207243],[-41.665774,-20.206788],[-41.674816,-20.251352],[-41.683383,-20.26363],[-41.68481,-20.29046],[-41.669581,-20.320018],[-41.63722,-20.293188],[-41.620563,-20.269542],[-41.589153,-20.264085],[-41.566785,-20.267723],[-41.553935,-20.298645],[-41.537279,-20.286822],[-41.496351,-20.280001],[-41.475886,-20.327749],[-41.443525,-20.296826],[-41.443049,-20.270451],[-41.410211,-20.230434],[-41.415446,-20.207243]]]},"properties":{"cod_ibge":"320245","name":"Ibatiba","uf":"ES"}},
{"type":"Feature","geometry":{"type":"Polygon","coordinates":[[[-41.327879,-20.497367],[-41.315029,-20.422789],[-41.32312,-20.395505],[-41.345963,-20.374132],[-41.361192,-20.325475],[-41.355481,-20.306831],[-41.315029,-20.297281],[-41.31027,-20.269542],[-41.316933,-20.257264],[-41.350722,-20.234072],[-41.338349,-20.224068],[-41.349771,-20.198148],[-41.37309,-20.203605],[-41.376897,-20.219066],[-41.410211,-20.230434],[-41.443049,-20.270451],[-41.443525,-20.296826],[-41.475886,-20.327749],[-41.463989,-20.335479],[-41.470651,-20.362309],[-41.466844,-20.38732],[-41.475886,-20.41233],[-41.502537,-20.432339],[-41.523477,-20.439615],[-41.542514,-20.431884],[-41.572496,-20.444617],[-41.577255,-20.454621],[-41.577255,-20.499641],[-41.596291,-20.504188],[-41.60343,-20.513738],[-41.601526,-20.545569],[-41.581538,-20.569671],[-41.565357,-20.576037],[-41.531092,-20.560121],[-41.525381,-20.548298],[-41.501586,-20.546934],[-41.50111,-20.58013],[-41.487784,-20.60605],[-41.469224,-20.581949],[-41.451139,-20.579675],[-41.43829,-20.56103],[-41.414494,-20.572854],[-41.405928,-20.546934],[-41.37309,-20.536929],[-41.374518,-20.508281],[-41.328355,-20.514192],[-41.327879,-20.497367]]]},"properties":{"cod_ibge":"320370","name":"Muniz Freire","uf":"ES"}},
{"type":"Feature","geometry":{"type":"Polygon","coordinates":[[[-41.31027,-20.269542],[-41.295041,-20.251352],[-41.300276,-20.229525],[-41.256968,-20.253171],[-41.2603,-20.27318],[-41.238884,-20.277727],[-41.233649,-20.249533],[-41.240787,-20.207243],[-41.252209,-20.180868],[-41.246498,-20.162678],[-41.227462,-20.151764],[-41.22651,-20.121751],[-41.23936,-20.111747],[-41.250781,-20.084008],[-41.232697,-20.051721],[-41.253161,-20.028075],[-41.238408,-20.006702],[-41.258396,-19.972142],[-41.274101,-19.9585],[-41.271246,-19.942129],[-41.297896,-19.937582],[-41.311698,-19.972597],[-41.309318,-20.016252],[-41.332638,-20.057633],[-41.338349,-20.088101],[-41.355957,-20.139032],[-41.382608,-20.189053],[-41.411639,-20.205878],[-41.415446,-20.207243],[-41.410211,-20.230434],[-41.376897,-20.219066],[-41.37309,-20.203605],[-41.349771,-20.198148],[-41.338349,-20.224068],[-41.350722,-20.234072],[-41.316933,-20.257264],[-41.31027,-20.269542]]]},"properties":{"cod_ibge":"320115","name":"Brejetuba","uf":"ES"}},
{"type":"Feature","geometry":{"type":"Polygon","coordinates":[[[-40.758691,-20.865706],[-40.746318,-20.850245],[-40.719667,-20.846607],[-40.701106,-20.834784],[-40.727281,-20.807954],[-40.770589,-20.787036],[-40.828174,-20.856157],[-40.828174,-20.890717],[-40.758691,-20.865706]]]},"properties":{"cod_ibge":"320420","name":"Piúma","uf":"ES"}},
{"type":"Feature","geometry":{"type":"Polygon","coordinates":[[[-41.244595,-20.868435],[-41.265059,-20.883441],[-41.262203,-20.895265],[-41.280764,-20.9562],[-41.24983,-20.943922],[-41.225082,-20.971206],[-41.22889,-21.006221],[-41.194148,-21.061245],[-41.160359,-21.061245],[-41.117527,-21.012133],[-41.110388,-20.996672],[-41.107057,-20.957109],[-41.09278,-20.953471],[-41.093256,-20.933008],[-41.133232,-20.928915],[-41.137039,-20.908907],[-41.156076,-20.890717],[-41.166546,-20.899357],[-41.200811,-20.880258],[-41.232697,-20.884351],[-41.244595,-20.868435]]]},"properties":{"cod_ibge":"320070","name":"Atílio Vivácqua","uf":"ES"}},
{"type":"Feature","geometry":{"type":"Polygon","coordinates":[[[-40.505032,-19.853455],[-40.460772,-19.878011],[-40.442212,-19.858912],[-40.424603,-19.907114],[-40.346078,-19.906659],[-40.346078,-19.779787],[-40.369874,-19.769328],[-40.37844,-19.784334],[-40.437453,-19.787063],[-40.45173,-19.757959],[-40.466007,-19.763416],[-40.505508,-19.805252],[-40.514074,-19.831172],[-40.505032,-19.853455]]]},"properties":{"cod_ibge":"320250","name":"Ibiraçu","uf":"ES"}},
{"type":"Feature","geometry":{"type":"Polygon","coordinates":[[[-41.244595,-20.868435],[-41.232697,-20.884351],[-41.200811,-20.880258],[-41.166546,-20.899357],[-41.156076,-20.890717],[-41.137039,-20.908907],[-41.133232,-20.928915],[-41.093256,-20.933008],[-41.09278,-20.953471],[-41.080406,-20.921185],[-41.052803,-20.902995],[-41.053279,-20.878894],[-41.039478,-20.869344],[-41.006164,-20.869344],[-41.031387,-20.853428],[-41.015682,-20.820687],[-41.021869,-20.787491],[-41.046141,-20.787491],[-41.032339,-20.757024],[-41.049948,-20.752931],[-41.087069,-20.704274],[-41.084689,-20.682901],[-41.055183,-20.632425],[-41.077551,-20.614235],[-41.098966,-20.608778],[-41.133232,-20.626968],[-41.151316,-20.643338],[-41.167497,-20.644703],[-41.179871,-20.666985],[-41.204618,-20.671532],[-41.254589,-20.662892],[-41.291234,-20.642884],[-41.305511,-20.651524],[-41.320264,-20.623785],[-41.340728,-20.60605],[-41.374042,-20.628332],[-41.372138,-20.645612],[-41.388795,-20.671532],[-41.383084,-20.684265],[-41.351674,-20.707002],[-41.359289,-20.722009],[-41.325023,-20.731103],[-41.337873,-20.757024],[-41.352626,-20.769302],[-41.342156,-20.795222],[-41.347867,-20.811138],[-41.337397,-20.863433],[-41.32074,-20.852064],[-41.297421,-20.855702],[-41.238408,-20.847517],[-41.244595,-20.868435]]]},"properties":{"cod_ibge":"320120","name":"Cachoeiro de Itapemirim","uf":"ES"}},
{"type":"Feature","geometry":{"type":"Polygon","coordinates":[[[-40.560713,-18.140903],[-40.55643,-18.176827],[-40.54596,-18.203202],[-40.55881,-18.230941],[-40.618774,-18.287329],[-40.610684,-18.298698],[-40.604973,-18.340534],[-40.580702,-18.340079],[-40.583081,-18.368728],[-40.570707,-18.360088],[-40.529303,-18.36509],[-40.508839,-18.390555],[-40.496942,-18.3901],[-40.485044,-18.413292],[-40.456013,-18.411928],[-40.486947,-18.377368],[-40.486472,-18.366454],[-40.479809,-18.255952],[-40.469339,-18.248676],[-40.426031,-18.257316],[-40.419844,-18.210933],[-40.422224,-18.181829],[-40.44364,-18.15409],[-40.442688,-18.124987],[-40.458869,-18.11953],[-40.482664,-18.132717],[-40.510267,-18.133172],[-40.541677,-18.112254],[-40.560713,-18.140903]]]},"properties":{"cod_ibge":"320425","name":"Ponto Belo","uf":"ES"}},
{"type":"Feature","geometry":{"type":"Polygon","coordinates":[[[-41.782372,-20.504188],[-41.745251,-20.505552],[-41.713365,-20.526925],[-41.69528,-20.529199],[-41.674816,-20.555574],[-41.664822,-20.584222],[-41.66863,-20.610597],[-41.660063,-20.637427],[-41.644834,-20.651524],[-41.618183,-20.648341],[-41.599147,-20.664711],[-41.610093,-20.646067],[-41.606761,-20.62333],[-41.62437,-20.616054],[-41.623894,-20.599229],[-41.640075,-20.572399],[-41.621039,-20.566033],[-41.601526,-20.545569],[-41.60343,-20.513738],[-41.596291,-20.504188],[-41.593436,-20.481451],[-41.631509,-20.460988],[-41.638647,-20.43916],[-41.631985,-20.410966],[-41.670533,-20.395505],[-41.678148,-20.418242],[-41.704323,-20.41324],[-41.738588,-20.381863],[-41.774757,-20.372313],[-41.789035,-20.384137],[-41.803312,-20.422335],[-41.799505,-20.476904],[-41.782372,-20.504188]]]},"properties":{"cod_ibge":"320255","name":"Ibitirama","uf":"ES"}},
{"type":"Feature","geometry":{"type":"Polygon","coordinates":[[[-41.444952,-20.908452],[-41.442573,-20.924368],[-41.472555,-20.991215],[-41.410687,-21.008495],[-41.366903,-21.00804],[-41.358813,-20.995307],[-41.280288,-21.001674],[-41.2603,-21.025775],[-41.245546,-21.024866],[-41.22889,-21.006221],[-41.225082,-20.971206],[-41.24983,-20.943922],[-41.280764,-20.9562],[-41.262203,-20.895265],[-41.265059,-20.883441],[-41.244595,-20.868435],[-41.238408,-20.847517],[-41.297421,-20.855702],[-41.32074,-20.852064],[-41.337397,-20.863433],[-41.342156,-20.875256],[-41.371186,-20.874801],[-41.414494,-20.852519],[-41.425916,-20.874347],[-41.431151,-20.905269],[-41.444952,-20.908452]]]},"properties":{"cod_ibge":"320380","name":"Muqui","uf":"ES"}},
{"type":"Feature","geometry":{"type":"Polygon","coordinates":[[[-41.191293,-20.445526],[-41.199383,-20.423244],[-41.181299,-20.408238],[-41.201763,-20.371404],[-41.21842,-20.356397],[-41.216992,-20.327749],[-41.189865,-20.307285],[-41.16607,-20.301374],[-41.157979,-20.282275],[-41.165594,-20.267723],[-41.185582,-20.259538],[-41.224606,-20.28091],[-41.238884,-20.277727],[-41.2603,-20.27318],[-41.256968,-20.253171],[-41.300276,-20.229525],[-41.295041,-20.251352],[-41.31027,-20.269542],[-41.315029,-20.297281],[-41.355481,-20.306831],[-41.361192,-20.325475],[-41.345963,-20.374132],[-41.32312,-20.395505],[-41.315029,-20.422789],[-41.327879,-20.497367],[-41.297896,-20.520559],[-41.27077,-20.492365],[-41.209853,-20.491],[-41.225558,-20.461442],[-41.191293,-20.445526]]]},"properties":{"cod_ibge":"320170","name":"Conceição do Castelo","uf":"ES"}},
{"type":"Feature","geometry":{"type":"Polygon","coordinates":[[[-40.960953,-21.300893],[-40.961905,-21.265423],[-40.950007,-21.229499],[-40.926211,-21.190391],[-40.947151,-21.172201],[-40.950483,-21.138096],[-40.945724,-21.110811],[-40.960001,-21.077161],[-40.984748,-21.065792],[-41.01711,-21.062609],[-41.039954,-21.027594],[-41.018062,-21.011678],[-41.017586,-21.00031],[-41.075171,-21.021228],[-41.117527,-21.012133],[-41.160359,-21.061245],[-41.194148,-21.061245],[-41.233649,-21.078525],[-41.219847,-21.095805],[-41.223179,-21.112176],[-41.210805,-21.129456],[-41.190341,-21.179023],[-41.183678,-21.228589],[-41.137039,-21.227225],[-41.115623,-21.228589],[-41.089448,-21.219494],[-41.059466,-21.234501],[-41.039954,-21.254964],[-41.024249,-21.245869],[-41.004736,-21.25269],[-40.995218,-21.286341],[-40.960953,-21.300893]]]},"properties":{"cod_ibge":"320430","name":"Presidente Kennedy","uf":"ES"}},
{"type":"Feature","geometry":{"type":"Polygon","coordinates":[[[-40.274216,-20.320018],[-40.281831,-20.32502],[-40.354645,-20.326839],[-40.37035,-20.399598],[-40.404139,-20.424608],[-40.437453,-20.433248],[-40.463628,-20.432339],[-40.484092,-20.505097],[-40.379868,-20.518285],[-40.377012,-20.535565],[-40.35988,-20.516921],[-40.346554,-20.476449],[-40.321807,-20.427792],[-40.319427,-20.405509],[-40.302295,-20.371404],[-40.283734,-20.353669],[-40.274216,-20.320018]]]},"properties":{"cod_ibge":"320520","name":"Vila Velha","uf":"ES"}}
]}