{"type":"FeatureCollection", "features": [
{"type":"Feature","geometry":{"type":"Polygon","coordinates":[[[-49.60679,-4.07306],[-49.23939,-4.0776],[-49.0733,-3.99621],[-49.18752,-3.79703],[-49.26937,-3.78157],[-49.257,-3.63514],[-49.17181,-3.53646],[-49.02904,-3.54692],[-48.92577,-3.41277],[-49.47259,-3.41505],[-49.59632,-3.41505],[-49.59775,-3.51327],[-49.66057,-3.68471],[-49.61488,-3.87297],[-49.60679,-4.07306]]]},"properties":{"cod_ibge":"150178","name":"Breu Branco","uf":"PA"}},
{"type":"Feature","geometry":{"type":"Polygon","coordinates":[[[-48.1724,-5.70876],[-48.13814,-5.6028],[-48.32802,-5.49685],[-48.33183,-5.5014],[-48.46176,-5.60098],[-48.58644,-5.70057],[-48.62309,-5.88747],[-48.66069,-5.98388],[-48.53076,-6.03435],[-48.36134,-5.69966],[-48.1724,-5.70876]]]},"properties":{"cod_ibge":"150175","name":"Brejo Grande do Araguaia","uf":"PA"}},
{"type":"Feature","geometry":{"type":"Polygon","coordinates":[[[-55.41336,-1.39918],[-55.2663,-1.4633],[-55.08117,-1.63429],[-55.07451,-1.75797],[-54.93079,-1.83892],[-54.966,-1.96397],[-55.09498,-2.16679],[-54.84274,-2.14178],[-54.739,-2.07129],[-54.51246,-2.10949],[-54.53483,-2.05901],[-54.40919,-1.88439],[-54.3773,-1.55789],[-54.43679,-1.49286],[-54.55434,-1.52106],[-54.64524,-1.42965],[-54.6243,-1.2564],[-54.69378,-1.21956],[-54.66618,-1.02311],[-54.61574,-1.00902],[-54.69093,-0.6957],[-54.92555,-0.25415],[-54.91032,-0.09817],[-54.85226,0.02734],[-54.92555,0.14193],[-54.86226,0.37248],[-54.86035,0.47662],[-55.0669,0.65351],[-55.0274,0.88589],[-55.10259,1.06323],[-55.21633,1.07324],[-55.24679,1.3288],[-55.41383,1.54571],[-55.41336,0.78948],[-55.41336,-0.37375],[-55.41336,-1.39918]]]},"properties":{"cod_ibge":"150040","name":"Alenquer","uf":"PA"}},
{"type":"Feature","geometry":{"type":"Polygon","coordinates":[[[-49.89662,-2.98896],[-49.81381,-2.96304],[-49.73338,-2.66609],[-49.74481,-2.53558],[-49.72339,-2.30093],[-49.79478,-2.16451],[-49.70626,-2.06902],[-49.71816,-1.83574],[-49.9918,-1.78299],[-50.13172,-1.81482],[-50.05653,-1.90849],[-50.11506,-2.1395],[-50.07985,-2.24273],[-50.10935,-2.41053],[-49.96896,-2.54604],[-49.94231,-2.75977],[-49.84951,-2.85754],[-49.89662,-2.98896]]]},"properties":{"cod_ibge":"150520","name":"Oeiras do Pará","uf":"PA"}},
{"type":"Feature","geometry":{"type":"Polygon","coordinates":[[[-48.13766,-1.20001],[-48.03582,-1.20865],[-48.02154,-1.13362],[-48.11149,-1.01538],[-48.21381,-1.00674],[-48.43939,-0.98264],[-48.46937,-1.01948],[-48.30185,-1.10633],[-48.13766,-1.20001]]]},"properties":{"cod_ibge":"150700","name":"Santo Antônio do Tauá","uf":"PA"}},
{"type":"Feature","geometry":{"type":"Polygon","coordinates":[[[-49.60679,-4.07306],[-49.61488,-3.87297],[-49.66057,-3.68471],[-49.59775,-3.51327],[-49.67437,-3.58558],[-49.87235,-3.66516],[-49.96563,-3.66106],[-49.95801,-3.78748],[-50.01798,-3.9048],[-50.12125,-3.98484],[-50.1084,-4.07806],[-49.60679,-4.07306]]]},"properties":{"cod_ibge":"150810","name":"Tucuruí","uf":"PA"}},
{"type":"Feature","geometry":{"type":"Polygon","coordinates":[[[-47.20536,-1.22502],[-47.18727,-1.38918],[-46.97835,-1.10406],[-47.00214,-1.01175],[-47.01356,-1.01402],[-47.21154,-1.00083],[-47.20536,-1.22502]]]},"properties":{"cod_ibge":"150220","name":"Capanema","uf":"PA"}},
{"type":"Feature","geometry":{"type":"Polygon","coordinates":[[[-48.03249,-3.82204],[-47.85212,-4.04668],[-47.56895,-4.09307],[-47.46377,-4.15582],[-47.34718,-4.10853],[-47.08543,-3.8566],[-47.0307,-3.60468],[-47.03831,-3.5642],[-47.14682,-3.61968],[-47.22344,-3.52237],[-47.35241,-3.4728],[-47.65985,-3.58376],[-47.73695,-3.69926],[-47.95872,-3.73428],[-48.03249,-3.82204]]]},"properties":{"cod_ibge":"150812","name":"Ulianópolis","uf":"PA"}},
{"type":"Feature","geometry":{"type":"Polygon","coordinates":[[[-54.51246,-2.10949],[-54.33209,-2.39097],[-54.26594,-2.41553],[-54.11889,-2.33777],[-54.03608,-2.11267],[-53.83429,-1.88485],[-53.79098,-1.72432],[-53.88521,-1.50741],[-53.8243,-1.4292],[-53.87617,-1.30551],[-53.90235,-1.04813],[-53.95946,-0.99447],[-54.12365,-0.82758],[-54.02942,-0.66205],[-54.2331,-0.47788],[-54.31972,-0.47061],[-54.33114,-0.32691],[-54.42347,-0.11182],[-54.38777,-0.00813],[-54.44679,0.08554],[-54.64048,0.13374],[-54.68427,0.2447],[-54.86226,0.37248],[-54.92555,0.14193],[-54.85226,0.02734],[-54.91032,-0.09817],[-54.92555,-0.25415],[-54.69093,-0.6957],[-54.61574,-1.00902],[-54.66618,-1.02311],[-54.69378,-1.21956],[-54.6243,-1.2564],[-54.64524,-1.42965],[-54.55434,-1.52106],[-54.43679,-1.49286],[-54.3773,-1.55789],[-54.40919,-1.88439],[-54.53483,-2.05901],[-54.51246,-2.10949]]]},"properties":{"cod_ibge":"150480","name":"Monte Alegre","uf":"PA"}},
{"type":"Feature","geometry":{"type":"Polygon","coordinates":[[[-47.58941,-1.87757],[-47.43332,-1.91804],[-47.39905,-2.07857],[-47.22201,-1.94624],[-47.3091,-1.70932],[-47.30672,-1.61155],[-47.32814,-1.60609],[-47.62035,-1.63201],[-47.56705,-1.71477],[-47.58941,-1.87757]]]},"properties":{"cod_ibge":"150350","name":"Irituia","uf":"PA"}},
{"type":"Feature","geometry":{"type":"Polygon","coordinates":[[[-53.1566,-3.66516],[-53.26415,-3.49599],[-53.49878,-3.516],[-53.50877,-3.27817],[-53.66487,-3.04171],[-53.79432,-3.02033],[-53.85523,-2.88755],[-54.10318,-2.88664],[-54.04607,-2.99896],[-54.10984,-3.1704],[-54.24881,-3.26635],[-54.28593,-3.40232],[-54.25452,-3.69289],[-54.10984,-3.82568],[-54.09985,-4.23176],[-54.0237,-4.26678],[-53.75767,-4.11853],[-53.50639,-4.05532],[-53.40835,-3.90117],[-53.23655,-3.78975],[-53.17897,-3.6738],[-53.1566,-3.66516]]]},"properties":{"cod_ibge":"150815","name":"Uruará","uf":"PA"}},
{"type":"Feature","geometry":{"type":"Polygon","coordinates":[[[-48.96194,-0.65159],[-48.57264,-0.6807],[-48.50601,-0.75073],[-48.44129,-0.4124],[-48.37466,-0.30326],[-48.42892,-0.22732],[-48.74349,-0.25006],[-48.91768,-0.22959],[-49.00667,-0.44514],[-48.96194,-0.65159]]]},"properties":{"cod_ibge":"150790","name":"Soure","uf":"PA"}},
{"type":"Feature","geometry":{"type":"Polygon","coordinates":[[[-48.82821,-2.60152],[-49.03237,-2.85754],[-48.92577,-3.40686],[-48.81964,-3.38003],[-48.63308,-3.22951],[-48.53076,-3.19586],[-48.49412,-3.09764],[-48.55741,-2.96213],[-48.45462,-2.68837],[-48.49554,-2.55877],[-48.62832,-2.45145],[-48.75492,-2.43054],[-48.82821,-2.60152]]]},"properties":{"cod_ibge":"150795","name":"Tailândia","uf":"PA"}},
{"type":"Feature","geometry":{"type":"Polygon","coordinates":[[[-47.65319,-1.43102],[-47.41856,-1.49559],[-47.4276,-1.37008],[-47.49614,-1.23684],[-47.63843,-1.37463],[-47.65319,-1.43102]]]},"properties":{"cod_ibge":"150660","name":"Santa Maria do Pará","uf":"PA"}},
{"type":"Feature","geometry":{"type":"Polygon","coordinates":[[[-47.94301,-1.03858],[-47.81119,-1.06586],[-47.77787,-1.06086],[-47.81452,-0.92216],[-47.90113,-0.93171],[-47.91922,-0.97309],[-47.94301,-1.03858]]]},"properties":{"cod_ibge":"150796","name":"Terra Alta","uf":"PA"}},
{"type":"Feature","geometry":{"type":"Polygon","coordinates":[[[-46.3373,-1.02175],[-46.46912,-1.02539],[-46.49578,-0.87214],[-46.63664,-0.969],[-46.63522,-1.22638],[-46.5486,-1.33552],[-46.38489,-1.21229],[-46.3373,-1.02175]]]},"properties":{"cod_ibge":"150090","name":"Augusto Corrêa","uf":"PA"}},
{"type":"Feature","geometry":{"type":"Polygon","coordinates":[[[-56.74924,-1.65202],[-56.56078,-1.67749],[-56.55078,-1.76571],[-56.37565,-1.8662],[-56.08915,-1.97852],[-55.90259,-1.99853],[-55.67178,-1.78526],[-55.69938,-1.35598],[-55.8155,-1.27777],[-56.0092,-1.28914],[-56.06964,-1.20683],[-56.04156,-1.07223],[-56.14578,-0.85395],[-56.26666,-0.75209],[-56.19956,-0.54518],[-56.04251,-0.40285],[-56.02823,-0.0868],[-56.17481,0.20514],[-56.10152,0.39931],[-55.89498,0.36839],[-55.91925,0.5271],[-55.97684,0.55802],[-55.94828,0.71854],[-55.79504,0.8204],[-55.58849,1.29697],[-55.62086,1.40065],[-55.73174,1.46522],[-55.8393,1.76217],[-55.81122,1.80492],[-55.87118,2.07412],[-55.95256,2.19508],[-55.94685,2.3315],[-55.83359,2.40927],[-55.72032,2.40108],[-55.93067,2.53068],[-56.08154,2.36425],[-56.04727,2.2351],[-55.92401,2.05275],[-55.95732,1.85221],[-56.26762,1.88404],[-56.45941,1.95134],[-56.58267,1.9045],[-56.71449,1.92497],[-56.77493,1.86358],[-56.95483,1.87085],[-57.08713,2.02956],[-57.43359,1.90814],[-57.44549,1.81083],[-57.55733,1.68941],[-57.77577,1.72761],[-57.9847,1.63029],[-57.98898,1.53889],[-58.11129,1.49978],[-58.19172,1.573],[-58.32116,1.56527],[-58.49868,1.26605],[-58.70903,1.29379],[-58.73092,1.20921],[-58.89559,1.22967],[-58.89559,0.26335],[-58.89511,-0.01086],[-58.71522,-0.06589],[-58.58862,-0.27188],[-58.44109,-0.29462],[-58.522,-0.43332],[-58.34639,-0.48197],[-58.31736,-0.61567],[-58.22313,-0.7389],[-58.0913,-0.81257],[-57.99992,-0.79211],[-57.65203,-1.09542],[-57.55352,-1.12634],[-57.42836,-1.3478],[-57.32889,-1.33961],[-57.14662,-1.4965],[-56.96339,-1.58108],[-56.91818,-1.64747],[-56.74924,-1.65202]]]},"properties":{"cod_ibge":"150530","name":"Oriximiná","uf":"PA"}},
{"type":"Feature","geometry":{"type":"Polygon","coordinates":[[[-49.36075,-7.61503],[-49.51875,-7.84422],[-49.82666,-7.96791],[-49.90519,-8.05567],[-49.82666,-8.3317],[-49.65914,-8.28623],[-49.65914,-8.50041],[-49.77764,-8.57317],[-49.70245,-8.76098],[-49.58395,-8.7878],[-49.48163,-8.67366],[-49.39977,-8.54497],[-49.28317,-8.37945],[-49.22083,-8.20392],[-49.17562,-8.00929],[-49.16705,-7.8565],[-49.16087,-7.79147],[-49.34219,-7.65596],[-49.36075,-7.61503]]]},"properties":{"cod_ibge":"150270","name":"Conceição do Araguaia","uf":"PA"}},
{"type":"Feature","geometry":{"type":"Polygon","coordinates":[[[-49.31792,-1.99444],[-49.26414,-1.94487],[-49.17181,-1.71614],[-49.41595,-1.71887],[-49.60774,-1.76025],[-49.71816,-1.83574],[-49.70626,-2.06902],[-49.59394,-1.97216],[-49.31792,-1.99444]]]},"properties":{"cod_ibge":"150400","name":"Limoeiro do Ajuru","uf":"PA"}},
{"type":"Feature","geometry":{"type":"Polygon","coordinates":[[[-56.58552,-2.17634],[-56.41372,-2.17588],[-56.22859,-2.05628],[-56.1277,-2.034],[-56.12199,-2.03218],[-56.09534,-1.9999],[-56.08915,-1.97852],[-56.37565,-1.8662],[-56.55078,-1.76571],[-56.56078,-1.67749],[-56.74924,-1.65202],[-56.59837,-1.87666],[-56.64454,-2.04082],[-56.58552,-2.17634]]]},"properties":{"cod_ibge":"150797","name":"Terra Santa","uf":"PA"}},
{"type":"Feature","geometry":{"type":"Polygon","coordinates":[[[-47.26199,-0.64795],[-47.42618,-0.65705],[-47.37716,-0.82257],[-47.34956,-0.70934],[-47.26199,-0.64795]]]},"properties":{"cod_ibge":"150620","name":"Salinópolis","uf":"PA"}},
{"type":"Feature","geometry":{"type":"Polygon","coordinates":[[[-47.58703,-2.00035],[-47.74646,-2.00081],[-47.84974,-2.17224],[-47.96729,-2.22181],[-48.05533,-2.36005],[-48.04676,-2.47328],[-47.95206,-2.51694],[-47.98632,-2.42053],[-47.93064,-2.3264],[-47.70458,-2.31685],[-47.43903,-2.40734],[-47.42427,-2.24409],[-47.51089,-2.12995],[-47.58703,-2.00035]]]},"properties":{"cod_ibge":"150095","name":"Aurora do Pará","uf":"PA"}},
{"type":"Feature","geometry":{"type":"Polygon","coordinates":[[[-48.62452,-1.19228],[-48.51506,-1.39418],[-48.50649,-1.52651],[-48.33183,-1.46694],[-48.34563,-1.45148],[-48.43748,-1.34416],[-48.43796,-1.34416],[-48.35325,-1.22093],[-48.30185,-1.10633],[-48.46937,-1.01948],[-48.60738,-1.17227],[-48.62452,-1.19228]]]},"properties":{"cod_ibge":"150140","name":"Belém","uf":"PA"}},
{"type":"Feature","geometry":{"type":"Polygon","coordinates":[[[-47.9887,-2.09676],[-47.9078,-1.9667],[-47.88924,-1.7698],[-47.95491,-1.66976],[-48.07817,-1.82982],[-48.0539,-2.08448],[-47.9887,-2.09676]]]},"properties":{"cod_ibge":"150275","name":"Concórdia do Pará","uf":"PA"}},
{"type":"Feature","geometry":{"type":"Polygon","coordinates":[[[-54.8337,-3.55602],[-54.83227,-2.66109],[-54.82989,-2.5706],[-55.05833,-2.54922],[-55.10211,-2.82025],[-55.23394,-3.24179],[-55.03739,-3.25453],[-55.11877,-3.42778],[-55.09212,-3.51009],[-55.17445,-3.69653],[-55.14637,-3.86615],[-55.01788,-3.92117],[-54.94411,-3.80931],[-54.89509,-3.56329],[-54.8337,-3.55602]]]},"properties":{"cod_ibge":"150145","name":"Belterra","uf":"PA"}},
{"type":"Feature","geometry":{"type":"Polygon","coordinates":[[[-50.59954,-8.19119],[-50.52577,-8.09796],[-50.51721,-7.95427],[-50.57241,-7.86832],[-50.5115,-7.766],[-50.63666,-7.70098],[-50.73517,-7.74418],[-50.83226,-7.6123],[-50.96218,-7.58274],[-50.97218,-7.37356],[-51.06307,-7.32081],[-51.23012,-7.40403],[-51.19347,-7.56637],[-51.21346,-7.67687],[-51.13636,-7.76919],[-51.25153,-7.95654],[-51.44237,-8.02839],[-51.5466,-8.2071],[-51.65844,-8.24666],[-51.86593,-8.24439],[-51.7817,-8.3799],[-51.80597,-8.54452],[-51.77932,-8.72505],[-51.91638,-8.81145],[-51.85832,-8.90604],[-51.59466,-9.08884],[-51.51328,-9.1998],[-51.43571,-9.47037],[-51.32292,-9.59224],[-51.28532,-9.6991],[-51.25772,-9.57587],[-51.08782,-9.48356],[-51.05546,-9.18843],[-51.12351,-9.12704],[-51.05546,-8.98061],[-51.02691,-8.73142],[-50.86748,-8.3367],[-50.59954,-8.19119]]]},"properties":{"cod_ibge":"150276","name":"Cumaru do Norte","uf":"PA"}},
{"type":"Feature","geometry":{"type":"Polygon","coordinates":[[[-49.82333,-6.24854],[-49.66438,-6.53775],[-49.72958,-6.71464],[-49.63773,-6.63688],[-49.41119,-6.44544],[-49.43309,-6.33039],[-49.57348,-6.2599],[-49.47592,-6.1012],[-49.45736,-5.90157],[-49.71863,-5.94613],[-49.82571,-5.85564],[-49.78193,-6.11393],[-49.82333,-6.24854]]]},"properties":{"cod_ibge":"150277","name":"Curionópolis","uf":"PA"}},
{"type":"Feature","geometry":{"type":"Polygon","coordinates":[[[-48.19477,-4.91114],[-48.27044,-4.92342],[-48.50649,-4.82383],[-48.61309,-4.81383],[-48.52695,-4.92297],[-48.45176,-5.11214],[-48.21238,-4.92479],[-48.19477,-4.91114]]]},"properties":{"cod_ibge":"150013","name":"Abel Figueiredo","uf":"PA"}},
{"type":"Feature","geometry":{"type":"Polygon","coordinates":[[[-49.15468,-1.70159],[-49.11327,-1.80208],[-49.01762,-1.82755],[-48.90578,-1.9567],[-48.53029,-1.69931],[-48.70209,-1.68067],[-48.83725,-1.52151],[-48.94766,-1.55107],[-49.15468,-1.70159]]]},"properties":{"cod_ibge":"150010","name":"Abaetetuba","uf":"PA"}},
{"type":"Feature","geometry":{"type":"Polygon","coordinates":[[[-49.97086,-3.16267],[-50.08603,-3.03216],[-50.14171,-2.82389],[-50.13267,-2.64563],[-50.27592,-2.50557],[-50.44772,-2.21999],[-50.50578,-2.19271],[-50.57146,-2.01172],[-50.45439,-1.93214],[-50.52672,-1.9235],[-50.67568,-1.79572],[-50.79847,-1.91304],[-50.87557,-1.86848],[-51.2187,-1.79936],[-51.30103,-1.74752],[-51.75552,-1.93805],[-51.8745,-1.94442],[-51.9397,-2.10767],[-51.92066,-2.3314],[-51.86641,-2.36414],[-51.85451,-2.55241],[-51.74838,-2.84571],[-51.5328,-2.74431],[-51.44951,-2.76977],[-51.39811,-2.88891],[-51.16111,-3.01851],[-51.14683,-3.11583],[-50.97503,-3.1222],[-50.85034,-3.29409],[-50.80894,-3.49508],[-50.4858,-3.45825],[-50.20977,-3.2377],[-50.00656,-3.33138],[-49.90852,-3.32546],[-49.97086,-3.16267]]]},"properties":{"cod_ibge":"150580","name":"Portel","uf":"PA"}},
{"type":"Feature","geometry":{"type":"Polygon","coordinates":[[[-47.63843,-1.37463],[-47.49614,-1.23684],[-47.40286,-0.97719],[-47.41285,-0.97673],[-47.61035,-1.0313],[-47.70649,-1.05722],[-47.63843,-1.37463]]]},"properties":{"cod_ibge":"150320","name":"Igarapé-Açu","uf":"PA"}},
{"type":"Feature","geometry":{"type":"Polygon","coordinates":[[[-50.30019,-1.80572],[-50.57384,-1.72023],[-50.73137,-1.55925],[-50.79752,-1.43238],[-50.89698,-1.39691],[-50.81513,-1.20319],[-50.93696,-1.11906],[-51.13351,-1.17091],[-51.21679,-1.10815],[-51.20918,-1.22684],[-51.45808,-1.64293],[-51.76123,-1.72296],[-51.96349,-1.82573],[-51.8745,-1.94442],[-51.75552,-1.93805],[-51.30103,-1.74752],[-51.2187,-1.79936],[-50.87557,-1.86848],[-50.79847,-1.91304],[-50.67568,-1.79572],[-50.52672,-1.9235],[-50.45439,-1.93214],[-50.30019,-1.80572]]]},"properties":{"cod_ibge":"150450","name":"Melgaço","uf":"PA"}},
{"type":"Feature","geometry":{"type":"Polygon","coordinates":[[[-47.41856,-1.49559],[-47.65319,-1.43102],[-47.75979,-1.45239],[-47.94397,-1.57881],[-47.85783,-1.62928],[-47.77407,-1.67203],[-47.62035,-1.63201],[-47.32814,-1.60609],[-47.32433,-1.56426],[-47.41856,-1.49559]]]},"properties":{"cod_ibge":"150760","name":"São Miguel do Guamá","uf":"PA"}},
{"type":"Feature","geometry":{"type":"Polygon","coordinates":[[[-48.96194,-0.65159],[-48.75682,-0.75118],[-48.69067,-0.87851],[-48.52933,-0.97309],[-48.43939,-0.979],[-48.40941,-0.90579],[-48.50601,-0.75073],[-48.57264,-0.6807],[-48.96194,-0.65159]]]},"properties":{"cod_ibge":"150630","name":"Salvaterra","uf":"PA"}},
{"type":"Feature","geometry":{"type":"Polygon","coordinates":[[[-48.33564,-1.25048],[-48.20762,-1.25731],[-48.13766,-1.20001],[-48.30185,-1.10633],[-48.35325,-1.22093],[-48.33564,-1.25048]]]},"properties":{"cod_ibge":"150635","name":"Santa Bárbara do Pará","uf":"PA"}},
{"type":"Feature","geometry":{"type":"Polygon","coordinates":[[[-48.33992,-1.32915],[-48.29281,-1.47058],[-48.26045,-1.46694],[-48.20762,-1.25731],[-48.33564,-1.25048],[-48.33992,-1.32915]]]},"properties":{"cod_ibge":"150150","name":"Benevides","uf":"PA"}},
{"type":"Feature","geometry":{"type":"Polygon","coordinates":[[[-49.60774,-1.76025],[-49.71054,-1.60154],[-49.72387,-1.37054],[-49.97515,-1.30051],[-50.16265,-1.32415],[-50.28544,-1.40146],[-50.33303,-1.6261],[-50.25355,-1.80618],[-50.13172,-1.81482],[-49.9918,-1.78299],[-49.71816,-1.83574],[-49.60774,-1.76025]]]},"properties":{"cod_ibge":"150280","name":"Curralinho","uf":"PA"}},
{"type":"Feature","geometry":{"type":"Polygon","coordinates":[[[-48.99239,-5.28312],[-48.75492,-5.34906],[-48.45176,-5.11214],[-48.52695,-4.92297],[-48.61309,-4.81383],[-48.77157,-4.7338],[-48.86104,-4.74926],[-48.93148,-4.94616],[-49.02618,-5.04484],[-48.99239,-5.28312]]]},"properties":{"cod_ibge":"150157","name":"Bom Jesus do Tocantins","uf":"PA"}},
{"type":"Feature","geometry":{"type":"Polygon","coordinates":[[[-55.86738,-9.43445],[-54.99551,-9.50538],[-54.61336,-9.53585],[-54.77231,-9.3003],[-54.67475,-9.18616],[-54.75089,-9.10931],[-54.90366,-9.05428],[-55.11163,-9.03791],[-55.24203,-8.82691],[-55.17683,-8.7014],[-55.20824,-8.47494],[-55.213,-8.14253],[-55.12734,-8.06158],[-55.00693,-7.81739],[-55.07975,-7.65414],[-55.06452,-7.5259],[-55.21015,-7.39812],[-55.19968,-7.24533],[-55.2525,-7.15938],[-55.25155,-6.9793],[-55.19396,-6.89108],[-55.20396,-6.77376],[-55.19016,-6.69509],[-55.41479,-6.47136],[-55.71604,-6.31538],[-55.8907,-6.53639],[-56.04679,-6.59004],[-56.14816,-6.73011],[-56.14007,-6.87107],[-56.22764,-7.02705],[-56.20575,-7.27216],[-56.22954,-7.42131],[-56.1691,-7.48998],[-56.15673,-7.75327],[-56.06488,-7.93699],[-56.08725,-8.09342],[-56.15911,-8.24212],[-56.15958,-8.40537],[-56.15673,-9.41034],[-55.86738,-9.43445]]]},"properties":{"cod_ibge":"150503","name":"Novo Progresso","uf":"PA"}},
{"type":"Feature","geometry":{"type":"Polygon","coordinates":[[[-55.41336,-1.39918],[-55.17398,-1.6793],[-55.18492,-2.04673],[-55.09498,-2.16679],[-54.966,-1.96397],[-54.93079,-1.83892],[-55.07451,-1.75797],[-55.08117,-1.63429],[-55.2663,-1.4633],[-55.41336,-1.39918]]]},"properties":{"cod_ibge":"150285","name":"Curuá","uf":"PA"}},
{"type":"Feature","geometry":{"type":"Polygon","coordinates":[[[-48.07817,-1.82982],[-48.22761,-1.69431],[-48.29281,-1.47058],[-48.33183,-1.46694],[-48.50649,-1.52651],[-48.44129,-1.65566],[-48.46509,-1.87575],[-48.6307,-2.15633],[-48.85914,-2.39188],[-48.82821,-2.60152],[-48.75492,-2.43054],[-48.62832,-2.45145],[-48.49554,-2.55877],[-48.44129,-2.29502],[-48.32993,-2.1777],[-48.25711,-2.20999],[-48.0539,-2.08448],[-48.07817,-1.82982]]]},"properties":{"cod_ibge":"150020","name":"Acará","uf":"PA"}},
{"type":"Feature","geometry":{"type":"Polygon","coordinates":[[[-47.40286,-0.97719],[-47.49614,-1.23684],[-47.4276,-1.37008],[-47.34289,-1.28686],[-47.34527,-1.10724],[-47.29435,-0.969],[-47.40286,-0.97719]]]},"properties":{"cod_ibge":"150500","name":"Nova Timboteua","uf":"PA"}},
{"type":"Feature","geometry":{"type":"Polygon","coordinates":[[[-49.49686,-4.50051],[-49.50638,-4.38274],[-49.60679,-4.07306],[-50.1084,-4.07806],[-50.88128,-3.85342],[-50.6733,-4.20857],[-50.81846,-4.29497],[-50.99359,-4.27132],[-50.90031,-4.41229],[-50.91221,-4.86476],[-50.85986,-5.00027],[-50.9303,-5.15079],[-50.72042,-5.17444],[-50.51578,-5.17853],[-50.47913,-4.9648],[-50.39252,-4.96162],[-50.31542,-4.82747],[-49.77193,-4.81292],[-49.50066,-4.78382],[-49.42547,-4.69651],[-49.40643,-4.60692],[-49.49686,-4.50051]]]},"properties":{"cod_ibge":"150506","name":"Novo Repartimento","uf":"PA"}},
{"type":"Feature","geometry":{"type":"Polygon","coordinates":[[[-51.8745,-1.94442],[-51.96349,-1.82573],[-51.95207,-1.64656],[-52.02536,-1.59654],[-52.20002,-1.60427],[-52.25189,-1.50423],[-52.41561,-1.56335],[-52.68259,-1.58426],[-52.93911,-1.65611],[-52.99955,-1.74342],[-53.06046,-1.88166],[-53.27653,-2.08766],[-53.2256,-2.36551],[-53.38408,-2.50511],[-53.00145,-2.67155],[-52.82965,-2.76204],[-52.55695,-2.72521],[-52.50127,-2.77386],[-52.33137,-2.78296],[-52.27664,-2.83025],[-52.04392,-2.79251],[-52.05487,-2.6861],[-51.91971,-2.49329],[-51.85451,-2.55241],[-51.86641,-2.36414],[-51.92066,-2.3314],[-51.9397,-2.10767],[-51.8745,-1.94442]]]},"properties":{"cod_ibge":"150590","name":"Porto de Moz","uf":"PA"}},
{"type":"Feature","geometry":{"type":"Polygon","coordinates":[[[-48.43939,-0.979],[-48.52933,-0.97309],[-48.69067,-0.87851],[-48.75682,-0.75118],[-48.96194,-0.65159],[-49.00667,-0.44514],[-49.20798,-0.51017],[-49.14754,-0.6093],[-49.1918,-0.74027],[-49.19037,-0.81985],[-48.96194,-0.98037],[-48.86533,-1.20046],[-48.60738,-1.17227],[-48.46937,-1.01948],[-48.43939,-0.98264],[-48.43939,-0.979]]]},"properties":{"cod_ibge":"150200","name":"Cachoeira do Arari","uf":"PA"}},
{"type":"Feature","geometry":{"type":"Polygon","coordinates":[[[-49.73338,-2.66609],[-49.38645,-2.66382],[-49.31125,-2.66836],[-49.23178,-2.41326],[-49.29745,-2.45054],[-49.39882,-2.53967],[-49.58014,-2.49147],[-49.67628,-2.58969],[-49.74481,-2.53558],[-49.73338,-2.66609]]]},"properties":{"cod_ibge":"150460","name":"Mocajuba","uf":"PA"}},
{"type":"Feature","geometry":{"type":"Polygon","coordinates":[[[-48.90578,-1.9567],[-49.01762,-1.82755],[-49.11327,-1.80208],[-49.15468,-1.70159],[-49.17181,-1.71614],[-49.26414,-1.94487],[-49.31792,-1.99444],[-49.18942,-2.10358],[-49.35742,-2.3596],[-49.29745,-2.45054],[-49.23178,-2.41326],[-49.09091,-2.24091],[-48.96003,-2.15678],[-48.90578,-1.9567]]]},"properties":{"cod_ibge":"150330","name":"Igarapé-Miri","uf":"PA"}},
{"type":"Feature","geometry":{"type":"Polygon","coordinates":[[[-49.97515,-1.30051],[-49.72387,-1.37054],[-49.71054,-1.60154],[-49.60774,-1.76025],[-49.41595,-1.71887],[-49.49638,-1.61791],[-49.54445,-1.37963],[-49.52684,-1.18819],[-49.60013,-1.26731],[-49.81905,-1.23411],[-49.93184,-1.09542],[-49.98419,-1.15135],[-49.97515,-1.30051]]]},"properties":{"cod_ibge":"150770","name":"São Sebastião da Boa Vista","uf":"PA"}},
{"type":"Feature","geometry":{"type":"Polygon","coordinates":[[[-49.1918,-0.74027],[-49.14754,-0.6093],[-49.20798,-0.51017],[-49.33552,-0.33737],[-49.39359,-0.37738],[-49.48924,-0.66705],[-49.48639,-0.66887],[-49.29888,-0.7721],[-49.1918,-0.74027]]]},"properties":{"cod_ibge":"150640","name":"Santa Cruz do Arari","uf":"PA"}},
{"type":"Feature","geometry":{"type":"Polygon","coordinates":[[[-49.73291,-6.71737],[-49.73434,-7.01614],[-49.4169,-6.99067],[-49.44498,-6.92701],[-49.3379,-6.73011],[-49.54302,-6.72738],[-49.63773,-6.63688],[-49.72958,-6.71464],[-49.73291,-6.71737]]]},"properties":{"cod_ibge":"150775","name":"Sapucaia","uf":"PA"}},
{"type":"Feature","geometry":{"type":"Polygon","coordinates":[[[-49.93184,-1.09542],[-49.81905,-1.23411],[-49.60013,-1.26731],[-49.52684,-1.18819],[-49.48353,-1.02539],[-49.52446,-0.97082],[-49.54397,-0.87578],[-49.48639,-0.66887],[-49.48924,-0.66705],[-49.67865,-0.55792],[-49.82048,-0.60021],[-50.00656,-0.47925],[-50.10745,-0.47106],[-50.23356,-0.31281],[-50.32256,-0.49471],[-50.32732,-0.63295],[-50.47675,-0.7239],[-50.50959,-0.8153],[-50.40632,-0.97127],[-50.24689,-0.97309],[-50.19359,-1.07405],[-49.93184,-1.09542]]]},"properties":{"cod_ibge":"150070","name":"Anajás","uf":"PA"}},
{"type":"Feature","geometry":{"type":"Polygon","coordinates":[[[-55.72032,2.40108],[-55.83359,2.40927],[-55.94685,2.3315],[-55.95256,2.19508],[-55.87118,2.07412],[-55.81122,1.80492],[-55.8393,1.76217],[-55.73174,1.46522],[-55.62086,1.40065],[-55.58849,1.29697],[-55.79504,0.8204],[-55.94828,0.71854],[-55.97684,0.55802],[-55.91925,0.5271],[-55.89498,0.36839],[-56.10152,0.39931],[-56.17481,0.20514],[-56.02823,-0.0868],[-56.04251,-0.40285],[-56.19956,-0.54518],[-56.26666,-0.75209],[-56.14578,-0.85395],[-56.04156,-1.07223],[-56.06964,-1.20683],[-56.0092,-1.28914],[-55.8155,-1.27777],[-55.69938,-1.35598],[-55.67178,-1.78526],[-55.90259,-1.99853],[-55.76981,-2.00263],[-55.64275,-2.07902],[-55.62181,-2.15815],[-55.37053,-2.13768],[-55.28391,-2.2159],[-55.12781,-2.26319],[-55.09498,-2.16679],[-55.18492,-2.04673],[-55.17398,-1.6793],[-55.41336,-1.39918],[-55.41336,-0.37375],[-55.41336,0.78948],[-55.41383,1.54571],[-55.4619,1.82811],[-55.58564,1.8995],[-55.51235,2.05684],[-55.61514,2.13551],[-55.70699,2.40153],[-55.72032,2.40108]]]},"properties":{"cod_ibge":"150510","name":"Óbidos","uf":"PA"}},
{"type":"Feature","geometry":{"type":"Polygon","coordinates":[[[-50.10745,-0.47106],[-50.00656,-0.47925],[-49.82048,-0.60021],[-49.67865,-0.55792],[-49.48924,-0.66705],[-49.39359,-0.37738],[-49.33552,-0.33737],[-49.20798,-0.51017],[-49.00667,-0.44514],[-48.91768,-0.22959],[-49.01667,-0.16002],[-49.42214,-0.16866],[-49.35884,-0.02587],[-49.39692,0.06235],[-49.58252,0.08963],[-49.69959,0.15057],[-49.53398,0.28927],[-49.58205,0.41887],[-49.80763,0.33201],[-50.16789,0.3402],[-50.17265,0.39749],[-50.03654,0.53437],[-50.22595,0.69626],[-50.40965,0.6235],[-50.59954,0.24925],[-50.43297,0.14966],[-50.29876,-0.10181],[-50.19597,-0.21368],[-50.10745,-0.47106]]]},"properties":{"cod_ibge":"150250","name":"Chaves","uf":"PA"}},
{"type":"Feature","geometry":{"type":"Polygon","coordinates":[[[-53.13328,-9.64499],[-52.6193,-9.68228],[-52.25665,-9.70774],[-51.30436,-9.77277],[-51.28532,-9.6991],[-51.32292,-9.59224],[-51.43571,-9.47037],[-51.51328,-9.1998],[-51.59466,-9.08884],[-51.85832,-8.90604],[-51.91638,-8.81145],[-51.77932,-8.72505],[-51.80597,-8.54452],[-51.7817,-8.3799],[-51.93779,-8.44084],[-52.07771,-8.31351],[-52.16385,-8.03339],[-52.14577,-7.81375],[-52.03821,-7.72917],[-51.88259,-7.70188],[-51.86688,-7.53045],[-51.66129,-7.19076],[-51.68366,-7.0225],[-51.69413,-6.85198],[-51.50615,-6.64643],[-51.3115,-6.57413],[-51.12542,-6.6237],[-51.18348,-6.46727],[-51.19918,-6.28673],[-51.14874,-6.2167],[-51.24582,-6.17259],[-51.26391,-5.99479],[-51.12589,-5.91885],[-51.08639,-5.78106],[-50.946,-5.8038],[-50.85843,-5.71012],[-50.95266,-5.61417],[-50.94743,-5.52595],[-50.78705,-5.39953],[-50.72042,-5.17444],[-50.9303,-5.15079],[-51.44761,-5.15034],[-52.05106,-5.15125],[-52.14815,-5.31632],[-52.2952,-5.19445],[-52.44987,-5.1849],[-52.61216,-5.2431],[-52.69163,-5.5164],[-52.69021,-5.65373],[-52.93958,-5.74423],[-52.97575,-5.84518],[-53.36885,-6.058],[-53.19134,-6.40042],[-53.29652,-6.45817],[-53.44976,-6.686],[-53.24702,-6.78695],[-53.31746,-7.02751],[-53.25368,-7.11436],[-53.31555,-7.20303],[-53.11995,-7.39539],[-53.13851,-7.54636],[-52.99193,-7.82785],[-53.06618,-7.91197],[-52.92531,-8.16254],[-52.99051,-8.3076],[-52.88819,-8.58317],[-53.03524,-8.75188],[-52.99241,-8.85056],[-53.05523,-8.95424],[-52.92245,-9.38033],[-53.11234,-9.55222],[-53.13328,-9.64499]]]},"properties":{"cod_ibge":"150730","name":"São Félix do Xingu","uf":"PA"}},
{"type":"Feature","geometry":{"type":"Polygon","coordinates":[[[-54.26594,-2.41553],[-54.25452,-2.57833],[-54.11175,-2.75477],[-54.10318,-2.88664],[-53.85523,-2.88755],[-53.60824,-2.86527],[-53.59443,-2.81297],[-53.35791,-2.73749],[-53.25273,-2.77432],[-53.1466,-2.66518],[-53.00145,-2.67155],[-53.38408,-2.50511],[-53.2256,-2.36551],[-53.27653,-2.08766],[-53.06046,-1.88166],[-52.99955,-1.74342],[-53.11805,-1.78117],[-53.35362,-1.74888],[-53.49545,-1.34189],[-53.63298,-1.18819],[-53.7058,-0.98082],[-53.81716,-0.95127],[-53.95946,-0.99447],[-53.90235,-1.04813],[-53.87617,-1.30551],[-53.8243,-1.4292],[-53.88521,-1.50741],[-53.79098,-1.72432],[-53.83429,-1.88485],[-54.03608,-2.11267],[-54.11889,-2.33777],[-54.26594,-2.41553]]]},"properties":{"cod_ibge":"150600","name":"Prainha","uf":"PA"}},
{"type":"Feature","geometry":{"type":"Polygon","coordinates":[[[-49.63773,-6.63688],[-49.54302,-6.72738],[-49.3379,-6.73011],[-49.44498,-6.92701],[-49.4169,-6.99067],[-49.73434,-7.01614],[-49.73291,-6.71737],[-50.37634,-7.2526],[-49.1937,-7.04069],[-49.2175,-6.96157],[-49.08329,-6.84334],[-49.1247,-6.82196],[-49.41119,-6.44544],[-49.63773,-6.63688]]]},"properties":{"cod_ibge":"150840","name":"Xinguara","uf":"PA"}},
{"type":"Feature","geometry":{"type":"Polygon","coordinates":[[[-49.38645,-2.66382],[-49.73338,-2.66609],[-49.81381,-2.96304],[-49.89662,-2.98896],[-49.97086,-3.16267],[-49.90852,-3.32546],[-49.83428,-3.40413],[-49.80572,-3.53328],[-49.96563,-3.66106],[-49.87235,-3.66516],[-49.67437,-3.58558],[-49.59775,-3.51327],[-49.59632,-3.41505],[-49.47259,-3.41505],[-49.62345,-3.00078],[-49.45355,-2.89164],[-49.47068,-2.76068],[-49.38645,-2.66382]]]},"properties":{"cod_ibge":"150120","name":"Baião","uf":"PA"}},
{"type":"Feature","geometry":{"type":"Polygon","coordinates":[[[-50.50912,-7.19303],[-50.66093,-7.31217],[-50.81988,-7.31627],[-50.97218,-7.37356],[-50.96218,-7.58274],[-50.83226,-7.6123],[-50.73517,-7.74418],[-50.63666,-7.70098],[-50.5115,-7.766],[-50.4501,-7.71507],[-50.34588,-7.65868],[-50.34778,-7.48452],[-50.39109,-7.43086],[-50.37634,-7.2526],[-50.50912,-7.19303]]]},"properties":{"cod_ibge":"150125","name":"Bannach","uf":"PA"}},
{"type":"Feature","geometry":{"type":"Polygon","coordinates":[[[-49.41786,-4.68696],[-49.25843,-4.73652],[-49.22559,-4.82656],[-49.00048,-4.83293],[-49.01714,-4.36818],[-49.10947,-4.32362],[-49.32267,-4.50051],[-49.49686,-4.50051],[-49.40643,-4.60692],[-49.42547,-4.69651],[-49.41786,-4.68696]]]},"properties":{"cod_ibge":"150380","name":"Jacundá","uf":"PA"}},
{"type":"Feature","geometry":{"type":"Polygon","coordinates":[[[-47.29435,-0.969],[-47.22487,-0.96354],[-47.24295,-0.91898],[-47.38097,-0.83667],[-47.41285,-0.97673],[-47.40286,-0.97719],[-47.29435,-0.969]]]},"properties":{"cod_ibge":"150690","name":"Santarém Novo","uf":"PA"}},
{"type":"Feature","geometry":{"type":"Polygon","coordinates":[[[-58.89511,-0.01086],[-58.8637,-0.07816],[-58.86941,-0.34737],[-58.72521,-0.43832],[-58.70665,-0.67979],[-58.43395,-0.89215],[-58.42824,-1.02448],[-58.31688,-1.14771],[-58.16316,-1.23002],[-58.05846,-1.10633],[-57.96899,-1.16272],[-57.9985,-1.33143],[-57.95995,-1.39691],[-57.71771,-1.50332],[-57.68868,-1.58699],[-57.544,-1.61109],[-57.35316,-1.7366],[-57.29225,-1.70841],[-57.09141,-1.77798],[-57.02859,-1.91804],[-56.85917,-2.01581],[-56.72639,-2.03082],[-56.76113,-2.17406],[-56.58552,-2.17634],[-56.64454,-2.04082],[-56.59837,-1.87666],[-56.74924,-1.65202],[-56.91818,-1.64747],[-56.96339,-1.58108],[-57.14662,-1.4965],[-57.32889,-1.33961],[-57.42836,-1.3478],[-57.55352,-1.12634],[-57.65203,-1.09542],[-57.99992,-0.79211],[-58.0913,-0.81257],[-58.22313,-0.7389],[-58.31736,-0.61567],[-58.34639,-0.48197],[-58.522,-0.43332],[-58.44109,-0.29462],[-58.58862,-0.27188],[-58.71522,-0.06589],[-58.89511,-0.01086]]]},"properties":{"cod_ibge":"150300","name":"Faro","uf":"PA"}},
{"type":"Feature","geometry":{"type":"Polygon","coordinates":[[[-49.36075,-7.61503],[-49.37788,-7.49634],[-49.26414,-7.36401],[-49.18656,-7.19667],[-49.1937,-7.12982],[-49.5197,-7.31035],[-49.82809,-7.37174],[-49.82809,-7.70007],[-49.85664,-7.97291],[-49.82666,-7.96791],[-49.51875,-7.84422],[-49.36075,-7.61503]]]},"properties":{"cod_ibge":"150304","name":"Floresta do Araguaia","uf":"PA"}},
{"type":"Feature","geometry":{"type":"Polygon","coordinates":[[[-47.01499,-1.85756],[-47.163,-1.93123],[-47.16728,-2.09221],[-47.23867,-2.2691],[-47.16395,-2.49556],[-47.21392,-2.59333],[-47.10446,-2.55241],[-47.08067,-2.32549],[-46.88792,-2.20953],[-46.90458,-2.15633],[-46.89982,-2.01081],[-47.01499,-1.85756]]]},"properties":{"cod_ibge":"150307","name":"Garrafão do Norte","uf":"PA"}},
{"type":"Feature","geometry":{"type":"Polygon","coordinates":[[[-49.60679,-4.07306],[-49.50638,-4.38274],[-49.49686,-4.50051],[-49.32267,-4.50051],[-49.10947,-4.32362],[-49.01714,-4.36818],[-48.773,-4.25086],[-48.74587,-4.14582],[-48.43939,-4.07715],[-48.38799,-4.01758],[-48.38894,-3.8375],[-48.57597,-3.81113],[-48.81631,-3.71245],[-48.88389,-3.56784],[-49.02904,-3.54692],[-49.17181,-3.53646],[-49.257,-3.63514],[-49.26937,-3.78157],[-49.18752,-3.79703],[-49.0733,-3.99621],[-49.23939,-4.0776],[-49.60679,-4.07306]]]},"properties":{"cod_ibge":"150309","name":"Goianésia do Pará","uf":"PA"}},
{"type":"Feature","geometry":{"type":"Polygon","coordinates":[[[-48.43748,-1.34416],[-48.34563,-1.45148],[-48.33992,-1.32915],[-48.33564,-1.25048],[-48.35325,-1.22093],[-48.43796,-1.34416],[-48.43748,-1.34416]]]},"properties":{"cod_ibge":"150080","name":"Ananindeua","uf":"PA"}},
{"type":"Feature","geometry":{"type":"Polygon","coordinates":[[[-47.29435,-0.969],[-47.34527,-1.10724],[-47.34289,-1.28686],[-47.20536,-1.22502],[-47.21154,-1.00083],[-47.22487,-0.96354],[-47.29435,-0.969]]]},"properties":{"cod_ibge":"150560","name":"Peixe-Boi","uf":"PA"}},
{"type":"Feature","geometry":{"type":"Polygon","coordinates":[[[-54.09985,-4.23176],[-54.10984,-3.82568],[-54.25452,-3.69289],[-54.28593,-3.40232],[-54.5434,-3.36002],[-54.8337,-3.55602],[-54.89509,-3.56329],[-54.94411,-3.80931],[-54.82228,-3.77429],[-54.74661,-3.88661],[-54.79563,-4.22631],[-54.87558,-4.34044],[-54.84179,-4.41002],[-54.73566,-4.42457],[-54.67475,-4.31589],[-54.58195,-4.39319],[-54.45107,-4.24313],[-54.30164,-4.31225],[-54.20027,-4.20266],[-54.09985,-4.23176]]]},"properties":{"cod_ibge":"150565","name":"Placas","uf":"PA"}},
{"type":"Feature","geometry":{"type":"Polygon","coordinates":[[[-47.42618,-0.65705],[-47.60797,-0.69798],[-47.54991,-0.82758],[-47.58561,-0.94854],[-47.61035,-1.0313],[-47.41285,-0.97673],[-47.38097,-0.83667],[-47.37716,-0.82257],[-47.42618,-0.65705]]]},"properties":{"cod_ibge":"150430","name":"Maracanã","uf":"PA"}},
{"type":"Feature","geometry":{"type":"Polygon","coordinates":[[[-47.81119,-1.06586],[-47.84545,-1.28686],[-47.63843,-1.37463],[-47.70649,-1.05722],[-47.77787,-1.06086],[-47.81119,-1.06586]]]},"properties":{"cod_ibge":"150740","name":"São Francisco do Pará","uf":"PA"}},
{"type":"Feature","geometry":{"type":"Polygon","coordinates":[[[-47.21154,-1.00083],[-47.01356,-1.01402],[-47.084,-0.83212],[-47.24295,-0.91898],[-47.22487,-0.96354],[-47.21154,-1.00083]]]},"properties":{"cod_ibge":"150610","name":"Primavera","uf":"PA"}},
{"type":"Feature","geometry":{"type":"Polygon","coordinates":[[[-47.084,-0.83212],[-47.01356,-1.01402],[-47.00214,-1.01175],[-46.94265,-0.85941],[-47.06353,-0.79483],[-47.084,-0.83212]]]},"properties":{"cod_ibge":"150611","name":"Quatipuru","uf":"PA"}},
{"type":"Feature","geometry":{"type":"Polygon","coordinates":[[[-51.80216,-3.50463],[-51.58515,-3.58603],[-51.54803,-3.69835],[-51.59514,-3.77975],[-51.40716,-3.91344],[-51.41763,-4.08079],[-51.32244,-4.41138],[-51.38431,-4.54917],[-51.31197,-4.71606],[-51.46617,-4.97344],[-51.44761,-5.15034],[-50.9303,-5.15079],[-50.85986,-5.00027],[-50.91221,-4.86476],[-50.90031,-4.41229],[-50.99359,-4.27132],[-51.1159,-4.0817],[-51.2068,-4.07169],[-51.25677,-3.87206],[-51.1673,-3.4487],[-51.26629,-3.30909],[-51.23964,-3.20178],[-51.14683,-3.11583],[-51.16111,-3.01851],[-51.39811,-2.88891],[-51.44951,-2.76977],[-51.5328,-2.74431],[-51.74838,-2.84571],[-51.67842,-3.01078],[-51.75124,-3.10764],[-51.60894,-3.15221],[-51.70222,-3.24907],[-51.80216,-3.50463]]]},"properties":{"cod_ibge":"150085","name":"Anapu","uf":"PA"}},
{"type":"Feature","geometry":{"type":"Polygon","coordinates":[[[-48.83725,-1.52151],[-48.70209,-1.68067],[-48.53029,-1.69931],[-48.44129,-1.65566],[-48.50649,-1.52651],[-48.51506,-1.39418],[-48.62452,-1.19228],[-48.77586,-1.47422],[-48.83725,-1.52151]]]},"properties":{"cod_ibge":"150130","name":"Barcarena","uf":"PA"}},
{"type":"Feature","geometry":{"type":"Polygon","coordinates":[[[-50.34778,-7.48452],[-50.08984,-7.6837],[-49.97324,-7.64231],[-49.82809,-7.70007],[-49.82809,-7.37174],[-49.5197,-7.31035],[-49.1937,-7.12982],[-49.1937,-7.04069],[-50.37634,-7.2526],[-50.39109,-7.43086],[-50.34778,-7.48452]]]},"properties":{"cod_ibge":"150616","name":"Rio Maria","uf":"PA"}},
{"type":"Feature","geometry":{"type":"Polygon","coordinates":[[[-48.17145,-0.81666],[-48.29376,-0.91989],[-48.40941,-0.90579],[-48.43939,-0.979],[-48.43939,-0.98264],[-48.21381,-1.00674],[-48.17145,-0.81666]]]},"properties":{"cod_ibge":"150260","name":"Colares","uf":"PA"}},
{"type":"Feature","geometry":{"type":"Polygon","coordinates":[[[-50.59954,-8.19119],[-50.3454,-8.18618],[-50.16313,-8.34625],[-49.99609,-8.39627],[-49.82666,-8.3317],[-49.90519,-8.05567],[-49.82666,-7.96791],[-49.85664,-7.97291],[-50.11459,-7.81284],[-50.23642,-7.8806],[-50.4501,-7.71507],[-50.5115,-7.766],[-50.57241,-7.86832],[-50.51721,-7.95427],[-50.52577,-8.09796],[-50.59954,-8.19119]]]},"properties":{"cod_ibge":"150613","name":"Redenção","uf":"PA"}},
{"type":"Feature","geometry":{"type":"Polygon","coordinates":[[[-54.84179,-4.41002],[-54.87558,-4.34044],[-54.79563,-4.22631],[-54.74661,-3.88661],[-54.82228,-3.77429],[-54.94411,-3.80931],[-55.01788,-3.92117],[-55.14637,-3.86615],[-55.28201,-3.92163],[-55.31723,-4.0776],[-55.53186,-4.154],[-55.65417,-4.09079],[-55.87451,-4.21585],[-55.80027,-4.28951],[-55.65702,-4.30634],[-55.65084,-4.51825],[-55.49759,-4.62056],[-55.31009,-4.66513],[-54.98076,-4.59146],[-54.92984,-4.4564],[-54.84179,-4.41002]]]},"properties":{"cod_ibge":"150619","name":"Rurópolis","uf":"PA"}},
{"type":"Feature","geometry":{"type":"Polygon","coordinates":[[[-48.68067,-6.43452],[-48.62594,-6.47863],[-48.5003,-6.35085],[-48.37562,-6.34494],[-48.43606,-6.20124],[-48.39132,-6.14667],[-48.53076,-6.03435],[-48.66069,-5.98388],[-48.62309,-5.88747],[-48.73112,-5.86019],[-48.85248,-5.96523],[-49.19894,-6.26445],[-48.96003,-6.31265],[-48.68353,-6.43225],[-48.68067,-6.43452]]]},"properties":{"cod_ibge":"150745","name":"São Geraldo do Araguaia","uf":"PA"}},
{"type":"Feature","geometry":{"type":"Polygon","coordinates":[[[-47.06353,-0.79483],[-47.2182,-0.63249],[-47.26199,-0.64795],[-47.34956,-0.70934],[-47.37716,-0.82257],[-47.38097,-0.83667],[-47.24295,-0.91898],[-47.084,-0.83212],[-47.06353,-0.79483]]]},"properties":{"cod_ibge":"150747","name":"São João de Pirabas","uf":"PA"}},
{"type":"Feature","geometry":{"type":"Polygon","coordinates":[[[-47.95206,-0.77665],[-47.9887,-0.9449],[-47.91922,-0.97309],[-47.90113,-0.93171],[-47.95206,-0.77665]]]},"properties":{"cod_ibge":"150746","name":"São João da Ponta","uf":"PA"}},
{"type":"Feature","geometry":{"type":"Polygon","coordinates":[[[-47.81595,-4.61465],[-48.16098,-4.20084],[-48.26949,-4.21539],[-48.38799,-4.01758],[-48.43939,-4.07715],[-48.74587,-4.14582],[-48.773,-4.25086],[-49.01714,-4.36818],[-49.00048,-4.83293],[-48.93148,-4.94616],[-48.86104,-4.74926],[-48.77157,-4.7338],[-48.61309,-4.81383],[-48.50649,-4.82383],[-48.27044,-4.92342],[-48.19477,-4.91114],[-48.05818,-4.80428],[-48.02535,-4.77836],[-47.81595,-4.61465]]]},"properties":{"cod_ibge":"150618","name":"Rondon do Pará","uf":"PA"}},
{"type":"Feature","geometry":{"type":"Polygon","coordinates":[[[-56.08915,-1.97852],[-56.09534,-1.9999],[-56.20384,-2.18316],[-56.38945,-2.27865],[-56.4023,-2.45646],[-56.7678,-3.2427],[-56.7026,-3.3573],[-56.34471,-3.26498],[-55.7741,-2.29775],[-55.62181,-2.15815],[-55.64275,-2.07902],[-55.76981,-2.00263],[-55.90259,-1.99853],[-56.08915,-1.97852]]]},"properties":{"cod_ibge":"150390","name":"Juruti","uf":"PA"}},
{"type":"Feature","geometry":{"type":"Polygon","coordinates":[[[-51.77837,-1.14044],[-51.9911,-1.43511],[-52.25189,-1.50423],[-52.20002,-1.60427],[-52.02536,-1.59654],[-51.95207,-1.64656],[-51.96349,-1.82573],[-51.76123,-1.72296],[-51.45808,-1.64293],[-51.20918,-1.22684],[-51.21679,-1.10815],[-51.1692,-0.89624],[-51.19252,-0.77619],[-51.09448,-0.6616],[-51.15492,-0.40239],[-51.43238,-0.47333],[-51.59562,-0.65023],[-51.68366,-0.79574],[-51.70032,-1.06313],[-51.77837,-1.14044]]]},"properties":{"cod_ibge":"150310","name":"Gurupá","uf":"PA"}},
{"type":"Feature","geometry":{"type":"Polygon","coordinates":[[[-49.52446,-0.97082],[-49.43642,-0.91352],[-49.21988,-1.00038],[-49.21274,-1.10724],[-49.089,-1.2805],[-49.10233,-1.40373],[-48.94766,-1.55107],[-48.83725,-1.52151],[-48.77586,-1.47422],[-48.62452,-1.19228],[-48.60738,-1.17227],[-48.86533,-1.20046],[-48.96194,-0.98037],[-49.19037,-0.81985],[-49.1918,-0.74027],[-49.29888,-0.7721],[-49.48639,-0.66887],[-49.54397,-0.87578],[-49.52446,-0.97082]]]},"properties":{"cod_ibge":"150570","name":"Ponta de Pedras","uf":"PA"}},
{"type":"Feature","geometry":{"type":"Polygon","coordinates":[[[-47.77787,-1.06086],[-47.70649,-1.05722],[-47.61035,-1.0313],[-47.58561,-0.94854],[-47.71172,-0.86168],[-47.71981,-0.74481],[-47.63129,-0.70616],[-47.63272,-0.60203],[-47.75598,-0.60612],[-47.81452,-0.92216],[-47.77787,-1.06086]]]},"properties":{"cod_ibge":"150440","name":"Marapanim","uf":"PA"}},
{"type":"Feature","geometry":{"type":"Polygon","coordinates":[[[-50.47675,-0.7239],[-50.68425,-0.62249],[-50.76563,-0.50698],[-50.9579,-0.57429],[-51.09448,-0.6616],[-51.19252,-0.77619],[-51.1692,-0.89624],[-51.21679,-1.10815],[-51.13351,-1.17091],[-50.93696,-1.11906],[-50.81513,-1.20319],[-50.89698,-1.39691],[-50.79752,-1.43238],[-50.73137,-1.55925],[-50.57384,-1.72023],[-50.30019,-1.80572],[-50.25355,-1.80618],[-50.33303,-1.6261],[-50.28544,-1.40146],[-50.16265,-1.32415],[-49.97515,-1.30051],[-49.98419,-1.15135],[-49.93184,-1.09542],[-50.19359,-1.07405],[-50.24689,-0.97309],[-50.40632,-0.97127],[-50.50959,-0.8153],[-50.47675,-0.7239]]]},"properties":{"cod_ibge":"150180","name":"Breves","uf":"PA"}},
{"type":"Feature","geometry":{"type":"Polygon","coordinates":[[[-53.1566,-3.66516],[-52.94482,-3.61786],[-52.8187,-3.62696],[-52.66927,-3.46507],[-52.6983,-3.35366],[-52.84297,-3.16721],[-52.88533,-3.06035],[-52.87343,-2.8107],[-53.00145,-2.67155],[-53.1466,-2.66518],[-53.25273,-2.77432],[-53.35791,-2.73749],[-53.59443,-2.81297],[-53.60824,-2.86527],[-53.85523,-2.88755],[-53.79432,-3.02033],[-53.66487,-3.04171],[-53.50877,-3.27817],[-53.49878,-3.516],[-53.26415,-3.49599],[-53.1566,-3.66516]]]},"properties":{"cod_ibge":"150445","name":"Medicilândia","uf":"PA"}},
{"type":"Feature","geometry":{"type":"Polygon","coordinates":[[[-48.33992,-1.32915],[-48.34563,-1.45148],[-48.33183,-1.46694],[-48.29281,-1.47058],[-48.33992,-1.32915]]]},"properties":{"cod_ibge":"150442","name":"Marituba","uf":"PA"}},
{"type":"Feature","geometry":{"type":"Polygon","coordinates":[[[-48.99239,-5.28312],[-49.01524,-5.46002],[-48.9448,-5.55278],[-48.85295,-5.48048],[-48.57978,-5.53732],[-48.46176,-5.60098],[-48.33183,-5.5014],[-48.32802,-5.49685],[-48.44129,-5.40818],[-48.59691,-5.42273],[-48.75492,-5.34906],[-48.99239,-5.28312]]]},"properties":{"cod_ibge":"150750","name":"São João do Araguaia","uf":"PA"}},
{"type":"Feature","geometry":{"type":"Polygon","coordinates":[[[-47.58703,-2.00035],[-47.51089,-2.12995],[-47.39905,-2.07857],[-47.43332,-1.91804],[-47.58941,-1.87757],[-47.58703,-2.00035]]]},"properties":{"cod_ibge":"150405","name":"Mãe do Rio","uf":"PA"}},
{"type":"Feature","geometry":{"type":"Polygon","coordinates":[[[-47.21392,-2.59333],[-47.16395,-2.49556],[-47.23867,-2.2691],[-47.16728,-2.09221],[-47.163,-1.93123],[-47.01499,-1.85756],[-46.92695,-1.67385],[-46.97977,-1.59654],[-47.0702,-1.53924],[-47.30672,-1.61155],[-47.3091,-1.70932],[-47.22201,-1.94624],[-47.39905,-2.07857],[-47.51089,-2.12995],[-47.42427,-2.24409],[-47.43903,-2.40734],[-47.33718,-2.57651],[-47.21392,-2.59333]]]},"properties":{"cod_ibge":"150230","name":"Capitão Poço","uf":"PA"}},
{"type":"Feature","geometry":{"type":"Polygon","coordinates":[[[-48.14147,-0.75436],[-48.06104,-0.79893],[-48.07199,-1.06495],[-47.94301,-1.03858],[-47.91922,-0.97309],[-47.9887,-0.9449],[-47.95206,-0.77665],[-47.9768,-0.68615],[-48.05152,-0.65932],[-48.14147,-0.75436]]]},"properties":{"cod_ibge":"150710","name":"São Caetano de Odivelas","uf":"PA"}},
{"type":"Feature","geometry":{"type":"Polygon","coordinates":[[[-48.9448,-5.55278],[-48.93338,-5.65373],[-48.73112,-5.86019],[-48.62309,-5.88747],[-48.58644,-5.70057],[-48.46176,-5.60098],[-48.57978,-5.53732],[-48.85295,-5.48048],[-48.9448,-5.55278]]]},"properties":{"cod_ibge":"150715","name":"São Domingos do Araguaia","uf":"PA"}},
{"type":"Feature","geometry":{"type":"Polygon","coordinates":[[[-48.21381,-1.00674],[-48.11149,-1.01538],[-48.02154,-1.13362],[-47.94301,-1.03858],[-48.07199,-1.06495],[-48.06104,-0.79893],[-48.14147,-0.75436],[-48.17145,-0.81666],[-48.21381,-1.00674]]]},"properties":{"cod_ibge":"150820","name":"Vigia","uf":"PA"}},
{"type":"Feature","geometry":{"type":"Polygon","coordinates":[[[-56.95626,-3.65879],[-56.88772,-3.70472],[-56.87773,-3.9189],[-56.72163,-4.08306],[-56.70878,-4.24631],[-56.59123,-4.30498],[-56.46845,-4.12854],[-56.23763,-4.15582],[-56.1553,-3.98347],[-56.0111,-3.85478],[-55.74316,-4.00348],[-55.65417,-4.09079],[-55.53186,-4.154],[-55.31723,-4.0776],[-55.28201,-3.92163],[-55.14637,-3.86615],[-55.17445,-3.69653],[-55.09212,-3.51009],[-55.11877,-3.42778],[-55.03739,-3.25453],[-55.23394,-3.24179],[-55.37529,-3.23634],[-56.34471,-3.26498],[-56.7026,-3.3573],[-56.7678,-3.2427],[-56.81015,-3.3332],[-56.9139,-3.56238],[-56.95626,-3.65879]]]},"properties":{"cod_ibge":"150100","name":"Aveiro","uf":"PA"}},
{"type":"Feature","geometry":{"type":"Polygon","coordinates":[[[-55.20396,-6.77376],[-55.16731,-6.68554],[-55.25536,-6.4418],[-55.24251,-6.3554],[-55.33531,-6.24899],[-55.33912,-6.09665],[-55.16636,-6.08028],[-55.02407,-5.93613],[-55.21205,-5.73786],[-55.2801,-5.51549],[-55.59611,-5.51413],[-55.70414,-5.58234],[-55.74935,-5.48866],[-55.93067,-5.36816],[-55.93781,-5.58598],[-56.05726,-5.65192],[-56.36803,-5.58552],[-56.44941,-5.64419],[-56.59504,-5.54505],[-56.60313,-5.37998],[-56.66405,-5.28949],[-56.44418,-5.0412],[-56.49129,-4.97253],[-56.43989,-4.76199],[-56.26095,-4.56691],[-56.17386,-4.60328],[-56.16196,-4.8302],[-56.02395,-4.78609],[-56.09153,-4.62056],[-55.97398,-4.53644],[-55.7108,-4.67331],[-55.48284,-4.73561],[-55.49759,-4.62056],[-55.65084,-4.51825],[-55.65702,-4.30634],[-55.80027,-4.28951],[-55.87451,-4.21585],[-55.65417,-4.09079],[-55.74316,-4.00348],[-56.0111,-3.85478],[-56.1553,-3.98347],[-56.23763,-4.15582],[-56.46845,-4.12854],[-56.59123,-4.30498],[-56.70878,-4.24631],[-56.72163,-4.08306],[-56.87773,-3.9189],[-56.88772,-3.70472],[-56.95626,-3.65879],[-57.35031,-4.50188],[-57.86048,-5.60053],[-57.82098,-5.55778],[-57.6449,-5.63645],[-57.58208,-5.56915],[-57.44454,-5.55824],[-57.35745,-5.61963],[-57.2694,-5.81335],[-56.9653,-5.93249],[-56.91485,-6.01298],[-56.72782,-5.96569],[-56.75447,-6.15349],[-56.72354,-6.30038],[-56.8368,-6.48727],[-56.88439,-6.66872],[-56.84394,-6.85016],[-56.89248,-6.99113],[-57.13329,-7.26579],[-57.19516,-7.4968],[-57.03811,-7.59138],[-56.90153,-7.78237],[-56.94341,-7.87514],[-56.89486,-8.0243],[-56.59219,-8.26713],[-56.36803,-8.24484],[-56.15958,-8.40537],[-56.15911,-8.24212],[-56.08725,-8.09342],[-56.06488,-7.93699],[-56.15673,-7.75327],[-56.1691,-7.48998],[-56.22954,-7.42131],[-56.20575,-7.27216],[-56.22764,-7.02705],[-56.14007,-6.87107],[-56.14816,-6.73011],[-56.04679,-6.59004],[-55.8907,-6.53639],[-55.71604,-6.31538],[-55.41479,-6.47136],[-55.19016,-6.69509],[-55.20396,-6.77376]]]},"properties":{"cod_ibge":"150360","name":"Itaituba","uf":"PA"}},
{"type":"Feature","geometry":{"type":"Polygon","coordinates":[[[-48.94766,-1.55107],[-49.10233,-1.40373],[-49.089,-1.2805],[-49.21274,-1.10724],[-49.21988,-1.00038],[-49.43642,-0.91352],[-49.52446,-0.97082],[-49.48353,-1.02539],[-49.52684,-1.18819],[-49.54445,-1.37963],[-49.49638,-1.61791],[-49.41595,-1.71887],[-49.17181,-1.71614],[-49.15468,-1.70159],[-48.94766,-1.55107]]]},"properties":{"cod_ibge":"150490","name":"Muaná","uf":"PA"}},
{"type":"Feature","geometry":{"type":"Polygon","coordinates":[[[-50.84606,-9.80051],[-50.225,-9.84098],[-50.08936,-9.54586],[-50.10555,-9.47537],[-50.03797,-9.28938],[-49.96706,-9.23118],[-49.86283,-9.08157],[-49.95897,-9.10931],[-50.07842,-8.99153],[-50.25546,-8.9215],[-50.33398,-8.96697],[-50.52006,-8.97288],[-50.59906,-8.92786],[-50.87652,-8.95378],[-50.90222,-8.80599],[-51.02691,-8.73142],[-51.05546,-8.98061],[-51.12351,-9.12704],[-51.05546,-9.18843],[-51.08782,-9.48356],[-51.25772,-9.57587],[-51.28532,-9.6991],[-51.30436,-9.77277],[-50.84606,-9.80051]]]},"properties":{"cod_ibge":"150670","name":"Santana do Araguaia","uf":"PA"}},
{"type":"Feature","geometry":{"type":"Polygon","coordinates":[[[-49.41786,-4.68696],[-49.40501,-4.90341],[-49.32077,-4.98163],[-49.31125,-5.19308],[-49.18276,-5.33678],[-49.14231,-5.07758],[-49.00048,-4.90705],[-49.00048,-4.83293],[-49.22559,-4.82656],[-49.25843,-4.73652],[-49.41786,-4.68696]]]},"properties":{"cod_ibge":"150497","name":"Nova Ipixuna","uf":"PA"}},
{"type":"Feature","geometry":{"type":"Polygon","coordinates":[[[-48.07817,-1.82982],[-47.95491,-1.66976],[-47.88924,-1.7698],[-47.85783,-1.62928],[-47.94397,-1.57881],[-47.98775,-1.50059],[-48.10149,-1.5397],[-48.26045,-1.46694],[-48.29281,-1.47058],[-48.22761,-1.69431],[-48.07817,-1.82982]]]},"properties":{"cod_ibge":"150190","name":"Bujaru","uf":"PA"}},
{"type":"Feature","geometry":{"type":"Polygon","coordinates":[[[-46.43914,-2.41326],[-46.60571,-2.22317],[-46.84462,-1.89985],[-46.8508,-2.06356],[-46.90458,-2.15633],[-46.88792,-2.20953],[-47.08067,-2.32549],[-47.10446,-2.55241],[-47.21392,-2.59333],[-47.33718,-2.57651],[-47.40571,-2.83435],[-47.39191,-2.88982],[-47.05735,-2.6188],[-47.02737,-2.49693],[-46.90934,-2.42235],[-46.73087,-2.41644],[-46.57097,-2.49602],[-46.43581,-2.47101],[-46.43914,-2.41326]]]},"properties":{"cod_ibge":"150495","name":"Nova Esperança do Piriá","uf":"PA"}},
{"type":"Feature","geometry":{"type":"Polygon","coordinates":[[[-46.60571,-2.22317],[-46.43914,-2.41326],[-46.43296,-2.30048],[-46.28352,-2.15451],[-46.26306,-2.04946],[-46.22356,-1.91486],[-46.21118,-1.83119],[-46.31541,-1.7416],[-46.44628,-1.70295],[-46.53242,-1.61519],[-46.63522,-1.77207],[-46.58096,-1.94396],[-46.60571,-2.22317]]]},"properties":{"cod_ibge":"150195","name":"Cachoeira do Piriá","uf":"PA"}},
{"type":"Feature","geometry":{"type":"Polygon","coordinates":[[[-52.05106,-5.15125],[-52.04297,-5.01619],[-52.09389,-4.82702],[-52.08009,-4.67786],[-51.88069,-4.46141],[-51.77265,-4.47368],[-51.84023,-4.21494],[-52.01013,-4.17719],[-52.06724,-4.07488],[-52.27664,-4.03213],[-52.30282,-3.75065],[-52.22382,-3.70017],[-52.16813,-3.56375],[-51.95826,-3.47689],[-51.95112,-3.41368],[-52.11578,-3.21996],[-52.25951,-2.98987],[-52.35945,-3.07536],[-52.49699,-3.26362],[-52.49937,-3.36594],[-52.40323,-3.43597],[-52.38087,-3.53283],[-52.45178,-3.66288],[-52.64928,-3.82068],[-52.78872,-3.85797],[-52.86249,-3.82068],[-53.00193,-3.93573],[-53.16374,-3.85842],[-53.17897,-3.6738],[-53.23655,-3.78975],[-53.40835,-3.90117],[-53.50639,-4.05532],[-53.75767,-4.11853],[-54.0237,-4.26678],[-54.09985,-4.23176],[-54.20027,-4.20266],[-54.30164,-4.31225],[-54.45107,-4.24313],[-54.58195,-4.39319],[-54.67475,-4.31589],[-54.73566,-4.42457],[-54.84179,-4.41002],[-54.92984,-4.4564],[-54.98076,-4.59146],[-55.31009,-4.66513],[-55.49759,-4.62056],[-55.48284,-4.73561],[-55.42811,-4.93297],[-55.3572,-5.05348],[-55.45,-5.17808],[-55.59325,-5.19627],[-55.41621,-5.41954],[-55.2801,-5.51549],[-55.21205,-5.73786],[-55.02407,-5.93613],[-55.16636,-6.08028],[-55.33912,-6.09665],[-55.33531,-6.24899],[-55.24251,-6.3554],[-55.25536,-6.4418],[-55.16731,-6.68554],[-55.20396,-6.77376],[-55.19396,-6.89108],[-55.25155,-6.9793],[-55.2525,-7.15938],[-55.19968,-7.24533],[-55.21015,-7.39812],[-55.06452,-7.5259],[-55.07975,-7.65414],[-55.00693,-7.81739],[-55.12734,-8.06158],[-55.213,-8.14253],[-55.20824,-8.47494],[-55.17683,-8.7014],[-55.24203,-8.82691],[-55.11163,-9.03791],[-54.90366,-9.05428],[-54.75089,-9.10931],[-54.67475,-9.18616],[-54.77231,-9.3003],[-54.61336,-9.53585],[-54.10699,-9.57178],[-53.5892,-9.61088],[-53.13328,-9.64499],[-53.11234,-9.55222],[-52.92245,-9.38033],[-53.05523,-8.95424],[-52.99241,-8.85056],[-53.03524,-8.75188],[-52.88819,-8.58317],[-52.99051,-8.3076],[-52.92531,-8.16254],[-53.06618,-7.91197],[-52.99193,-7.82785],[-53.13851,-7.54636],[-53.11995,-7.39539],[-53.31555,-7.20303],[-53.25368,-7.11436],[-53.31746,-7.02751],[-53.24702,-6.78695],[-53.44976,-6.686],[-53.29652,-6.45817],[-53.19134,-6.40042],[-53.36885,-6.058],[-52.97575,-5.84518],[-52.93958,-5.74423],[-52.69021,-5.65373],[-52.69163,-5.5164],[-52.61216,-5.2431],[-52.44987,-5.1849],[-52.2952,-5.19445],[-52.14815,-5.31632],[-52.05106,-5.15125]]]},"properties":{"cod_ibge":"150060","name":"Altamira","uf":"PA"}},
{"type":"Feature","geometry":{"type":"Polygon","coordinates":[[[-47.30672,-1.61155],[-47.0702,-1.53924],[-46.97977,-1.59654],[-46.97549,-1.50741],[-47.15301,-1.36508],[-47.18775,-1.39373],[-47.32433,-1.56426],[-47.32814,-1.60609],[-47.30672,-1.61155]]]},"properties":{"cod_ibge":"150540","name":"Ourém","uf":"PA"}},
{"type":"Feature","geometry":{"type":"Polygon","coordinates":[[[-47.63129,-0.70616],[-47.71981,-0.74481],[-47.71172,-0.86168],[-47.58561,-0.94854],[-47.54991,-0.82758],[-47.60797,-0.69798],[-47.63129,-0.70616]]]},"properties":{"cod_ibge":"150410","name":"Magalhães Barata","uf":"PA"}},
{"type":"Feature","geometry":{"type":"Polygon","coordinates":[[[-47.62035,-1.63201],[-47.77407,-1.67203],[-47.85783,-1.62928],[-47.88924,-1.7698],[-47.9078,-1.9667],[-47.9887,-2.09676],[-47.96729,-2.22181],[-47.84974,-2.17224],[-47.74646,-2.00081],[-47.58703,-2.00035],[-47.58941,-1.87757],[-47.56705,-1.71477],[-47.62035,-1.63201]]]},"properties":{"cod_ibge":"150720","name":"São Domingos do Capim","uf":"PA"}},
{"type":"Feature","geometry":{"type":"Polygon","coordinates":[[[-50.50912,-7.19303],[-50.56289,-7.07616],[-50.76468,-6.99476],[-50.75373,-6.87335],[-50.90127,-6.7101],[-51.01263,-6.63643],[-51.0369,-6.475],[-51.18348,-6.46727],[-51.12542,-6.6237],[-51.10257,-6.87835],[-51.33339,-7.04433],[-51.44713,-7.00704],[-51.68366,-7.0225],[-51.66129,-7.19076],[-51.86688,-7.53045],[-51.88259,-7.70188],[-52.03821,-7.72917],[-52.14577,-7.81375],[-52.16385,-8.03339],[-52.07771,-8.31351],[-51.93779,-8.44084],[-51.7817,-8.3799],[-51.86593,-8.24439],[-51.65844,-8.24666],[-51.5466,-8.2071],[-51.44237,-8.02839],[-51.25153,-7.95654],[-51.13636,-7.76919],[-51.21346,-7.67687],[-51.19347,-7.56637],[-51.23012,-7.40403],[-51.06307,-7.32081],[-50.97218,-7.37356],[-50.81988,-7.31627],[-50.66093,-7.31217],[-50.50912,-7.19303]]]},"properties":{"cod_ibge":"150543","name":"Ourilândia do Norte","uf":"PA"}},
{"type":"Feature","geometry":{"type":"Polygon","coordinates":[[[-50.45439,-1.93214],[-50.57146,-2.01172],[-50.50578,-2.19271],[-50.44772,-2.21999],[-50.27592,-2.50557],[-50.13267,-2.64563],[-50.14171,-2.82389],[-50.08603,-3.03216],[-49.97086,-3.16267],[-49.89662,-2.98896],[-49.84951,-2.85754],[-49.94231,-2.75977],[-49.96896,-2.54604],[-50.10935,-2.41053],[-50.07985,-2.24273],[-50.11506,-2.1395],[-50.05653,-1.90849],[-50.13172,-1.81482],[-50.25355,-1.80618],[-50.30019,-1.80572],[-50.45439,-1.93214]]]},"properties":{"cod_ibge":"150110","name":"Bagre","uf":"PA"}},
{"type":"Feature","geometry":{"type":"Polygon","coordinates":[[[-48.23284,-5.9475],[-48.29186,-5.837],[-48.27567,-5.72649],[-48.1724,-5.70876],[-48.36134,-5.69966],[-48.53076,-6.03435],[-48.39132,-6.14667],[-48.28805,-6.09756],[-48.33469,-6.00434],[-48.23284,-5.9475]]]},"properties":{"cod_ibge":"150549","name":"Palestina do Pará","uf":"PA"}},
{"type":"Feature","geometry":{"type":"Polygon","coordinates":[[[-49.96563,-3.66106],[-49.80572,-3.53328],[-49.83428,-3.40413],[-49.90852,-3.32546],[-50.00656,-3.33138],[-50.20977,-3.2377],[-50.4858,-3.45825],[-50.80894,-3.49508],[-50.85034,-3.29409],[-50.97503,-3.1222],[-51.14683,-3.11583],[-51.23964,-3.20178],[-51.26629,-3.30909],[-51.1673,-3.4487],[-51.25677,-3.87206],[-51.2068,-4.07169],[-51.1159,-4.0817],[-50.99359,-4.27132],[-50.81846,-4.29497],[-50.6733,-4.20857],[-50.88128,-3.85342],[-50.1084,-4.07806],[-50.12125,-3.98484],[-50.01798,-3.9048],[-49.95801,-3.78748],[-49.96563,-3.66106]]]},"properties":{"cod_ibge":"150548","name":"Pacajá","uf":"PA"}},
{"type":"Feature","geometry":{"type":"Polygon","coordinates":[[[-47.98632,-1.42238],[-47.85354,-1.39646],[-47.75979,-1.45239],[-47.65319,-1.43102],[-47.63843,-1.37463],[-47.84545,-1.28686],[-47.81119,-1.06586],[-47.94301,-1.03858],[-48.02154,-1.13362],[-48.03582,-1.20865],[-47.98632,-1.42238]]]},"properties":{"cod_ibge":"150240","name":"Castanhal","uf":"PA"}},
{"type":"Feature","geometry":{"type":"Polygon","coordinates":[[[-46.16121,-1.62292],[-46.17596,-1.4774],[-46.11457,-1.35189],[-46.1041,-1.20183],[-46.06317,-1.10633],[-46.21546,-1.0263],[-46.3373,-1.02175],[-46.38489,-1.21229],[-46.5486,-1.33552],[-46.81844,-1.54743],[-46.84462,-1.89985],[-46.60571,-2.22317],[-46.58096,-1.94396],[-46.63522,-1.77207],[-46.53242,-1.61519],[-46.44628,-1.70295],[-46.31541,-1.7416],[-46.17406,-1.70068],[-46.16121,-1.62292]]]},"properties":{"cod_ibge":"150830","name":"Viseu","uf":"PA"}},
{"type":"Feature","geometry":{"type":"Polygon","coordinates":[[[-49.31125,-5.19308],[-49.32077,-4.98163],[-49.40501,-4.90341],[-49.41786,-4.68696],[-49.42547,-4.69651],[-49.50066,-4.78382],[-49.77193,-4.81292],[-50.31542,-4.82747],[-50.39252,-4.96162],[-50.47913,-4.9648],[-50.51578,-5.17853],[-50.47675,-5.27676],[-50.05653,-5.42955],[-49.84998,-5.39226],[-49.75575,-5.45047],[-49.60251,-5.41454],[-49.42119,-5.45001],[-49.31125,-5.19308]]]},"properties":{"cod_ibge":"150370","name":"Itupiranga","uf":"PA"}},
{"type":"Feature","geometry":{"type":"Polygon","coordinates":[[[-58.13699,-7.35628],[-58.06132,-7.39539],[-57.89665,-7.67778],[-57.83193,-7.96154],[-57.64156,-8.21983],[-57.68678,-8.40719],[-57.56256,-8.76143],[-57.41598,-8.8592],[-57.20373,-8.92104],[-57.03906,-9.09839],[-57.06,-9.18252],[-56.99576,-9.2339],[-56.82015,-9.24618],[-56.77255,-9.39079],[-56.67166,-9.3676],[-56.27237,-9.40079],[-56.15673,-9.41034],[-56.15958,-8.40537],[-56.36803,-8.24484],[-56.59219,-8.26713],[-56.89486,-8.0243],[-56.94341,-7.87514],[-56.90153,-7.78237],[-57.03811,-7.59138],[-57.19516,-7.4968],[-57.13329,-7.26579],[-56.89248,-6.99113],[-56.84394,-6.85016],[-56.88439,-6.66872],[-56.8368,-6.48727],[-56.72354,-6.30038],[-56.75447,-6.15349],[-56.72782,-5.96569],[-56.91485,-6.01298],[-56.9653,-5.93249],[-57.2694,-5.81335],[-57.35745,-5.61963],[-57.44454,-5.55824],[-57.58208,-5.56915],[-57.6449,-5.63645],[-57.82098,-5.55778],[-57.86048,-5.60053],[-58.26691,-6.47545],[-58.42729,-6.61597],[-58.48154,-6.78149],[-58.43443,-6.90882],[-58.33544,-6.98658],[-58.18077,-7.18166],[-58.14746,-7.34309],[-58.13699,-7.35628]]]},"properties":{"cod_ibge":"150375","name":"Jacareacanga","uf":"PA"}},
{"type":"Feature","geometry":{"type":"Polygon","coordinates":[[[-51.95826,-3.47689],[-51.80216,-3.50463],[-51.70222,-3.24907],[-51.60894,-3.15221],[-51.75124,-3.10764],[-51.82738,-3.08218],[-51.94446,-2.88027],[-52.04392,-2.79251],[-52.27664,-2.83025],[-52.35945,-3.07536],[-52.25951,-2.98987],[-52.11578,-3.21996],[-51.95112,-3.41368],[-51.95826,-3.47689]]]},"properties":{"cod_ibge":"150835","name":"Vitória do Xingu","uf":"PA"}},
{"type":"Feature","geometry":{"type":"Polygon","coordinates":[[[-54.10318,-2.88664],[-54.11175,-2.75477],[-54.25452,-2.57833],[-54.26594,-2.41553],[-54.33209,-2.39097],[-54.51246,-2.10949],[-54.739,-2.07129],[-54.84274,-2.14178],[-55.09498,-2.16679],[-55.12781,-2.26319],[-55.28391,-2.2159],[-55.37053,-2.13768],[-55.62181,-2.15815],[-55.7741,-2.29775],[-56.34471,-3.26498],[-55.37529,-3.23634],[-55.23394,-3.24179],[-55.10211,-2.82025],[-55.05833,-2.54922],[-54.82989,-2.5706],[-54.83227,-2.66109],[-54.62478,-2.62062],[-54.4782,-2.78205],[-54.36683,-2.78751],[-54.25024,-2.95212],[-54.22501,-3.0749],[-54.24881,-3.26635],[-54.10984,-3.1704],[-54.04607,-2.99896],[-54.10318,-2.88664]]]},"properties":{"cod_ibge":"150680","name":"Santarém","uf":"PA"}},
{"type":"Feature","geometry":{"type":"Polygon","coordinates":[[[-47.39191,-2.88982],[-47.49852,-2.87436],[-47.68507,-2.73385],[-47.71363,-2.5665],[-47.89923,-2.67018],[-47.79881,-2.97895],[-48.0558,-3.10537],[-48.11196,-3.20905],[-48.50268,-3.25953],[-48.7611,-3.39504],[-48.88389,-3.56784],[-48.81631,-3.71245],[-48.57597,-3.81113],[-48.38894,-3.8375],[-48.26901,-3.79521],[-48.03249,-3.82204],[-47.95872,-3.73428],[-47.73695,-3.69926],[-47.65985,-3.58376],[-47.35241,-3.4728],[-47.22344,-3.52237],[-47.14682,-3.61968],[-47.03831,-3.5642],[-46.95645,-3.42596],[-46.81463,-3.31137],[-46.64759,-2.96986],[-46.59905,-2.79569],[-46.62237,-2.64472],[-46.50672,-2.61698],[-46.43581,-2.47101],[-46.57097,-2.49602],[-46.73087,-2.41644],[-46.90934,-2.42235],[-47.02737,-2.49693],[-47.05735,-2.6188],[-47.39191,-2.88982]]]},"properties":{"cod_ibge":"150550","name":"Paragominas","uf":"PA"}},
{"type":"Feature","geometry":{"type":"Polygon","coordinates":[[[-48.9448,-5.55278],[-49.01524,-5.46002],[-48.99239,-5.28312],[-49.02618,-5.04484],[-48.93148,-4.94616],[-49.00048,-4.83293],[-49.00048,-4.90705],[-49.14231,-5.07758],[-49.18276,-5.33678],[-49.31125,-5.19308],[-49.42119,-5.45001],[-49.60251,-5.41454],[-49.75575,-5.45047],[-49.84998,-5.39226],[-50.05653,-5.42955],[-50.47675,-5.27676],[-50.51578,-5.17853],[-50.72042,-5.17444],[-50.78705,-5.39953],[-50.94743,-5.52595],[-50.95266,-5.61417],[-50.85843,-5.71012],[-50.946,-5.8038],[-51.08639,-5.78106],[-51.12589,-5.91885],[-51.26391,-5.99479],[-51.24582,-6.17259],[-51.14874,-6.2167],[-50.97789,-5.98888],[-50.7228,-5.95477],[-50.53148,-5.8811],[-50.34398,-5.86428],[-50.24689,-5.91703],[-50.0175,-5.94522],[-49.93279,-5.85973],[-49.82571,-5.85564],[-49.71863,-5.94613],[-49.45736,-5.90157],[-49.23368,-5.79561],[-48.98906,-5.83927],[-48.85248,-5.96523],[-48.73112,-5.86019],[-48.93338,-5.65373],[-48.9448,-5.55278]]]},"properties":{"cod_ibge":"150420","name":"Marabá","uf":"PA"}},
{"type":"Feature","geometry":{"type":"Polygon","coordinates":[[[-47.90113,-0.93171],[-47.81452,-0.92216],[-47.75598,-0.60612],[-47.86972,-0.5611],[-47.9768,-0.68615],[-47.95206,-0.77665],[-47.90113,-0.93171]]]},"properties":{"cod_ibge":"150290","name":"Curuçá","uf":"PA"}},
{"type":"Feature","geometry":{"type":"Polygon","coordinates":[[[-49.82571,-5.85564],[-49.93279,-5.85973],[-50.0175,-5.94522],[-50.24689,-5.91703],[-50.34398,-5.86428],[-50.53148,-5.8811],[-50.7228,-5.95477],[-50.97789,-5.98888],[-51.14874,-6.2167],[-51.19918,-6.28673],[-51.18348,-6.46727],[-51.0369,-6.475],[-50.82655,-6.37586],[-50.71614,-6.54184],[-50.48247,-6.51365],[-50.56765,-6.24944],[-49.82333,-6.24854],[-49.78193,-6.11393],[-49.82571,-5.85564]]]},"properties":{"cod_ibge":"150553","name":"Parauapebas","uf":"PA"}},
{"type":"Feature","geometry":{"type":"Polygon","coordinates":[[[-47.41856,-1.49559],[-47.32433,-1.56426],[-47.18775,-1.39373],[-47.18727,-1.38918],[-47.20536,-1.22502],[-47.34289,-1.28686],[-47.4276,-1.37008],[-47.41856,-1.49559]]]},"properties":{"cod_ibge":"150160","name":"Bonito","uf":"PA"}},
{"type":"Feature","geometry":{"type":"Polygon","coordinates":[[[-49.45736,-5.90157],[-49.47592,-6.1012],[-49.57348,-6.2599],[-49.43309,-6.33039],[-49.41119,-6.44544],[-49.19894,-6.26445],[-48.85248,-5.96523],[-48.98906,-5.83927],[-49.23368,-5.79561],[-49.45736,-5.90157]]]},"properties":{"cod_ibge":"150295","name":"Eldorado do Carajás","uf":"PA"}},
{"type":"Feature","geometry":{"type":"Polygon","coordinates":[[[-47.34718,-4.10853],[-47.46377,-4.15582],[-47.56895,-4.09307],[-47.85212,-4.04668],[-48.03249,-3.82204],[-48.26901,-3.79521],[-48.38894,-3.8375],[-48.38799,-4.01758],[-48.26949,-4.21539],[-48.16098,-4.20084],[-47.81595,-4.61465],[-47.67984,-4.60874],[-47.61511,-4.56008],[-47.44188,-4.28724],[-47.3724,-4.24495],[-47.34718,-4.10853]]]},"properties":{"cod_ibge":"150293","name":"Dom Eliseu","uf":"PA"}},
{"type":"Feature","geometry":{"type":"Polygon","coordinates":[[[-50.4501,-7.71507],[-50.23642,-7.8806],[-50.11459,-7.81284],[-49.85664,-7.97291],[-49.82809,-7.70007],[-49.97324,-7.64231],[-50.08984,-7.6837],[-50.34778,-7.48452],[-50.34588,-7.65868],[-50.4501,-7.71507]]]},"properties":{"cod_ibge":"150555","name":"Pau D'Arco","uf":"PA"}},
{"type":"Feature","geometry":{"type":"Polygon","coordinates":[[[-51.09448,-0.6616],[-50.9579,-0.57429],[-50.76563,-0.50698],[-50.68425,-0.62249],[-50.47675,-0.7239],[-50.32732,-0.63295],[-50.32256,-0.49471],[-50.23356,-0.31281],[-50.10745,-0.47106],[-50.19597,-0.21368],[-50.29876,-0.10181],[-50.43297,0.14966],[-50.59954,0.24925],[-50.64475,0.20878],[-50.74374,0.13056],[-50.97503,0.04189],[-51.11828,-0.09772],[-51.20823,-0.11682],[-51.34767,-0.29962],[-51.43238,-0.47333],[-51.15492,-0.40239],[-51.09448,-0.6616]]]},"properties":{"cod_ibge":"150030","name":"Afuá","uf":"PA"}},
{"type":"Feature","geometry":{"type":"Polygon","coordinates":[[[-49.29745,-2.45054],[-49.35742,-2.3596],[-49.18942,-2.10358],[-49.31792,-1.99444],[-49.59394,-1.97216],[-49.70626,-2.06902],[-49.79478,-2.16451],[-49.72339,-2.30093],[-49.74481,-2.53558],[-49.67628,-2.58969],[-49.58014,-2.49147],[-49.39882,-2.53967],[-49.29745,-2.45054]]]},"properties":{"cod_ibge":"150210","name":"Cametá","uf":"PA"}},
{"type":"Feature","geometry":{"type":"Polygon","coordinates":[[[-51.0369,-6.475],[-51.01263,-6.63643],[-50.90127,-6.7101],[-50.75373,-6.87335],[-50.76468,-6.99476],[-50.56289,-7.07616],[-50.50912,-7.19303],[-50.37634,-7.2526],[-49.73291,-6.71737],[-49.72958,-6.71464],[-49.99751,-6.55003],[-50.23166,-6.5764],[-50.48247,-6.51365],[-50.71614,-6.54184],[-50.82655,-6.37586],[-51.0369,-6.475]]]},"properties":{"cod_ibge":"150034","name":"Água Azul do Norte","uf":"PA"}},
{"type":"Feature","geometry":{"type":"Polygon","coordinates":[[[-50.48247,-6.51365],[-50.23166,-6.5764],[-49.99751,-6.55003],[-49.72958,-6.71464],[-49.66438,-6.53775],[-49.82333,-6.24854],[-50.56765,-6.24944],[-50.48247,-6.51365]]]},"properties":{"cod_ibge":"150215","name":"Canaã dos Carajás","uf":"PA"}},
{"type":"Feature","geometry":{"type":"Polygon","coordinates":[[[-47.95206,-2.51694],[-48.04676,-2.47328],[-48.05533,-2.36005],[-47.96729,-2.22181],[-47.9887,-2.09676],[-48.0539,-2.08448],[-48.25711,-2.20999],[-48.32993,-2.1777],[-48.44129,-2.29502],[-48.49554,-2.55877],[-48.45462,-2.68837],[-48.55741,-2.96213],[-48.49412,-3.09764],[-48.53076,-3.19586],[-48.44843,-3.2377],[-48.33231,-3.19768],[-48.18002,-2.94894],[-48.09102,-2.89983],[-48.04724,-2.64836],[-47.95206,-2.51694]]]},"properties":{"cod_ibge":"150800","name":"Tomé-Açu","uf":"PA"}},
{"type":"Feature","geometry":{"type":"Polygon","coordinates":[[[-48.10149,-1.5397],[-47.98775,-1.50059],[-47.94397,-1.57881],[-47.75979,-1.45239],[-47.85354,-1.39646],[-47.98632,-1.42238],[-48.10149,-1.5397]]]},"properties":{"cod_ibge":"150340","name":"Inhangapi","uf":"PA"}},
{"type":"Feature","geometry":{"type":"Polygon","coordinates":[[[-55.48284,-4.73561],[-55.7108,-4.67331],[-55.97398,-4.53644],[-56.09153,-4.62056],[-56.02395,-4.78609],[-56.16196,-4.8302],[-56.17386,-4.60328],[-56.26095,-4.56691],[-56.43989,-4.76199],[-56.49129,-4.97253],[-56.44418,-5.0412],[-56.66405,-5.28949],[-56.60313,-5.37998],[-56.59504,-5.54505],[-56.44941,-5.64419],[-56.36803,-5.58552],[-56.05726,-5.65192],[-55.93781,-5.58598],[-55.93067,-5.36816],[-55.74935,-5.48866],[-55.70414,-5.58234],[-55.59611,-5.51413],[-55.2801,-5.51549],[-55.41621,-5.41954],[-55.59325,-5.19627],[-55.45,-5.17808],[-55.3572,-5.05348],[-55.42811,-4.93297],[-55.48284,-4.73561]]]},"properties":{"cod_ibge":"150805","name":"Trairão","uf":"PA"}},
{"type":"Feature","geometry":{"type":"Polygon","coordinates":[[[-46.79607,-0.87032],[-46.94265,-0.85941],[-47.00214,-1.01175],[-46.97835,-1.10406],[-47.18727,-1.38918],[-47.18775,-1.39373],[-47.15301,-1.36508],[-46.99738,-1.30869],[-46.85699,-1.08996],[-46.79607,-0.87032]]]},"properties":{"cod_ibge":"150803","name":"Tracuateua","uf":"PA"}},
{"type":"Feature","geometry":{"type":"Polygon","coordinates":[[[-48.53029,-1.69931],[-48.90578,-1.9567],[-48.96003,-2.15678],[-49.09091,-2.24091],[-49.23178,-2.41326],[-49.31125,-2.66836],[-49.38645,-2.66382],[-49.47068,-2.76068],[-49.45355,-2.89164],[-49.62345,-3.00078],[-49.47259,-3.41505],[-48.92577,-3.41277],[-48.92577,-3.40686],[-49.03237,-2.85754],[-48.82821,-2.60152],[-48.85914,-2.39188],[-48.6307,-2.15633],[-48.46509,-1.87575],[-48.44129,-1.65566],[-48.53029,-1.69931]]]},"properties":{"cod_ibge":"150470","name":"Moju","uf":"PA"}},
{"type":"Feature","geometry":{"type":"MultiPolygon","coordinates":[[[[-51.85451,-2.55241],[-51.91971,-2.49329],[-52.05487,-2.6861],[-52.04392,-2.79251],[-51.94446,-2.88027],[-51.82738,-3.08218],[-51.75124,-3.10764],[-51.67842,-3.01078],[-51.74838,-2.84571],[-51.85451,-2.55241]]],[[[-51.44761,-5.15034],[-51.46617,-4.97344],[-51.31197,-4.71606],[-51.38431,-4.54917],[-51.32244,-4.41138],[-51.41763,-4.08079],[-51.40716,-3.91344],[-51.59514,-3.77975],[-51.54803,-3.69835],[-51.58515,-3.58603],[-51.80216,-3.50463],[-51.95826,-3.47689],[-52.16813,-3.56375],[-52.22382,-3.70017],[-52.30282,-3.75065],[-52.27664,-4.03213],[-52.06724,-4.07488],[-52.01013,-4.17719],[-51.84023,-4.21494],[-51.77265,-4.47368],[-51.88069,-4.46141],[-52.08009,-4.67786],[-52.09389,-4.82702],[-52.04297,-5.01619],[-52.05106,-5.15125],[-51.44761,-5.15034]]]]},"properties":{"cod_ibge":"150780","name":"Senador José Porfírio","uf":"PA"}},
{"type":"Feature","geometry":{"type":"Polygon","coordinates":[[[-48.26045,-1.46694],[-48.10149,-1.5397],[-47.98632,-1.42238],[-48.03582,-1.20865],[-48.13766,-1.20001],[-48.20762,-1.25731],[-48.26045,-1.46694]]]},"properties":{"cod_ibge":"150650","name":"Santa Izabel do Pará","uf":"PA"}},
{"type":"Feature","geometry":{"type":"Polygon","coordinates":[[[-46.79607,-0.87032],[-46.85699,-1.08996],[-46.99738,-1.30869],[-46.81844,-1.54743],[-46.5486,-1.33552],[-46.63522,-1.22638],[-46.63664,-0.969],[-46.59619,-0.84213],[-46.6652,-0.7912],[-46.79607,-0.87032]]]},"properties":{"cod_ibge":"150170","name":"Bragança","uf":"PA"}},
{"type":"Feature","geometry":{"type":"Polygon","coordinates":[[[-51.68366,-7.0225],[-51.44713,-7.00704],[-51.33339,-7.04433],[-51.10257,-6.87835],[-51.12542,-6.6237],[-51.3115,-6.57413],[-51.50615,-6.64643],[-51.69413,-6.85198],[-51.68366,-7.0225]]]},"properties":{"cod_ibge":"150808","name":"Tucumã","uf":"PA"}},
{"type":"Feature","geometry":{"type":"Polygon","coordinates":[[[-54.24881,-3.26635],[-54.22501,-3.0749],[-54.25024,-2.95212],[-54.36683,-2.78751],[-54.4782,-2.78205],[-54.62478,-2.62062],[-54.83227,-2.66109],[-54.8337,-3.55602],[-54.5434,-3.36002],[-54.28593,-3.40232],[-54.24881,-3.26635]]]},"properties":{"cod_ibge":"150475","name":"Mojuí dos Campos","uf":"PA"}},
{"type":"Feature","geometry":{"type":"Polygon","coordinates":[[[-47.39191,-2.88982],[-47.40571,-2.83435],[-47.33718,-2.57651],[-47.43903,-2.40734],[-47.70458,-2.31685],[-47.93064,-2.3264],[-47.98632,-2.42053],[-47.95206,-2.51694],[-48.04724,-2.64836],[-48.09102,-2.89983],[-48.18002,-2.94894],[-48.33231,-3.19768],[-48.44843,-3.2377],[-48.53076,-3.19586],[-48.63308,-3.22951],[-48.81964,-3.38003],[-48.92577,-3.40686],[-48.92577,-3.41277],[-49.02904,-3.54692],[-48.88389,-3.56784],[-48.7611,-3.39504],[-48.50268,-3.25953],[-48.11196,-3.20905],[-48.0558,-3.10537],[-47.79881,-2.97895],[-47.89923,-2.67018],[-47.71363,-2.5665],[-47.68507,-2.73385],[-47.49852,-2.87436],[-47.39191,-2.88982]]]},"properties":{"cod_ibge":"150345","name":"Ipixuna do Pará","uf":"PA"}},
{"type":"Feature","geometry":{"type":"Polygon","coordinates":[[[-46.97977,-1.59654],[-46.92695,-1.67385],[-47.01499,-1.85756],[-46.89982,-2.01081],[-46.90458,-2.15633],[-46.8508,-2.06356],[-46.84462,-1.89985],[-46.81844,-1.54743],[-46.99738,-1.30869],[-47.15301,-1.36508],[-46.97549,-1.50741],[-46.97977,-1.59654]]]},"properties":{"cod_ibge":"150655","name":"Santa Luzia do Pará","uf":"PA"}},
{"type":"Feature","geometry":{"type":"Polygon","coordinates":[[[-53.17897,-3.6738],[-53.16374,-3.85842],[-53.00193,-3.93573],[-52.86249,-3.82068],[-52.78872,-3.85797],[-52.64928,-3.82068],[-52.45178,-3.66288],[-52.38087,-3.53283],[-52.40323,-3.43597],[-52.49937,-3.36594],[-52.49699,-3.26362],[-52.35945,-3.07536],[-52.27664,-2.83025],[-52.33137,-2.78296],[-52.50127,-2.77386],[-52.55695,-2.72521],[-52.82965,-2.76204],[-53.00145,-2.67155],[-52.87343,-2.8107],[-52.88533,-3.06035],[-52.84297,-3.16721],[-52.6983,-3.35366],[-52.66927,-3.46507],[-52.8187,-3.62696],[-52.94482,-3.61786],[-53.1566,-3.66516],[-53.17897,-3.6738]]]},"properties":{"cod_ibge":"150172","name":"Brasil Novo","uf":"PA"}},
{"type":"Feature","geometry":{"type":"Polygon","coordinates":[[[-51.02691,-8.73142],[-50.90222,-8.80599],[-50.87652,-8.95378],[-50.59906,-8.92786],[-50.52006,-8.97288],[-50.33398,-8.96697],[-50.25546,-8.9215],[-50.07842,-8.99153],[-49.95897,-9.10931],[-49.86283,-9.08157],[-49.85141,-9.06383],[-49.68437,-8.85647],[-49.59252,-8.83965],[-49.48163,-8.67366],[-49.58395,-8.7878],[-49.70245,-8.76098],[-49.77764,-8.57317],[-49.65914,-8.50041],[-49.65914,-8.28623],[-49.82666,-8.3317],[-49.99609,-8.39627],[-50.16313,-8.34625],[-50.3454,-8.18618],[-50.59954,-8.19119],[-50.86748,-8.3367],[-51.02691,-8.73142]]]},"properties":{"cod_ibge":"150658","name":"Santa Maria das Barreiras","uf":"PA"}},
{"type":"Feature","geometry":{"type":"Polygon","coordinates":[[[-51.77837,-1.14044],[-52.05487,-1.17682],[-52.3328,-1.11588],[-52.41656,-1.02539],[-52.45558,-0.8303],[-52.53506,-0.57429],[-52.64024,-0.58474],[-52.69544,-0.49653],[-52.68402,-0.31417],[-52.93292,-0.14228],[-52.98337,0.03325],[-53.17516,0.38158],[-53.10568,0.67943],[-53.41169,0.92954],[-53.45928,1.13372],[-53.59539,1.35836],[-53.78385,1.40292],[-54.02037,1.5157],[-54.14363,1.64075],[-54.35161,1.75398],[-54.74471,1.77581],[-54.80372,2.02592],[-54.76327,2.20236],[-54.87082,2.43609],[-55.00836,2.59343],[-55.18683,2.56069],[-55.24869,2.48566],[-55.40479,2.437],[-55.70699,2.40153],[-55.61514,2.13551],[-55.51235,2.05684],[-55.58564,1.8995],[-55.4619,1.82811],[-55.41383,1.54571],[-55.24679,1.3288],[-55.21633,1.07324],[-55.10259,1.06323],[-55.0274,0.88589],[-55.0669,0.65351],[-54.86035,0.47662],[-54.86226,0.37248],[-54.68427,0.2447],[-54.64048,0.13374],[-54.44679,0.08554],[-54.38777,-0.00813],[-54.42347,-0.11182],[-54.33114,-0.32691],[-54.31972,-0.47061],[-54.2331,-0.47788],[-54.02942,-0.66205],[-54.12365,-0.82758],[-53.95946,-0.99447],[-53.81716,-0.95127],[-53.7058,-0.98082],[-53.63298,-1.18819],[-53.49545,-1.34189],[-53.35362,-1.74888],[-53.11805,-1.78117],[-52.99955,-1.74342],[-52.93911,-1.65611],[-52.68259,-1.58426],[-52.41561,-1.56335],[-52.25189,-1.50423],[-51.9911,-1.43511],[-51.77837,-1.14044]]]},"properties":{"cod_ibge":"150050","name":"Almeirim","uf":"PA"}},
{"type":"Feature","geometry":{"type":"Polygon","coordinates":[[[-48.85343,-6.7492],[-48.6664,-6.66417],[-48.63356,-6.49137],[-48.62594,-6.47863],[-48.68067,-6.43452],[-48.68353,-6.43225],[-48.96003,-6.31265],[-49.19894,-6.26445],[-49.41119,-6.44544],[-49.1247,-6.82196],[-49.08329,-6.84334],[-49.03761,-6.80923],[-48.85343,-6.7492]]]},"properties":{"cod_ibge":"150563","name":"Piçarra","uf":"PA"}}
]}