{"type":"FeatureCollection", "features": [
{"type":"Feature","geometry":{"type":"Polygon","coordinates":[[[-50.68377,2.1437],[-50.77039,2.45337],[-50.81655,2.50294],[-50.88746,2.74623],[-50.94505,2.81762],[-51.03262,3.2137],[-51.10924,3.45062],[-51.08163,3.55976],[-51.08068,3.8849],[-51.15064,3.914],[-51.19871,3.65889],[-51.17396,3.3383],[-51.24297,3.13367],[-51.35909,3.05227],[-51.63988,2.61845],[-51.74886,2.42382],[-51.88735,2.34014],[-52.01584,2.43655],[-52.06534,2.28876],[-51.99966,2.0341],[-52.05059,1.86039],[-52.02108,1.64439],[-52.0444,1.4484],[-51.99062,1.31652],[-51.71555,1.64667],[-51.64701,1.87631],[-51.65891,1.95316],[-51.57087,2.11414],[-51.49472,2.0241],[-51.37479,2.01819],[-51.07545,2.18099],[-50.68377,2.1437]]]},"properties":{"cod_ibge":"160020","name":"Calçoene","uf":"AP"}},
{"type":"Feature","geometry":{"type":"Polygon","coordinates":[[[-51.78312,0.99411],[-51.48521,0.85496],[-51.35766,0.65806],[-51.14969,0.56438],[-51.04832,0.42341],[-51.00168,0.49663],[-50.97408,0.69626],[-50.88699,0.79812],[-50.95171,0.82904],[-50.89317,0.9932],[-51.18253,1.03504],[-51.23488,0.9591],[-51.35195,0.95773],[-51.46664,1.06778],[-51.4438,1.23558],[-51.38907,1.32289],[-51.99062,1.31652],[-51.97777,1.09097],[-51.81501,0.97592],[-51.78312,0.99411]]]},"properties":{"cod_ibge":"160023","name":"Ferreira Gomes","uf":"AP"}},
{"type":"Feature","geometry":{"type":"Polygon","coordinates":[[[-50.88699,0.79812],[-50.79561,0.84359],[-50.53434,0.87315],[-50.4206,0.96046],[-50.30733,0.94455],[-50.18597,1.0505],[-50.067,1.21694],[-50.13172,1.3288],[-50.27782,1.31789],[-50.30828,1.17555],[-50.42298,1.18738],[-50.46771,1.09598],[-50.64427,1.07278],[-50.89317,0.9932],[-50.95171,0.82904],[-50.88699,0.79812]]]},"properties":{"cod_ibge":"160021","name":"Cutias","uf":"AP"}},
{"type":"Feature","geometry":{"type":"Polygon","coordinates":[[[-51.93779,-0.87032],[-51.93542,-0.76755],[-52.0563,-0.64068],[-52.08152,-0.33646],[-52.28664,-0.25188],[-52.35231,-0.14274],[-52.556,-0.09544],[-52.50555,-0.01496],[-52.49508,0.28745],[-52.57266,0.38294],[-52.69211,0.63987],[-52.68545,0.76674],[-52.75303,0.82404],[-52.86677,0.96683],[-52.97242,1.20602],[-52.86915,1.44431],[-52.96481,1.5589],[-52.97385,1.71761],[-53.05904,1.94634],[-53.13899,2.10095],[-53.27605,2.19417],[-53.26035,2.29285],[-53.3422,2.3506],[-53.45071,2.25966],[-53.65916,2.27966],[-53.76862,2.37516],[-54.11222,2.11778],[-54.4782,2.216],[-54.53673,2.32514],[-54.66237,2.32832],[-54.73995,2.47202],[-54.87082,2.43609],[-54.76327,2.20236],[-54.80372,2.02592],[-54.74471,1.77581],[-54.35161,1.75398],[-54.14363,1.64075],[-54.02037,1.5157],[-53.78385,1.40292],[-53.59539,1.35836],[-53.45928,1.13372],[-53.41169,0.92954],[-53.10568,0.67943],[-53.17516,0.38158],[-52.98337,0.03325],[-52.93292,-0.14228],[-52.68402,-0.31417],[-52.69544,-0.49653],[-52.64024,-0.58474],[-52.53506,-0.57429],[-52.45558,-0.8303],[-52.28664,-0.79802],[-52.13435,-0.91443],[-51.93779,-0.87032]]]},"properties":{"cod_ibge":"160027","name":"Laranjal do Jari","uf":"AP"}},
{"type":"Feature","geometry":{"type":"Polygon","coordinates":[[[-50.40965,0.6235],[-50.45677,0.72991],[-50.61429,0.75219],[-50.6319,0.62486],[-50.74707,0.64305],[-50.82798,0.75174],[-50.92554,0.64897],[-50.77658,0.54574],[-50.68425,0.38067],[-50.64475,0.20878],[-50.59954,0.24925],[-50.40965,0.6235]]]},"properties":{"cod_ibge":"160025","name":"Itaubal","uf":"AP"}},
{"type":"Feature","geometry":{"type":"Polygon","coordinates":[[[-51.38907,1.32289],[-51.4438,1.23558],[-51.46664,1.06778],[-51.35195,0.95773],[-51.23488,0.9591],[-51.18253,1.03504],[-50.89317,0.9932],[-50.64427,1.07278],[-50.46771,1.09598],[-50.42298,1.18738],[-50.56051,1.4725],[-50.86081,1.59255],[-51.15064,1.60392],[-51.3234,1.69032],[-51.45522,1.59983],[-51.38241,1.40383],[-51.38907,1.32289]]]},"properties":{"cod_ibge":"160070","name":"Tartarugalzinho","uf":"AP"}},
{"type":"Feature","geometry":{"type":"Polygon","coordinates":[[[-52.45558,-0.8303],[-52.41656,-1.02539],[-52.3328,-1.11588],[-52.05487,-1.17682],[-51.77837,-1.14044],[-51.70032,-1.06313],[-51.68366,-0.79574],[-51.8231,-0.90943],[-51.93779,-0.87032],[-52.13435,-0.91443],[-52.28664,-0.79802],[-52.45558,-0.8303]]]},"properties":{"cod_ibge":"160080","name":"Vitória do Jari","uf":"AP"}},
{"type":"Feature","geometry":{"type":"Polygon","coordinates":[[[-52.86772,2.02455],[-52.75588,1.86676],[-52.66213,1.82674],[-52.51269,1.6503],[-52.44654,1.28469],[-52.27521,1.06915],[-52.10436,0.98911],[-52.05772,0.87906],[-51.95731,0.84814],[-51.81501,0.97592],[-51.97777,1.09097],[-51.99062,1.31652],[-52.0444,1.4484],[-52.02108,1.64439],[-52.05059,1.86039],[-51.99966,2.0341],[-52.06534,2.28876],[-52.01584,2.43655],[-52.11864,2.35697],[-52.25237,2.16871],[-52.41085,2.09277],[-52.40704,2.03547],[-52.61216,2.01319],[-52.6983,2.06685],[-52.86772,2.02455]]]},"properties":{"cod_ibge":"160005","name":"Serra do Navio","uf":"AP"}},
{"type":"Feature","geometry":{"type":"Polygon","coordinates":[[[-51.15064,3.914],[-51.21632,4.15001],[-51.28342,4.25005],[-51.48568,4.43695],[-51.62845,4.50425],[-51.66986,4.42558],[-51.63416,4.21322],[-51.67224,4.03724],[-51.97396,3.70618],[-52.18955,3.29874],[-52.29235,3.22643],[-52.32614,3.07682],[-52.55552,2.63709],[-52.52745,2.58207],[-52.6607,2.37425],[-52.84202,2.29194],[-52.98765,2.16825],[-53.13375,2.22555],[-53.27605,2.19417],[-53.13899,2.10095],[-53.05904,1.94634],[-52.91436,1.94861],[-52.86772,2.02455],[-52.6983,2.06685],[-52.61216,2.01319],[-52.40704,2.03547],[-52.41085,2.09277],[-52.25237,2.16871],[-52.11864,2.35697],[-52.01584,2.43655],[-51.88735,2.34014],[-51.74886,2.42382],[-51.63988,2.61845],[-51.35909,3.05227],[-51.24297,3.13367],[-51.17396,3.3383],[-51.19871,3.65889],[-51.15064,3.914]]]},"properties":{"cod_ibge":"160050","name":"Oiapoque","uf":"AP"}},
{"type":"Feature","geometry":{"type":"Polygon","coordinates":[[[-50.56051,1.4725],[-50.54053,1.5971],[-50.64047,1.82947],[-51.10686,1.85039],[-51.2858,1.89404],[-51.44571,1.77217],[-51.64701,1.87631],[-51.71555,1.64667],[-51.99062,1.31652],[-51.38907,1.32289],[-51.38241,1.40383],[-51.45522,1.59983],[-51.3234,1.69032],[-51.15064,1.60392],[-50.86081,1.59255],[-50.56051,1.4725]]]},"properties":{"cod_ibge":"160055","name":"Pracuúba","uf":"AP"}},
{"type":"Feature","geometry":{"type":"Polygon","coordinates":[[[-51.4933,0.46798],[-51.46093,0.50572],[-51.26296,0.45343],[-51.13636,0.33429],[-51.04832,0.42341],[-51.14969,0.56438],[-51.35766,0.65806],[-51.48521,0.85496],[-51.78312,0.99411],[-51.78788,0.88452],[-51.7046,0.70353],[-52.01965,0.69308],[-52.23667,0.58576],[-52.34803,0.43251],[-52.23857,0.39113],[-52.09009,0.50618],[-51.69698,0.39749],[-51.69365,0.31973],[-51.56944,0.21742],[-51.4933,0.46798]]]},"properties":{"cod_ibge":"160053","name":"Porto Grande","uf":"AP"}},
{"type":"Feature","geometry":{"type":"Polygon","coordinates":[[[-51.56944,0.21742],[-51.53042,0.05007],[-51.4024,-0.06361],[-51.20823,-0.11682],[-51.11828,-0.09772],[-51.24344,0.0478],[-51.19014,0.15648],[-51.3253,0.22788],[-51.4933,0.46798],[-51.56944,0.21742]]]},"properties":{"cod_ibge":"160060","name":"Santana","uf":"AP"}},
{"type":"Feature","geometry":{"type":"Polygon","coordinates":[[[-50.64475,0.20878],[-50.68425,0.38067],[-50.77658,0.54574],[-50.92554,0.64897],[-50.82798,0.75174],[-50.74707,0.64305],[-50.6319,0.62486],[-50.61429,0.75219],[-50.45677,0.72991],[-50.40965,0.6235],[-50.22595,0.69626],[-50.09745,0.7672],[-49.98895,0.93954],[-49.88996,1.01367],[-49.90186,1.24013],[-50.067,1.21694],[-50.18597,1.0505],[-50.30733,0.94455],[-50.4206,0.96046],[-50.53434,0.87315],[-50.79561,0.84359],[-50.88699,0.79812],[-50.97408,0.69626],[-51.00168,0.49663],[-51.04832,0.42341],[-51.13636,0.33429],[-51.26296,0.45343],[-51.46093,0.50572],[-51.4933,0.46798],[-51.3253,0.22788],[-51.19014,0.15648],[-51.24344,0.0478],[-51.11828,-0.09772],[-50.97503,0.04189],[-50.74374,0.13056],[-50.64475,0.20878]]]},"properties":{"cod_ibge":"160030","name":"Macapá","uf":"AP"}},
{"type":"Feature","geometry":{"type":"Polygon","coordinates":[[[-52.75303,0.82404],[-52.68545,0.76674],[-52.69211,0.63987],[-52.57266,0.38294],[-52.49508,0.28745],[-52.50555,-0.01496],[-52.556,-0.09544],[-52.35231,-0.14274],[-52.28664,-0.25188],[-52.08152,-0.33646],[-52.0563,-0.64068],[-51.93542,-0.76755],[-51.93779,-0.87032],[-51.8231,-0.90943],[-51.68366,-0.79574],[-51.59562,-0.65023],[-51.43238,-0.47333],[-51.34767,-0.29962],[-51.20823,-0.11682],[-51.4024,-0.06361],[-51.53042,0.05007],[-51.56944,0.21742],[-51.69365,0.31973],[-51.69698,0.39749],[-52.09009,0.50618],[-52.23857,0.39113],[-52.34803,0.43251],[-52.54648,0.72081],[-52.75303,0.82404]]]},"properties":{"cod_ibge":"160040","name":"Mazagão","uf":"AP"}},
{"type":"Feature","geometry":{"type":"MultiPolygon","coordinates":[[[[-51.64701,1.87631],[-51.44571,1.77217],[-51.2858,1.89404],[-51.10686,1.85039],[-50.64047,1.82947],[-50.54053,1.5971],[-50.56051,1.4725],[-50.42298,1.18738],[-50.30828,1.17555],[-50.27782,1.31789],[-50.13172,1.3288],[-50.067,1.21694],[-49.90186,1.24013],[-49.88187,1.50024],[-49.92042,1.68805],[-50.15885,1.81128],[-50.42393,1.80446],[-50.68377,2.1437],[-51.07545,2.18099],[-51.37479,2.01819],[-51.49472,2.0241],[-51.57087,2.11414],[-51.65891,1.95316],[-51.64701,1.87631]]],[[[-50.43725,2.11232],[-50.50436,2.09413],[-50.45486,1.88859],[-50.31732,1.9477],[-50.43725,2.11232]]]]},"properties":{"cod_ibge":"160010","name":"Amapá","uf":"AP"}},
{"type":"Feature","geometry":{"type":"Polygon","coordinates":[[[-52.75303,0.82404],[-52.54648,0.72081],[-52.34803,0.43251],[-52.23667,0.58576],[-52.01965,0.69308],[-51.7046,0.70353],[-51.78788,0.88452],[-51.78312,0.99411],[-51.81501,0.97592],[-51.95731,0.84814],[-52.05772,0.87906],[-52.10436,0.98911],[-52.27521,1.06915],[-52.44654,1.28469],[-52.51269,1.6503],[-52.66213,1.82674],[-52.75588,1.86676],[-52.86772,2.02455],[-52.91436,1.94861],[-53.05904,1.94634],[-52.97385,1.71761],[-52.96481,1.5589],[-52.86915,1.44431],[-52.97242,1.20602],[-52.86677,0.96683],[-52.75303,0.82404]]]},"properties":{"cod_ibge":"160015","name":"Pedra Branca do Amapari","uf":"AP"}}
]}