{"type":"FeatureCollection", "features": [
{"type":"Feature","geometry":{"type":"Polygon","coordinates":[[[-35.34142,-8.72505],[-35.10251,-8.6864],[-35.26432,-8.63046],[-35.2648,-8.63046],[-35.34142,-8.72505]]]},"properties":{"cod_ibge":"261190","name":"Rio Formoso","uf":"PE"}},
{"type":"Feature","geometry":{"type":"Polygon","coordinates":[[[-36.62495,-9.33167],[-36.50026,-9.26301],[-36.53024,-9.10339],[-36.5331,-9.10158],[-36.6773,-9.12431],[-36.68919,-9.02063],[-36.78438,-9.1134],[-36.87242,-9.16797],[-36.87956,-9.2762],[-36.79675,-9.28029],[-36.69966,-9.29302],[-36.62495,-9.33167]]]},"properties":{"cod_ibge":"260210","name":"Bom Conselho","uf":"PE"}},
{"type":"Feature","geometry":{"type":"Polygon","coordinates":[[[-35.96676,-8.74324],[-35.9482,-8.62956],[-35.99627,-8.54679],[-36.09478,-8.59136],[-36.18187,-8.66502],[-36.07527,-8.77052],[-35.96629,-8.75097],[-35.96676,-8.74324]]]},"properties":{"cod_ibge":"261020","name":"Panelas","uf":"PE"}},
{"type":"Feature","geometry":{"type":"Polygon","coordinates":[[[-37.43161,-7.35674],[-37.52156,-7.4395],[-37.4497,-7.535],[-37.36736,-7.37947],[-37.43161,-7.35674]]]},"properties":{"cod_ibge":"261280","name":"Santa Terezinha","uf":"PE"}},
{"type":"Feature","geometry":{"type":"Polygon","coordinates":[[[-36.03339,-8.90831],[-35.98818,-8.90422],[-35.95058,-8.8924],[-35.96629,-8.75097],[-36.07527,-8.77052],[-36.12096,-8.83692],[-36.03339,-8.90831]]]},"properties":{"cod_ibge":"261150","name":"Quipapá","uf":"PE"}},
{"type":"Feature","geometry":{"type":"Polygon","coordinates":[[[-35.14011,-8.30987],[-35.2648,-8.24303],[-35.35808,-8.30032],[-35.34618,-8.42765],[-35.27289,-8.48768],[-35.20293,-8.47904],[-35.23815,-8.41765],[-35.14011,-8.30987]]]},"properties":{"cod_ibge":"260520","name":"Escada","uf":"PE"}},
{"type":"Feature","geometry":{"type":"Polygon","coordinates":[[[-35.12155,-7.67051],[-35.09823,-7.71507],[-34.92405,-7.69188],[-35.07253,-7.61821],[-35.12155,-7.67051]]]},"properties":{"cod_ibge":"260780","name":"Itaquitinga","uf":"PE"}},
{"type":"Feature","geometry":{"type":"Polygon","coordinates":[[[-37.84708,-7.80284],[-37.76713,-7.65732],[-37.90324,-7.69825],[-37.95797,-7.766],[-37.84708,-7.80284]]]},"properties":{"cod_ibge":"261153","name":"Quixaba","uf":"PE"}},
{"type":"Feature","geometry":{"type":"Polygon","coordinates":[[[-38.91121,-8.33034],[-38.75702,-8.57499],[-38.62805,-8.61637],[-38.54952,-8.2885],[-38.62852,-8.31078],[-38.8127,-8.2353],[-38.91121,-8.33034]]]},"properties":{"cod_ibge":"260392","name":"Carnaubeira da Penha","uf":"PE"}},
{"type":"Feature","geometry":{"type":"Polygon","coordinates":[[[-35.65219,-8.88239],[-35.5827,-8.84647],[-35.6065,-8.77553],[-35.72072,-8.80099],[-35.7231,-8.90968],[-35.65219,-8.88239]]]},"properties":{"cod_ibge":"261650","name":"Xexéu","uf":"PE"}},
{"type":"Feature","geometry":{"type":"Polygon","coordinates":[[[-37.56249,-7.63413],[-37.53536,-7.7178],[-37.51965,-7.71007],[-37.41543,-7.64277],[-37.4497,-7.535],[-37.52156,-7.4395],[-37.572,-7.48907],[-37.62007,-7.5259],[-37.56249,-7.63413]]]},"properties":{"cod_ibge":"261460","name":"Tabira","uf":"PE"}},
{"type":"Feature","geometry":{"type":"Polygon","coordinates":[[[-36.86576,-8.8883],[-36.98521,-9.12931],[-36.94618,-9.18661],[-37.05517,-9.30757],[-36.9795,-9.35941],[-36.93667,-9.3776],[-36.87956,-9.2762],[-36.87242,-9.16797],[-36.78438,-9.1134],[-36.78675,-9.00835],[-36.86528,-8.88876],[-36.86576,-8.8883]]]},"properties":{"cod_ibge":"260650","name":"Iati","uf":"PE"}},
{"type":"Feature","geometry":{"type":"Polygon","coordinates":[[[-39.46374,-8.23848],[-39.31716,-8.18255],[-39.29813,-8.04339],[-39.36047,-8.05067],[-39.46374,-8.23848]]]},"properties":{"cod_ibge":"261520","name":"Terra Nova","uf":"PE"}},
{"type":"Feature","geometry":{"type":"Polygon","coordinates":[[[-35.82542,-8.52315],[-35.76212,-8.38445],[-35.84541,-8.37854],[-35.90299,-8.38445],[-35.8792,-8.5477],[-35.85017,-8.59318],[-35.82542,-8.52315]]]},"properties":{"cod_ibge":"261330","name":"São Joaquim do Monte","uf":"PE"}},
{"type":"Feature","geometry":{"type":"Polygon","coordinates":[[[-37.69146,-7.98382],[-37.61674,-7.89606],[-37.61722,-7.89469],[-37.70621,-7.76964],[-37.70478,-7.61685],[-37.74571,-7.60912],[-37.75333,-7.62594],[-37.76713,-7.65732],[-37.84708,-7.80284],[-37.74571,-7.87196],[-37.69146,-7.98382]]]},"properties":{"cod_ibge":"260390","name":"Carnaíba","uf":"PE"}},
{"type":"Feature","geometry":{"type":"Polygon","coordinates":[[[-41.35834,-8.70777],[-41.13133,-8.70413],[-41.10325,-8.78053],[-40.95905,-8.84192],[-40.75822,-8.62364],[-40.84816,-8.55452],[-40.86196,-8.37081],[-40.97856,-8.39855],[-41.14941,-8.53406],[-41.21366,-8.64411],[-41.35834,-8.70777]]]},"properties":{"cod_ibge":"260020","name":"Afrânio","uf":"PE"}},
{"type":"Feature","geometry":{"type":"Polygon","coordinates":[[[-35.75832,-8.29032],[-35.72215,-8.38763],[-35.70025,-8.37308],[-35.63458,-8.37399],[-35.65219,-8.20301],[-35.75832,-8.29032]]]},"properties":{"cod_ibge":"261200","name":"Sairé","uf":"PE"}},
{"type":"Feature","geometry":{"type":"Polygon","coordinates":[[[-36.4441,-8.14571],[-36.35415,-8.21938],[-36.2071,-8.22575],[-36.19282,-8.2362],[-36.12286,-8.18755],[-36.1814,-8.07159],[-36.11192,-7.99656],[-36.16474,-7.96609],[-36.3256,-7.96836],[-36.44362,-7.92016],[-36.38033,-7.97655],[-36.4441,-8.14571]]]},"properties":{"cod_ibge":"260260","name":"Brejo da Madre de Deus","uf":"PE"}},
{"type":"Feature","geometry":{"type":"Polygon","coordinates":[[[-35.70025,-8.37308],[-35.57747,-8.43129],[-35.55034,-8.35808],[-35.63458,-8.37399],[-35.70025,-8.37308]]]},"properties":{"cod_ibge":"260130","name":"Barra de Guabiraba","uf":"PE"}},
{"type":"Feature","geometry":{"type":"Polygon","coordinates":[[[-35.3043,-7.94153],[-35.45706,-7.98883],[-35.42756,-8.08159],[-35.25813,-8.05749],[-35.22435,-7.95563],[-35.25671,-7.94244],[-35.3043,-7.94153]]]},"properties":{"cod_ibge":"260610","name":"Glória do Goitá","uf":"PE"}},
{"type":"Feature","geometry":{"type":"Polygon","coordinates":[[[-35.82637,-8.87057],[-35.7231,-8.90968],[-35.72072,-8.80099],[-35.7745,-8.76598],[-35.84731,-8.80781],[-35.84493,-8.87239],[-35.83541,-8.86875],[-35.83398,-8.87011],[-35.83161,-8.86875],[-35.82637,-8.87057]]]},"properties":{"cod_ibge":"260920","name":"Maraial","uf":"PE"}},
{"type":"Feature","geometry":{"type":"Polygon","coordinates":[[[-36.86528,-8.88876],[-36.63066,-8.95651],[-36.6121,-8.90649],[-36.75915,-8.83373],[-36.86861,-8.88739],[-36.86576,-8.8883],[-36.86528,-8.88876]]]},"properties":{"cod_ibge":"261030","name":"Paranatama","uf":"PE"}},
{"type":"Feature","geometry":{"type":"Polygon","coordinates":[[[-35.75213,-7.8092],[-35.78973,-7.74054],[-35.82542,-7.74963],[-35.8811,-7.76646],[-35.84588,-7.80875],[-35.75213,-7.8092]]]},"properties":{"cod_ibge":"261618","name":"Vertente do Lério","uf":"PE"}},
{"type":"Feature","geometry":{"type":"Polygon","coordinates":[[[-35.22244,-8.01884],[-35.16628,-7.977],[-35.22435,-7.95563],[-35.25813,-8.05749],[-35.22244,-8.01884]]]},"properties":{"cod_ibge":"260440","name":"Chã de Alegria","uf":"PE"}},
{"type":"Feature","geometry":{"type":"Polygon","coordinates":[[[-36.22423,-8.45403],[-36.36129,-8.389],[-36.30704,-8.53133],[-36.33179,-8.61455],[-36.27372,-8.56225],[-36.26706,-8.56225],[-36.21757,-8.48813],[-36.22423,-8.45403]]]},"properties":{"cod_ibge":"260310","name":"Cachoeirinha","uf":"PE"}},
{"type":"Feature","geometry":{"type":"Polygon","coordinates":[[[-38.62662,-8.62001],[-38.69372,-8.91877],[-38.57046,-8.83055],[-38.47004,-8.86557],[-38.19021,-8.67685],[-38.06552,-8.68458],[-38.02459,-8.65229],[-37.85755,-8.59545],[-37.78664,-8.41401],[-37.89419,-8.39309],[-37.96653,-8.45857],[-38.16784,-8.39809],[-38.17879,-8.27668],[-38.36772,-8.28077],[-38.46909,-8.40218],[-38.54952,-8.2885],[-38.62805,-8.61637],[-38.62662,-8.62001]]]},"properties":{"cod_ibge":"260570","name":"Floresta","uf":"PE"}},
{"type":"Feature","geometry":{"type":"Polygon","coordinates":[[[-38.0522,-7.92152],[-38.0008,-7.77874],[-38.06933,-7.77237],[-38.12025,-7.81875],[-38.11978,-7.90879],[-38.0522,-7.92152]]]},"properties":{"cod_ibge":"261570","name":"Triunfo","uf":"PE"}},
{"type":"Feature","geometry":{"type":"Polygon","coordinates":[[[-35.86111,-8.75143],[-35.96676,-8.74324],[-35.96629,-8.75097],[-35.95058,-8.8924],[-35.84493,-8.87239],[-35.84731,-8.80781],[-35.86111,-8.75143]]]},"properties":{"cod_ibge":"261290","name":"São Benedito do Sul","uf":"PE"}},
{"type":"Feature","geometry":{"type":"Polygon","coordinates":[[[-35.01685,-8.05567],[-34.90882,-8.15526],[-34.86075,-8.0443],[-34.91405,-7.97928],[-35.00019,-7.92926],[-34.99591,-8.03703],[-35.01685,-8.05567]]]},"properties":{"cod_ibge":"261160","name":"Recife","uf":"PE"}},
{"type":"Feature","geometry":{"type":"Polygon","coordinates":[[[-36.36129,-8.389],[-36.22423,-8.45403],[-36.19282,-8.2362],[-36.2071,-8.22575],[-36.33321,-8.29623],[-36.36129,-8.389]]]},"properties":{"cod_ibge":"261470","name":"Tacaimbó","uf":"PE"}},
{"type":"Feature","geometry":{"type":"Polygon","coordinates":[[[-35.15248,-8.91377],[-35.13012,-8.86238],[-35.23482,-8.8833],[-35.15248,-8.91377]]]},"properties":{"cod_ibge":"261340","name":"São José da Coroa Grande","uf":"PE"}},
{"type":"Feature","geometry":{"type":"Polygon","coordinates":[[[-36.38223,-8.63547],[-36.24945,-8.7869],[-36.19472,-8.71232],[-36.27372,-8.56225],[-36.33179,-8.61455],[-36.38271,-8.63501],[-36.38223,-8.63547]]]},"properties":{"cod_ibge":"260880","name":"Lajedo","uf":"PE"}},
{"type":"Feature","geometry":{"type":"Polygon","coordinates":[[[-35.96867,-8.53588],[-35.8792,-8.5477],[-35.90299,-8.38445],[-35.92108,-8.36581],[-36.00722,-8.36126],[-35.96867,-8.53588]]]},"properties":{"cod_ibge":"260030","name":"Agrestina","uf":"PE"}},
{"type":"Feature","geometry":{"type":"Polygon","coordinates":[[[-34.92214,-7.69052],[-34.86218,-7.71143],[-34.84838,-7.68779],[-34.8341,-7.54864],[-34.85361,-7.53954],[-34.98496,-7.49998],[-34.98544,-7.46178],[-35.06111,-7.54136],[-35.07253,-7.61821],[-34.92405,-7.69188],[-34.92214,-7.69052]]]},"properties":{"cod_ibge":"260620","name":"Goiana","uf":"PE"}},
{"type":"Feature","geometry":{"type":"Polygon","coordinates":[[[-35.91156,-7.87923],[-35.94344,-7.7901],[-36.00341,-7.81284],[-36.07099,-7.98064],[-36.01197,-7.98746],[-35.9582,-7.99019],[-35.91156,-7.87923]]]},"properties":{"cod_ibge":"261620","name":"Vertentes","uf":"PE"}},
{"type":"Feature","geometry":{"type":"Polygon","coordinates":[[[-37.51918,-8.96834],[-37.39544,-9.02791],[-37.27837,-9.15251],[-37.22935,-9.22663],[-37.19842,-9.21526],[-37.09943,-8.97107],[-37.10133,-8.96015],[-37.25505,-8.81236],[-37.36546,-8.79826],[-37.51918,-8.96834]]]},"properties":{"cod_ibge":"260750","name":"Itaíba","uf":"PE"}},
{"type":"Feature","geometry":{"type":"Polygon","coordinates":[[[-38.8127,-8.2353],[-38.62852,-8.31078],[-38.54952,-8.2885],[-38.59806,-8.13252],[-38.77843,-8.00292],[-38.8779,-8.0102],[-38.91074,-8.0866],[-38.8127,-8.2353]]]},"properties":{"cod_ibge":"260930","name":"Mirandiba","uf":"PE"}},
{"type":"Feature","geometry":{"type":"Polygon","coordinates":[[[-35.65409,-7.94426],[-35.51417,-7.9388],[-35.52084,-7.90424],[-35.68122,-7.91016],[-35.65409,-7.94426]]]},"properties":{"cod_ibge":"261210","name":"Salgadinho","uf":"PE"}},
{"type":"Feature","geometry":{"type":"Polygon","coordinates":[[[-35.40567,-7.77555],[-35.3043,-7.766],[-35.25956,-7.67551],[-35.41281,-7.74054],[-35.40567,-7.77555]]]},"properties":{"cod_ibge":"260270","name":"Buenos Aires","uf":"PE"}},
{"type":"Feature","geometry":{"type":"Polygon","coordinates":[[[-35.10299,-8.78508],[-35.22387,-8.7537],[-35.36141,-8.80645],[-35.409,-8.83783],[-35.35094,-8.86056],[-35.23482,-8.8833],[-35.13012,-8.86238],[-35.10299,-8.78508]]]},"properties":{"cod_ibge":"260140","name":"Barreiros","uf":"PE"}},
{"type":"Feature","geometry":{"type":"Polygon","coordinates":[[[-35.46658,-8.26122],[-35.43946,-8.25258],[-35.4485,-8.17118],[-35.50989,-8.30032],[-35.46658,-8.26122]]]},"properties":{"cod_ibge":"260450","name":"Chã Grande","uf":"PE"}},
{"type":"Feature","geometry":{"type":"Polygon","coordinates":[[[-36.75915,-8.83373],[-36.6121,-8.90649],[-36.54023,-8.78371],[-36.70204,-8.72369],[-36.77343,-8.73187],[-36.75915,-8.83373]]]},"properties":{"cod_ibge":"260320","name":"Caetés","uf":"PE"}},
{"type":"Feature","geometry":{"type":"Polygon","coordinates":[[[-36.4441,-8.14571],[-36.38033,-7.97655],[-36.44362,-7.92016],[-36.44648,-7.91652],[-36.53643,-7.90152],[-36.5726,-7.93608],[-36.62875,-8.11115],[-36.68681,-8.15572],[-36.60591,-8.21256],[-36.4441,-8.14571]]]},"properties":{"cod_ibge":"260800","name":"Jataúba","uf":"PE"}},
{"type":"Feature","geometry":{"type":"Polygon","coordinates":[[[-38.31299,-9.14841],[-38.2378,-9.32986],[-38.15642,-9.25028],[-38.09217,-9.17252],[-38.20496,-9.10385],[-38.31299,-9.14841]]]},"properties":{"cod_ibge":"260805","name":"Jatobá","uf":"PE"}},
{"type":"Feature","geometry":{"type":"Polygon","coordinates":[[[-38.0284,-8.13343],[-38.16356,-7.90561],[-38.2221,-7.82057],[-38.31109,-7.73917],[-38.43435,-7.72053],[-38.4572,-7.71826],[-38.59378,-7.75418],[-38.55523,-7.90515],[-38.59806,-8.13252],[-38.54952,-8.2885],[-38.46909,-8.40218],[-38.36772,-8.28077],[-38.17879,-8.27668],[-38.0284,-8.13343]]]},"properties":{"cod_ibge":"261390","name":"Serra Talhada","uf":"PE"}},
{"type":"Feature","geometry":{"type":"Polygon","coordinates":[[[-35.91632,-8.00565],[-35.80495,-7.97336],[-35.82209,-7.85968],[-35.91156,-7.87923],[-35.9582,-7.99019],[-35.91632,-8.00565]]]},"properties":{"cod_ibge":"260580","name":"Frei Miguelinho","uf":"PE"}},
{"type":"Feature","geometry":{"type":"Polygon","coordinates":[[[-37.36546,-8.79826],[-37.25505,-8.81236],[-37.10133,-8.96015],[-37.0842,-8.85465],[-37.16082,-8.76643],[-37.28075,-8.75143],[-37.30169,-8.64229],[-37.22316,-8.40537],[-37.36832,-8.41856],[-37.39068,-8.51087],[-37.36546,-8.79826]]]},"properties":{"cod_ibge":"261580","name":"Tupanatinga","uf":"PE"}},
{"type":"Feature","geometry":{"type":"Polygon","coordinates":[[[-35.51417,-7.9388],[-35.44184,-7.96109],[-35.35522,-7.8906],[-35.40567,-7.82512],[-35.40567,-7.77555],[-35.41281,-7.74054],[-35.41899,-7.72144],[-35.5037,-7.81011],[-35.52084,-7.90424],[-35.51417,-7.9388]]]},"properties":{"cod_ibge":"260890","name":"Limoeiro","uf":"PE"}},
{"type":"Feature","geometry":{"type":"Polygon","coordinates":[[[-35.96867,-8.53588],[-36.00722,-8.36126],[-36.06242,-8.38263],[-36.21757,-8.48813],[-36.26706,-8.56225],[-36.09478,-8.59136],[-35.99627,-8.54679],[-35.96867,-8.53588]]]},"properties":{"cod_ibge":"260080","name":"Altinho","uf":"PE"}},
{"type":"Feature","geometry":{"type":"Polygon","coordinates":[[[-35.6065,-8.77553],[-35.53749,-8.65866],[-35.5908,-8.51451],[-35.69074,-8.59727],[-35.72072,-8.80099],[-35.6065,-8.77553]]]},"properties":{"cod_ibge":"261000","name":"Palmares","uf":"PE"}},
{"type":"Feature","geometry":{"type":"Polygon","coordinates":[[[-39.97868,-9.05474],[-39.87445,-8.93696],[-39.89301,-8.82873],[-39.69503,-8.79963],[-39.64602,-8.65957],[-39.67219,-8.45675],[-39.74738,-8.34807],[-39.89825,-8.37354],[-40.1086,-8.34807],[-40.19617,-8.51178],[-40.07386,-8.63228],[-40.09718,-8.95697],[-40.00485,-9.05974],[-39.97868,-9.05474]]]},"properties":{"cod_ibge":"261260","name":"Santa Maria da Boa Vista","uf":"PE"}},
{"type":"Feature","geometry":{"type":"Polygon","coordinates":[[[-35.75213,-7.8092],[-35.70787,-7.83058],[-35.63648,-7.761],[-35.67979,-7.7037],[-35.78973,-7.74054],[-35.75213,-7.8092]]]},"properties":{"cod_ibge":"260415","name":"Casinhas","uf":"PE"}},
{"type":"Feature","geometry":{"type":"Polygon","coordinates":[[[-35.43946,-8.25258],[-35.36664,-8.29896],[-35.34332,-8.11752],[-35.42946,-8.08114],[-35.4623,-8.09387],[-35.4485,-8.17118],[-35.43946,-8.25258]]]},"properties":{"cod_ibge":"261130","name":"Pombos","uf":"PE"}},
{"type":"Feature","geometry":{"type":"Polygon","coordinates":[[[-35.75832,-8.29032],[-35.65219,-8.20301],[-35.6303,-8.10388],[-35.64981,-8.10524],[-35.83779,-8.11433],[-35.88015,-8.20619],[-35.92108,-8.36581],[-35.90299,-8.38445],[-35.84541,-8.37854],[-35.75832,-8.29032]]]},"properties":{"cod_ibge":"260190","name":"Bezerros","uf":"PE"}},
{"type":"Feature","geometry":{"type":"Polygon","coordinates":[[[-34.84505,-7.81648],[-34.84838,-7.68779],[-34.86218,-7.71143],[-34.89026,-7.80193],[-34.84505,-7.81648]]]},"properties":{"cod_ibge":"260760","name":"Ilha de Itamaracá","uf":"PE"}},
{"type":"Feature","geometry":{"type":"Polygon","coordinates":[[[-36.8215,-8.41947],[-36.70062,-8.42128],[-36.75868,-8.59863],[-36.69015,-8.67003],[-36.614,-8.55771],[-36.55784,-8.50632],[-36.6278,-8.34534],[-36.56022,-8.28259],[-36.60591,-8.21256],[-36.64017,-8.27759],[-36.78771,-8.18982],[-36.90811,-8.25303],[-36.89669,-8.44175],[-36.8215,-8.41947]]]},"properties":{"cod_ibge":"261090","name":"Pesqueira","uf":"PE"}},
{"type":"Feature","geometry":{"type":"Polygon","coordinates":[[[-35.15724,-7.5018],[-35.09728,-7.54364],[-35.06111,-7.54136],[-34.98544,-7.46178],[-35.15391,-7.39266],[-35.28003,-7.38766],[-35.33285,-7.4154],[-35.23719,-7.44041],[-35.15724,-7.5018]]]},"properties":{"cod_ibge":"260765","name":"Itambé","uf":"PE"}},
{"type":"Feature","geometry":{"type":"Polygon","coordinates":[[[-39.59033,-7.766],[-39.61603,-7.7037],[-39.81449,-7.69052],[-39.76261,-7.91243],[-39.57368,-7.87059],[-39.59033,-7.766]]]},"properties":{"cod_ibge":"260630","name":"Granito","uf":"PE"}},
{"type":"Feature","geometry":{"type":"Polygon","coordinates":[[[-35.25956,-7.67551],[-35.27289,-7.59138],[-35.42899,-7.61639],[-35.44993,-7.60275],[-35.44517,-7.69234],[-35.41899,-7.72144],[-35.41281,-7.74054],[-35.25956,-7.67551]]]},"properties":{"cod_ibge":"261630","name":"Vicência","uf":"PE"}},
{"type":"Feature","geometry":{"type":"Polygon","coordinates":[[[-37.56249,-7.63413],[-37.62007,-7.5259],[-37.73477,-7.59729],[-37.74571,-7.60912],[-37.70478,-7.61685],[-37.56249,-7.63413]]]},"properties":{"cod_ibge":"261440","name":"Solidão","uf":"PE"}},
{"type":"Feature","geometry":{"type":"Polygon","coordinates":[[[-36.16474,-7.96609],[-36.11192,-7.99656],[-36.09764,-8.00474],[-36.07099,-7.98064],[-36.00341,-7.81284],[-36.02149,-7.81011],[-36.12667,-7.78419],[-36.26373,-7.83194],[-36.16474,-7.96609]]]},"properties":{"cod_ibge":"261500","name":"Taquaritinga do Norte","uf":"PE"}},
{"type":"Feature","geometry":{"type":"Polygon","coordinates":[[[-36.06242,-8.38263],[-36.12286,-8.18755],[-36.19282,-8.2362],[-36.22423,-8.45403],[-36.21757,-8.48813],[-36.06242,-8.38263]]]},"properties":{"cod_ibge":"261310","name":"São Caitano","uf":"PE"}},
{"type":"Feature","geometry":{"type":"Polygon","coordinates":[[[-36.23327,-8.93332],[-36.11144,-9.01745],[-36.03339,-8.90831],[-36.12096,-8.83692],[-36.18711,-8.71186],[-36.19472,-8.71232],[-36.24945,-8.7869],[-36.29942,-8.83237],[-36.23327,-8.93332]]]},"properties":{"cod_ibge":"260370","name":"Canhotinho","uf":"PE"}},
{"type":"Feature","geometry":{"type":"Polygon","coordinates":[[[-34.96069,-8.36672],[-35.14011,-8.30987],[-35.23815,-8.41765],[-35.20293,-8.47904],[-35.07729,-8.52951],[-35.04826,-8.60955],[-34.96069,-8.36672]]]},"properties":{"cod_ibge":"260720","name":"Ipojuca","uf":"PE"}},
{"type":"Feature","geometry":{"type":"Polygon","coordinates":[[[-35.03113,-7.92971],[-34.86646,-7.89106],[-35.05397,-7.88014],[-35.14011,-7.79238],[-35.03113,-7.92971]]]},"properties":{"cod_ibge":"260005","name":"Abreu e Lima","uf":"PE"}},
{"type":"Feature","geometry":{"type":"Polygon","coordinates":[[[-36.47837,-9.08611],[-36.60067,-9.03336],[-36.5331,-9.10158],[-36.53024,-9.10339],[-36.47837,-9.08611]]]},"properties":{"cod_ibge":"260240","name":"Brejão","uf":"PE"}},
{"type":"Feature","geometry":{"type":"Polygon","coordinates":[[[-40.34513,-7.84877],[-40.35988,-7.70962],[-40.27231,-7.56228],[-40.34513,-7.329],[-40.52359,-7.31854],[-40.65209,-7.43313],[-40.71491,-7.48043],[-40.62163,-7.65823],[-40.6735,-7.76146],[-40.555,-7.8183],[-40.54406,-7.96154],[-40.56071,-7.99747],[-40.45411,-7.87696],[-40.34513,-7.84877]]]},"properties":{"cod_ibge":"260110","name":"Araripina","uf":"PE"}},
{"type":"Feature","geometry":{"type":"Polygon","coordinates":[[[-35.5018,-7.51271],[-35.44993,-7.60275],[-35.42899,-7.61639],[-35.43422,-7.47088],[-35.49514,-7.48406],[-35.5018,-7.51271]]]},"properties":{"cod_ibge":"260900","name":"Macaparana","uf":"PE"}},
{"type":"Feature","geometry":{"type":"Polygon","coordinates":[[[-35.54844,-8.33943],[-35.44564,-8.45175],[-35.40567,-8.42811],[-35.46658,-8.26122],[-35.50989,-8.30032],[-35.54844,-8.33943]]]},"properties":{"cod_ibge":"260090","name":"Amaraji","uf":"PE"}},
{"type":"Feature","geometry":{"type":"Polygon","coordinates":[[[-36.36653,-9.01836],[-36.19568,-9.04473],[-36.12143,-9.02791],[-36.11144,-9.01745],[-36.23327,-8.93332],[-36.30609,-8.95333],[-36.37747,-8.98925],[-36.36653,-9.01836]]]},"properties":{"cod_ibge":"261010","name":"Palmeirina","uf":"PE"}},
{"type":"Feature","geometry":{"type":"Polygon","coordinates":[[[-35.7745,-8.76598],[-35.72072,-8.80099],[-35.69074,-8.59727],[-35.80353,-8.59454],[-35.81019,-8.67276],[-35.814,-8.67503],[-35.7745,-8.76598]]]},"properties":{"cod_ibge":"260420","name":"Catende","uf":"PE"}},
{"type":"Feature","geometry":{"type":"Polygon","coordinates":[[[-34.89026,-7.80193],[-34.92214,-7.69052],[-34.92405,-7.69188],[-35.09823,-7.71507],[-35.09966,-7.7228],[-35.05397,-7.88014],[-34.86646,-7.89106],[-34.84124,-7.84513],[-34.84505,-7.81648],[-34.89026,-7.80193]]]},"properties":{"cod_ibge":"260680","name":"Igarassu","uf":"PE"}},
{"type":"Feature","geometry":{"type":"Polygon","coordinates":[[[-35.22577,-7.82421],[-35.14011,-7.79238],[-35.09966,-7.7228],[-35.09823,-7.71507],[-35.12155,-7.67051],[-35.12202,-7.6696],[-35.15534,-7.70962],[-35.25242,-7.80875],[-35.22577,-7.82421]]]},"properties":{"cod_ibge":"261550","name":"Tracunhaém","uf":"PE"}},
{"type":"Feature","geometry":{"type":"Polygon","coordinates":[[[-35.31334,-7.47815],[-35.20816,-7.52181],[-35.15724,-7.5018],[-35.23719,-7.44041],[-35.31334,-7.47815]]]},"properties":{"cod_ibge":"260550","name":"Ferreiros","uf":"PE"}},
{"type":"Feature","geometry":{"type":"Polygon","coordinates":[[[-40.19759,-8.2212],[-40.12859,-8.1539],[-40.0058,-8.17027],[-39.85351,-8.02793],[-39.93632,-7.82512],[-40.08338,-7.8092],[-40.10384,-7.68688],[-40.23852,-7.68506],[-40.2371,-7.81875],[-40.34513,-7.84877],[-40.45411,-7.87696],[-40.56071,-7.99747],[-40.57547,-8.03021],[-40.57594,-8.03066],[-40.42841,-8.06977],[-40.31657,-8.05749],[-40.19759,-8.2212]]]},"properties":{"cod_ibge":"260990","name":"Ouricuri","uf":"PE"}},
{"type":"Feature","geometry":{"type":"Polygon","coordinates":[[[-35.91156,-7.87923],[-35.82209,-7.85968],[-35.84588,-7.80875],[-35.8811,-7.76646],[-35.94344,-7.7901],[-35.91156,-7.87923]]]},"properties":{"cod_ibge":"261270","name":"Santa Maria do Cambucá","uf":"PE"}},
{"type":"Feature","geometry":{"type":"Polygon","coordinates":[[[-35.34618,-8.42765],[-35.35808,-8.30032],[-35.36664,-8.29896],[-35.43946,-8.25258],[-35.46658,-8.26122],[-35.40567,-8.42811],[-35.34618,-8.42765]]]},"properties":{"cod_ibge":"261140","name":"Primavera","uf":"PE"}},
{"type":"Feature","geometry":{"type":"Polygon","coordinates":[[[-35.80495,-7.97336],[-35.75784,-7.97473],[-35.65409,-7.94426],[-35.68122,-7.91016],[-35.68788,-7.84695],[-35.70787,-7.83058],[-35.75213,-7.8092],[-35.84588,-7.80875],[-35.82209,-7.85968],[-35.80495,-7.97336]]]},"properties":{"cod_ibge":"261450","name":"Surubim","uf":"PE"}},
{"type":"Feature","geometry":{"type":"Polygon","coordinates":[[[-36.30609,-8.95333],[-36.34226,-8.80099],[-36.40079,-8.77689],[-36.44458,-8.79963],[-36.37747,-8.98925],[-36.30609,-8.95333]]]},"properties":{"cod_ibge":"261320","name":"São João","uf":"PE"}},
{"type":"Feature","geometry":{"type":"Polygon","coordinates":[[[-36.70204,-8.72369],[-36.54023,-8.78371],[-36.48693,-8.79554],[-36.48693,-8.70413],[-36.614,-8.55771],[-36.69015,-8.67003],[-36.70204,-8.72369]]]},"properties":{"cod_ibge":"260380","name":"Capoeiras","uf":"PE"}},
{"type":"Feature","geometry":{"type":"Polygon","coordinates":[[[-36.4027,-9.22345],[-36.46504,-9.07793],[-36.47837,-9.08611],[-36.53024,-9.10339],[-36.50026,-9.26301],[-36.4027,-9.22345]]]},"properties":{"cod_ibge":"260860","name":"Lagoa do Ouro","uf":"PE"}},
{"type":"Feature","geometry":{"type":"Polygon","coordinates":[[[-37.70478,-7.61685],[-37.70621,-7.76964],[-37.61722,-7.89469],[-37.53536,-7.7178],[-37.56249,-7.63413],[-37.70478,-7.61685]]]},"properties":{"cod_ibge":"260010","name":"Afogados da Ingazeira","uf":"PE"}},
{"type":"Feature","geometry":{"type":"Polygon","coordinates":[[[-36.8215,-8.41947],[-36.91239,-8.61228],[-36.77343,-8.73187],[-36.70204,-8.72369],[-36.69015,-8.67003],[-36.75868,-8.59863],[-36.8215,-8.41947]]]},"properties":{"cod_ibge":"261600","name":"Venturosa","uf":"PE"}},
{"type":"Feature","geometry":{"type":"Polygon","coordinates":[[[-36.60067,-9.03336],[-36.47837,-9.08611],[-36.46504,-9.07793],[-36.36653,-9.01836],[-36.37747,-8.98925],[-36.44458,-8.79963],[-36.48693,-8.79554],[-36.54023,-8.78371],[-36.6121,-8.90649],[-36.63066,-8.95651],[-36.63732,-9.02063],[-36.60067,-9.03336]]]},"properties":{"cod_ibge":"260600","name":"Garanhuns","uf":"PE"}},
{"type":"Feature","geometry":{"type":"Polygon","coordinates":[[[-40.23852,-7.68506],[-40.10384,-7.68688],[-40.15714,-7.37129],[-40.24423,-7.31627],[-40.34513,-7.329],[-40.27231,-7.56228],[-40.23852,-7.68506]]]},"properties":{"cod_ibge":"260730","name":"Ipubi","uf":"PE"}},
{"type":"Feature","geometry":{"type":"Polygon","coordinates":[[[-35.54844,-7.71735],[-35.44517,-7.69234],[-35.52226,-7.66323],[-35.54844,-7.71735]]]},"properties":{"cod_ibge":"260910","name":"Machados","uf":"PE"}},
{"type":"Feature","geometry":{"type":"Polygon","coordinates":[[[-35.16628,-7.977],[-35.03684,-7.94017],[-35.02875,-7.9338],[-35.03113,-7.92971],[-35.14011,-7.79238],[-35.22577,-7.82421],[-35.241,-7.88787],[-35.25671,-7.94244],[-35.22435,-7.95563],[-35.16628,-7.977]]]},"properties":{"cod_ibge":"261060","name":"Paudalho","uf":"PE"}},
{"type":"Feature","geometry":{"type":"Polygon","coordinates":[[[-37.36736,-7.37947],[-37.27028,-7.39312],[-37.26076,-7.27397],[-37.31406,-7.28944],[-37.38592,-7.35674],[-37.43161,-7.35674],[-37.36736,-7.37947]]]},"properties":{"cod_ibge":"260250","name":"Brejinho","uf":"PE"}},
{"type":"Feature","geometry":{"type":"Polygon","coordinates":[[[-36.89669,-8.44175],[-36.90811,-8.25303],[-36.95475,-8.29941],[-37.02043,-8.28986],[-37.14892,-8.40355],[-37.02281,-8.49859],[-36.89669,-8.44175]]]},"properties":{"cod_ibge":"260120","name":"Arcoverde","uf":"PE"}},
{"type":"Feature","geometry":{"type":"Polygon","coordinates":[[[-37.51918,-8.96834],[-37.36546,-8.79826],[-37.53441,-8.80236],[-37.69907,-8.93605],[-37.52774,-8.96106],[-37.51918,-8.96834]]]},"properties":{"cod_ibge":"260915","name":"Manari","uf":"PE"}},
{"type":"Feature","geometry":{"type":"Polygon","coordinates":[[[-39.14631,-7.71826],[-39.26624,-7.6646],[-39.27052,-7.7892],[-39.11585,-7.77646],[-39.10253,-7.77101],[-39.14631,-7.71826]]]},"properties":{"cod_ibge":"260430","name":"Cedro","uf":"PE"}},
{"type":"Feature","geometry":{"type":"Polygon","coordinates":[[[-39.04637,-8.37945],[-39.20866,-8.22711],[-39.31716,-8.18255],[-39.46374,-8.23848],[-39.56939,-8.24939],[-39.56559,-8.41446],[-39.47612,-8.59272],[-39.35666,-8.54725],[-39.27243,-8.58363],[-39.04637,-8.37945]]]},"properties":{"cod_ibge":"260300","name":"Cabrobó","uf":"PE"}},
{"type":"Feature","geometry":{"type":"Polygon","coordinates":[[[-37.35023,-7.94881],[-37.17081,-7.80011],[-37.32358,-7.72007],[-37.4535,-7.79602],[-37.51965,-7.71007],[-37.53536,-7.7178],[-37.61722,-7.89469],[-37.61674,-7.89606],[-37.54107,-7.97882],[-37.35023,-7.94881]]]},"properties":{"cod_ibge":"260690","name":"Iguaracy","uf":"PE"}},
{"type":"Feature","geometry":{"type":"Polygon","coordinates":[[[-40.23852,-7.68506],[-40.27231,-7.56228],[-40.35988,-7.70962],[-40.34513,-7.84877],[-40.2371,-7.81875],[-40.23852,-7.68506]]]},"properties":{"cod_ibge":"261560","name":"Trindade","uf":"PE"}},
{"type":"Feature","geometry":{"type":"Polygon","coordinates":[[[-34.99591,-8.03703],[-35.03684,-7.94017],[-35.16628,-7.977],[-35.22244,-8.01884],[-35.19769,-8.08159],[-35.05825,-8.08796],[-35.01685,-8.05567],[-34.99591,-8.03703]]]},"properties":{"cod_ibge":"261370","name":"São Lourenço da Mata","uf":"PE"}},
{"type":"Feature","geometry":{"type":"Polygon","coordinates":[[[-37.95797,-7.766],[-38.0008,-7.77874],[-38.0522,-7.92152],[-38.01603,-8.08296],[-37.93941,-8.06886],[-37.81139,-8.08114],[-37.69146,-7.98382],[-37.74571,-7.87196],[-37.84708,-7.80284],[-37.95797,-7.766]]]},"properties":{"cod_ibge":"260560","name":"Flores","uf":"PE"}},
{"type":"Feature","geometry":{"type":"Polygon","coordinates":[[[-35.96676,-8.74324],[-35.86111,-8.75143],[-35.814,-8.67503],[-35.81019,-8.67276],[-35.85302,-8.60636],[-35.9482,-8.62956],[-35.96676,-8.74324]]]},"properties":{"cod_ibge":"260870","name":"Lagoa dos Gatos","uf":"PE"}},
{"type":"Feature","geometry":{"type":"Polygon","coordinates":[[[-36.75868,-8.59863],[-36.70062,-8.42128],[-36.8215,-8.41947],[-36.75868,-8.59863]]]},"properties":{"cod_ibge":"260060","name":"Alagoinha","uf":"PE"}},
{"type":"Feature","geometry":{"type":"Polygon","coordinates":[[[-40.20902,-9.06383],[-40.13002,-9.11022],[-40.00485,-9.05974],[-40.09718,-8.95697],[-40.07386,-8.63228],[-40.19617,-8.51178],[-40.34655,-8.5095],[-40.42936,-8.64456],[-40.39177,-8.80281],[-40.27326,-8.90149],[-40.29754,-8.99471],[-40.20902,-9.06383]]]},"properties":{"cod_ibge":"260875","name":"Lagoa Grande","uf":"PE"}},
{"type":"Feature","geometry":{"type":"Polygon","coordinates":[[[-36.56022,-8.28259],[-36.6278,-8.34534],[-36.55784,-8.50632],[-36.51073,-8.40218],[-36.56022,-8.28259]]]},"properties":{"cod_ibge":"261240","name":"Sanharó","uf":"PE"}},
{"type":"Feature","geometry":{"type":"Polygon","coordinates":[[[-40.20902,-9.06383],[-40.29754,-8.99471],[-40.27326,-8.90149],[-40.39177,-8.80281],[-40.42936,-8.64456],[-40.57927,-8.6673],[-40.75822,-8.62364],[-40.95905,-8.84192],[-40.85102,-8.95424],[-40.82104,-9.07975],[-40.6697,-9.18616],[-40.76726,-9.44536],[-40.71538,-9.449],[-40.62306,-9.4831],[-40.35655,-9.37715],[-40.27326,-9.08248],[-40.20902,-9.06383]]]},"properties":{"cod_ibge":"261110","name":"Petrolina","uf":"PE"}},
{"type":"Feature","geometry":{"type":"Polygon","coordinates":[[[-36.2071,-8.22575],[-36.35415,-8.21938],[-36.4441,-8.14571],[-36.60591,-8.21256],[-36.56022,-8.28259],[-36.51073,-8.40218],[-36.36129,-8.389],[-36.33321,-8.29623],[-36.2071,-8.22575]]]},"properties":{"cod_ibge":"260170","name":"Belo Jardim","uf":"PE"}},
{"type":"Feature","geometry":{"type":"Polygon","coordinates":[[[-36.44838,-8.65775],[-36.40079,-8.77689],[-36.34226,-8.80099],[-36.32893,-8.79917],[-36.38223,-8.63547],[-36.38271,-8.63501],[-36.44838,-8.65775]]]},"properties":{"cod_ibge":"260830","name":"Jupi","uf":"PE"}},
{"type":"Feature","geometry":{"type":"Polygon","coordinates":[[[-38.69372,-8.91877],[-38.62662,-8.62001],[-38.84363,-8.69549],[-38.85506,-8.78462],[-38.69372,-8.91877]]]},"properties":{"cod_ibge":"260740","name":"Itacuruba","uf":"PE"}},
{"type":"Feature","geometry":{"type":"Polygon","coordinates":[[[-34.86075,-8.0443],[-34.82791,-7.95927],[-34.91405,-7.97928],[-34.86075,-8.0443]]]},"properties":{"cod_ibge":"260960","name":"Olinda","uf":"PE"}},
{"type":"Feature","geometry":{"type":"Polygon","coordinates":[[[-38.16356,-7.90561],[-38.11978,-7.90879],[-38.12025,-7.81875],[-38.1312,-7.79556],[-38.2221,-7.82057],[-38.16356,-7.90561]]]},"properties":{"cod_ibge":"261247","name":"Santa Cruz da Baixa Verde","uf":"PE"}},
{"type":"Feature","geometry":{"type":"Polygon","coordinates":[[[-34.91405,-7.97928],[-34.82791,-7.95927],[-34.84124,-7.84513],[-34.86646,-7.89106],[-35.03113,-7.92971],[-35.02875,-7.9338],[-35.00019,-7.92926],[-34.91405,-7.97928]]]},"properties":{"cod_ibge":"261070","name":"Paulista","uf":"PE"}},
{"type":"Feature","geometry":{"type":"Polygon","coordinates":[[[-39.01782,-7.81284],[-39.08111,-7.92471],[-39.06493,-8.06113],[-38.91074,-8.0866],[-38.8779,-8.0102],[-38.96213,-7.84422],[-38.96594,-7.84558],[-39.01782,-7.81284]]]},"properties":{"cod_ibge":"261610","name":"Verdejante","uf":"PE"}},
{"type":"Feature","geometry":{"type":"Polygon","coordinates":[[[-35.57747,-8.43129],[-35.54273,-8.48768],[-35.4999,-8.49814],[-35.44564,-8.45175],[-35.54844,-8.33943],[-35.55034,-8.35808],[-35.57747,-8.43129]]]},"properties":{"cod_ibge":"260480","name":"Cortês","uf":"PE"}},
{"type":"Feature","geometry":{"type":"Polygon","coordinates":[[[-40.43507,-8.38945],[-40.34655,-8.5095],[-40.19617,-8.51178],[-40.1086,-8.34807],[-40.19759,-8.2212],[-40.31657,-8.05749],[-40.42841,-8.06977],[-40.43507,-8.38945]]]},"properties":{"cod_ibge":"261245","name":"Santa Cruz","uf":"PE"}},
{"type":"Feature","geometry":{"type":"Polygon","coordinates":[[[-35.26432,-8.63046],[-35.10251,-8.6864],[-35.08776,-8.69095],[-35.04826,-8.60955],[-35.07729,-8.52951],[-35.20293,-8.47904],[-35.27289,-8.48768],[-35.26432,-8.63046]]]},"properties":{"cod_ibge":"261420","name":"Sirinhaém","uf":"PE"}},
{"type":"Feature","geometry":{"type":"Polygon","coordinates":[[[-35.72215,-8.38763],[-35.75832,-8.29032],[-35.84541,-8.37854],[-35.76212,-8.38445],[-35.72215,-8.38763]]]},"properties":{"cod_ibge":"260350","name":"Camocim de São Félix","uf":"PE"}},
{"type":"Feature","geometry":{"type":"Polygon","coordinates":[[[-37.69907,-8.93605],[-37.53441,-8.80236],[-37.68146,-8.69004],[-37.84375,-8.67958],[-37.85755,-8.59545],[-38.02459,-8.65229],[-38.00556,-8.96288],[-37.82614,-8.93287],[-37.69907,-8.93605]]]},"properties":{"cod_ibge":"260700","name":"Inajá","uf":"PE"}},
{"type":"Feature","geometry":{"type":"Polygon","coordinates":[[[-35.5037,-7.81011],[-35.41899,-7.72144],[-35.44517,-7.69234],[-35.54844,-7.71735],[-35.63648,-7.761],[-35.70787,-7.83058],[-35.68788,-7.84695],[-35.5037,-7.81011]]]},"properties":{"cod_ibge":"260220","name":"Bom Jardim","uf":"PE"}},
{"type":"Feature","geometry":{"type":"Polygon","coordinates":[[[-35.52226,-7.66323],[-35.44517,-7.69234],[-35.44993,-7.60275],[-35.5018,-7.51271],[-35.52702,-7.64504],[-35.52226,-7.66323]]]},"properties":{"cod_ibge":"261380","name":"São Vicente Férrer","uf":"PE"}},
{"type":"Feature","geometry":{"type":"Polygon","coordinates":[[[-35.06444,-8.22302],[-34.92881,-8.22529],[-34.90882,-8.15526],[-35.01685,-8.05567],[-35.05825,-8.08796],[-35.06444,-8.22302]]]},"properties":{"cod_ibge":"260790","name":"Jaboatão dos Guararapes","uf":"PE"}},
{"type":"Feature","geometry":{"type":"Polygon","coordinates":[[[-35.25956,-7.67551],[-35.15534,-7.70962],[-35.12202,-7.6696],[-35.09728,-7.54364],[-35.15724,-7.5018],[-35.20816,-7.52181],[-35.27289,-7.59138],[-35.25956,-7.67551]]]},"properties":{"cod_ibge":"260070","name":"Aliança","uf":"PE"}},
{"type":"Feature","geometry":{"type":"Polygon","coordinates":[[[-35.241,-7.88787],[-35.22577,-7.82421],[-35.25242,-7.80875],[-35.3043,-7.766],[-35.40567,-7.77555],[-35.40567,-7.82512],[-35.28954,-7.87378],[-35.241,-7.88787]]]},"properties":{"cod_ibge":"260400","name":"Carpina","uf":"PE"}},
{"type":"Feature","geometry":{"type":"Polygon","coordinates":[[[-35.7745,-8.76598],[-35.814,-8.67503],[-35.86111,-8.75143],[-35.84731,-8.80781],[-35.7745,-8.76598]]]},"properties":{"cod_ibge":"260795","name":"Jaqueira","uf":"PE"}},
{"type":"Feature","geometry":{"type":"Polygon","coordinates":[[[-35.20816,-7.52181],[-35.31334,-7.47815],[-35.34285,-7.42222],[-35.36283,-7.44268],[-35.43422,-7.47088],[-35.42899,-7.61639],[-35.27289,-7.59138],[-35.20816,-7.52181]]]},"properties":{"cod_ibge":"261530","name":"Timbaúba","uf":"PE"}},
{"type":"Feature","geometry":{"type":"Polygon","coordinates":[[[-37.85755,-8.59545],[-37.84375,-8.67958],[-37.68146,-8.69004],[-37.53441,-8.80236],[-37.36546,-8.79826],[-37.39068,-8.51087],[-37.36832,-8.41856],[-37.46207,-8.45812],[-37.57534,-8.40446],[-37.59532,-8.31851],[-37.78664,-8.41401],[-37.85755,-8.59545]]]},"properties":{"cod_ibge":"260660","name":"Ibimirim","uf":"PE"}},
{"type":"Feature","geometry":{"type":"Polygon","coordinates":[[[-39.61603,-7.7037],[-39.54608,-7.48406],[-39.59985,-7.42813],[-39.7412,-7.32672],[-39.88921,-7.33991],[-39.90443,-7.33855],[-39.90396,-7.70689],[-39.81449,-7.69052],[-39.61603,-7.7037]]]},"properties":{"cod_ibge":"260530","name":"Exu","uf":"PE"}},
{"type":"Feature","geometry":{"type":"Polygon","coordinates":[[[-35.52702,-7.64504],[-35.61935,-7.66232],[-35.67979,-7.7037],[-35.63648,-7.761],[-35.54844,-7.71735],[-35.52226,-7.66323],[-35.52702,-7.64504]]]},"properties":{"cod_ibge":"260970","name":"Orobó","uf":"PE"}},
{"type":"Feature","geometry":{"type":"Polygon","coordinates":[[[-36.44362,-7.92016],[-36.3256,-7.96836],[-36.16474,-7.96609],[-36.26373,-7.83194],[-36.39936,-7.81057],[-36.44648,-7.91652],[-36.44362,-7.92016]]]},"properties":{"cod_ibge":"261250","name":"Santa Cruz do Capibaribe","uf":"PE"}},
{"type":"Feature","geometry":{"type":"Polygon","coordinates":[[[-36.68681,-8.15572],[-36.78771,-8.18982],[-36.64017,-8.27759],[-36.60591,-8.21256],[-36.68681,-8.15572]]]},"properties":{"cod_ibge":"261120","name":"Poção","uf":"PE"}},
{"type":"Feature","geometry":{"type":"Polygon","coordinates":[[[-37.89419,-8.39309],[-37.79759,-8.21074],[-37.81139,-8.08114],[-37.93941,-8.06886],[-38.0284,-8.13343],[-38.17879,-8.27668],[-38.16784,-8.39809],[-37.96653,-8.45857],[-37.89419,-8.39309]]]},"properties":{"cod_ibge":"260180","name":"Betânia","uf":"PE"}},
{"type":"Feature","geometry":{"type":"Polygon","coordinates":[[[-35.64981,-8.10524],[-35.65409,-7.94426],[-35.75784,-7.97473],[-35.83779,-8.11433],[-35.64981,-8.10524]]]},"properties":{"cod_ibge":"260490","name":"Cumaru","uf":"PE"}},
{"type":"Feature","geometry":{"type":"Polygon","coordinates":[[[-40.78011,-8.29623],[-40.65923,-8.37899],[-40.43507,-8.38945],[-40.42841,-8.06977],[-40.57594,-8.03066],[-40.60402,-8.10388],[-40.7644,-8.24394],[-40.78011,-8.29623]]]},"properties":{"cod_ibge":"261255","name":"Santa Filomena","uf":"PE"}},
{"type":"Feature","geometry":{"type":"Polygon","coordinates":[[[-39.54608,-7.48406],[-39.61603,-7.7037],[-39.59033,-7.766],[-39.39188,-7.60821],[-39.44518,-7.57274],[-39.54608,-7.48406]]]},"properties":{"cod_ibge":"261430","name":"Moreilândia","uf":"PE"}},
{"type":"Feature","geometry":{"type":"Polygon","coordinates":[[[-36.36129,-8.389],[-36.51073,-8.40218],[-36.55784,-8.50632],[-36.614,-8.55771],[-36.48693,-8.70413],[-36.44838,-8.65775],[-36.38271,-8.63501],[-36.33179,-8.61455],[-36.30704,-8.53133],[-36.36129,-8.389]]]},"properties":{"cod_ibge":"261300","name":"São Bento do Una","uf":"PE"}},
{"type":"Feature","geometry":{"type":"Polygon","coordinates":[[[-35.23719,-7.44041],[-35.33285,-7.4154],[-35.34285,-7.42222],[-35.31334,-7.47815],[-35.23719,-7.44041]]]},"properties":{"cod_ibge":"260360","name":"Camutanga","uf":"PE"}},
{"type":"Feature","geometry":{"type":"Polygon","coordinates":[[[-36.18711,-8.71186],[-36.12096,-8.83692],[-36.07527,-8.77052],[-36.18187,-8.66502],[-36.18711,-8.71186]]]},"properties":{"cod_ibge":"260840","name":"Jurema","uf":"PE"}},
{"type":"Feature","geometry":{"type":"Polygon","coordinates":[[[-35.35522,-7.8906],[-35.28954,-7.87378],[-35.40567,-7.82512],[-35.35522,-7.8906]]]},"properties":{"cod_ibge":"260845","name":"Lagoa do Carro","uf":"PE"}},
{"type":"Feature","geometry":{"type":"Polygon","coordinates":[[[-36.9933,-8.89649],[-36.86861,-8.88739],[-36.75915,-8.83373],[-36.77343,-8.73187],[-36.91239,-8.61228],[-36.8215,-8.41947],[-36.89669,-8.44175],[-37.02281,-8.49859],[-36.97093,-8.71141],[-36.9933,-8.89649]]]},"properties":{"cod_ibge":"261080","name":"Pedra","uf":"PE"}},
{"type":"Feature","geometry":{"type":"Polygon","coordinates":[[[-37.51965,-7.71007],[-37.4535,-7.79602],[-37.32358,-7.72007],[-37.37688,-7.6264],[-37.41543,-7.64277],[-37.51965,-7.71007]]]},"properties":{"cod_ibge":"260710","name":"Ingazeira","uf":"PE"}},
{"type":"Feature","geometry":{"type":"Polygon","coordinates":[[[-39.36047,-8.05067],[-39.46755,-8.05613],[-39.56892,-7.98837],[-39.57368,-7.87059],[-39.76261,-7.91243],[-39.85351,-8.02793],[-40.0058,-8.17027],[-40.12859,-8.1539],[-40.19759,-8.2212],[-40.1086,-8.34807],[-39.89825,-8.37354],[-39.74738,-8.34807],[-39.67219,-8.45675],[-39.68266,-8.34989],[-39.56939,-8.24939],[-39.46374,-8.23848],[-39.36047,-8.05067]]]},"properties":{"cod_ibge":"261040","name":"Parnamirim","uf":"PE"}},
{"type":"Feature","geometry":{"type":"Polygon","coordinates":[[[-35.57747,-8.43129],[-35.70025,-8.37308],[-35.72215,-8.38763],[-35.76212,-8.38445],[-35.82542,-8.52315],[-35.80353,-8.59454],[-35.69074,-8.59727],[-35.5908,-8.51451],[-35.54273,-8.48768],[-35.57747,-8.43129]]]},"properties":{"cod_ibge":"260230","name":"Bonito","uf":"PE"}},
{"type":"Feature","geometry":{"type":"Polygon","coordinates":[[[-36.23327,-8.93332],[-36.29942,-8.83237],[-36.32893,-8.79917],[-36.34226,-8.80099],[-36.30609,-8.95333],[-36.23327,-8.93332]]]},"properties":{"cod_ibge":"260100","name":"Angelim","uf":"PE"}},
{"type":"Feature","geometry":{"type":"Polygon","coordinates":[[[-35.88015,-8.20619],[-35.98532,-8.14389],[-35.91632,-8.00565],[-35.9582,-7.99019],[-36.01197,-7.98746],[-36.09764,-8.00474],[-36.11192,-7.99656],[-36.1814,-8.07159],[-36.12286,-8.18755],[-36.06242,-8.38263],[-36.00722,-8.36126],[-35.92108,-8.36581],[-35.88015,-8.20619]]]},"properties":{"cod_ibge":"260410","name":"Caruaru","uf":"PE"}},
{"type":"Feature","geometry":{"type":"Polygon","coordinates":[[[-35.91632,-8.00565],[-35.98532,-8.14389],[-35.88015,-8.20619],[-35.83779,-8.11433],[-35.75784,-7.97473],[-35.80495,-7.97336],[-35.91632,-8.00565]]]},"properties":{"cod_ibge":"261170","name":"Riacho das Almas","uf":"PE"}},
{"type":"Feature","geometry":{"type":"Polygon","coordinates":[[[-35.14011,-7.79238],[-35.05397,-7.88014],[-35.09966,-7.7228],[-35.14011,-7.79238]]]},"properties":{"cod_ibge":"260105","name":"Araçoiaba","uf":"PE"}},
{"type":"Feature","geometry":{"type":"Polygon","coordinates":[[[-38.20496,-9.10385],[-38.09217,-9.17252],[-38.01222,-9.15614],[-37.94654,-9.09475],[-37.82614,-8.93287],[-38.00556,-8.96288],[-38.02459,-8.65229],[-38.06552,-8.68458],[-38.2359,-8.85556],[-38.20496,-9.10385]]]},"properties":{"cod_ibge":"261480","name":"Tacaratu","uf":"PE"}},
{"type":"Feature","geometry":{"type":"Polygon","coordinates":[[[-35.99627,-8.54679],[-35.9482,-8.62956],[-35.85302,-8.60636],[-35.85017,-8.59318],[-35.8792,-8.5477],[-35.96867,-8.53588],[-35.99627,-8.54679]]]},"properties":{"cod_ibge":"260500","name":"Cupira","uf":"PE"}},
{"type":"Feature","geometry":{"type":"Polygon","coordinates":[[[-36.09764,-8.00474],[-36.01197,-7.98746],[-36.07099,-7.98064],[-36.09764,-8.00474]]]},"properties":{"cod_ibge":"261540","name":"Toritama","uf":"PE"}},
{"type":"Feature","geometry":{"type":"Polygon","coordinates":[[[-36.09478,-8.59136],[-36.26706,-8.56225],[-36.27372,-8.56225],[-36.19472,-8.71232],[-36.18711,-8.71186],[-36.18187,-8.66502],[-36.09478,-8.59136]]]},"properties":{"cod_ibge":"260670","name":"Ibirajuba","uf":"PE"}},
{"type":"Feature","geometry":{"type":"Polygon","coordinates":[[[-38.8779,-8.0102],[-38.77843,-8.00292],[-38.59806,-8.13252],[-38.55523,-7.90515],[-38.59378,-7.75418],[-38.71514,-7.62185],[-38.71704,-7.6264],[-38.89503,-7.75054],[-38.96213,-7.84422],[-38.8779,-8.0102]]]},"properties":{"cod_ibge":"261350","name":"São José do Belmonte","uf":"PE"}},
{"type":"Feature","geometry":{"type":"Polygon","coordinates":[[[-35.10299,-8.78508],[-35.08776,-8.69095],[-35.10251,-8.6864],[-35.34142,-8.72505],[-35.36141,-8.80645],[-35.22387,-8.7537],[-35.10299,-8.78508]]]},"properties":{"cod_ibge":"261485","name":"Tamandaré","uf":"PE"}},
{"type":"Feature","geometry":{"type":"Polygon","coordinates":[[[-35.45706,-7.98883],[-35.3043,-7.94153],[-35.35522,-7.8906],[-35.44184,-7.96109],[-35.45706,-7.98883]]]},"properties":{"cod_ibge":"260540","name":"Feira Nova","uf":"PE"}},
{"type":"Feature","geometry":{"type":"Polygon","coordinates":[[[-35.28954,-7.87378],[-35.35522,-7.8906],[-35.3043,-7.94153],[-35.25671,-7.94244],[-35.241,-7.88787],[-35.28954,-7.87378]]]},"properties":{"cod_ibge":"260850","name":"Lagoa de Itaenga","uf":"PE"}},
{"type":"Feature","geometry":{"type":"Polygon","coordinates":[[[-35.34142,-8.72505],[-35.4742,-8.62774],[-35.47087,-8.54588],[-35.48752,-8.50587],[-35.53749,-8.65866],[-35.6065,-8.77553],[-35.5827,-8.84647],[-35.57033,-8.84283],[-35.53987,-8.821],[-35.409,-8.83783],[-35.36141,-8.80645],[-35.34142,-8.72505]]]},"properties":{"cod_ibge":"260040","name":"Água Preta","uf":"PE"}},
{"type":"Feature","geometry":{"type":"Polygon","coordinates":[[[-39.67219,-8.45675],[-39.64602,-8.65957],[-39.47612,-8.59272],[-39.56559,-8.41446],[-39.56939,-8.24939],[-39.68266,-8.34989],[-39.67219,-8.45675]]]},"properties":{"cod_ibge":"260980","name":"Orocó","uf":"PE"}},
{"type":"Feature","geometry":{"type":"Polygon","coordinates":[[[-39.31716,-8.18255],[-39.20866,-8.22711],[-39.04637,-8.37945],[-38.91121,-8.33034],[-38.8127,-8.2353],[-38.91074,-8.0866],[-39.06493,-8.06113],[-39.08111,-7.92471],[-39.01782,-7.81284],[-39.10253,-7.77101],[-39.11585,-7.77646],[-39.29813,-8.04339],[-39.31716,-8.18255]]]},"properties":{"cod_ibge":"261220","name":"Salgueiro","uf":"PE"}},
{"type":"Feature","geometry":{"type":"Polygon","coordinates":[[[-37.22316,-8.40537],[-37.30169,-8.64229],[-37.28075,-8.75143],[-37.16082,-8.76643],[-37.0842,-8.85465],[-37.10133,-8.96015],[-37.09943,-8.97107],[-36.9933,-8.89649],[-36.97093,-8.71141],[-37.02281,-8.49859],[-37.14892,-8.40355],[-37.22316,-8.40537]]]},"properties":{"cod_ibge":"260280","name":"Buíque","uf":"PE"}},
{"type":"Feature","geometry":{"type":"Polygon","coordinates":[[[-32.43837,-3.84933],[-32.42505,-3.87752],[-32.40792,-3.8566],[-32.43837,-3.84933]]]},"properties":{"cod_ibge":"260545","name":"Fernando de Noronha","uf":"PE"}},
{"type":"Feature","geometry":{"type":"Polygon","coordinates":[[[-35.82542,-8.52315],[-35.85017,-8.59318],[-35.85302,-8.60636],[-35.81019,-8.67276],[-35.80353,-8.59454],[-35.82542,-8.52315]]]},"properties":{"cod_ibge":"260150","name":"Belém de Maria","uf":"PE"}},
{"type":"Feature","geometry":{"type":"Polygon","coordinates":[[[-35.52084,-7.90424],[-35.5037,-7.81011],[-35.68788,-7.84695],[-35.68122,-7.91016],[-35.52084,-7.90424]]]},"properties":{"cod_ibge":"260810","name":"João Alfredo","uf":"PE"}},
{"type":"Feature","geometry":{"type":"Polygon","coordinates":[[[-35.06444,-8.22302],[-35.05825,-8.08796],[-35.19769,-8.08159],[-35.21483,-8.18709],[-35.06444,-8.22302]]]},"properties":{"cod_ibge":"260940","name":"Moreno","uf":"PE"}},
{"type":"Feature","geometry":{"type":"Polygon","coordinates":[[[-35.45706,-7.98883],[-35.44184,-7.96109],[-35.51417,-7.9388],[-35.65409,-7.94426],[-35.64981,-8.10524],[-35.6303,-8.10388],[-35.4623,-8.09387],[-35.42946,-8.08114],[-35.42756,-8.08159],[-35.45706,-7.98883]]]},"properties":{"cod_ibge":"261050","name":"Passira","uf":"PE"}},
{"type":"Feature","geometry":{"type":"Polygon","coordinates":[[[-39.29813,-8.04339],[-39.11585,-7.77646],[-39.27052,-7.7892],[-39.26624,-7.6646],[-39.37189,-7.61503],[-39.39188,-7.60821],[-39.59033,-7.766],[-39.57368,-7.87059],[-39.56892,-7.98837],[-39.46755,-8.05613],[-39.36047,-8.05067],[-39.29813,-8.04339]]]},"properties":{"cod_ibge":"261400","name":"Serrita","uf":"PE"}},
{"type":"Feature","geometry":{"type":"Polygon","coordinates":[[[-35.07253,-7.61821],[-35.06111,-7.54136],[-35.09728,-7.54364],[-35.12202,-7.6696],[-35.12155,-7.67051],[-35.07253,-7.61821]]]},"properties":{"cod_ibge":"260460","name":"Condado","uf":"PE"}},
{"type":"Feature","geometry":{"type":"Polygon","coordinates":[[[-36.38223,-8.63547],[-36.32893,-8.79917],[-36.29942,-8.83237],[-36.24945,-8.7869],[-36.38223,-8.63547]]]},"properties":{"cod_ibge":"260330","name":"Calçado","uf":"PE"}},
{"type":"Feature","geometry":{"type":"Polygon","coordinates":[[[-37.32358,-7.72007],[-37.17081,-7.80011],[-37.15178,-7.77965],[-37.15035,-7.71689],[-37.30454,-7.60321],[-37.37688,-7.6264],[-37.32358,-7.72007]]]},"properties":{"cod_ibge":"261590","name":"Tuparetama","uf":"PE"}},
{"type":"Feature","geometry":{"type":"Polygon","coordinates":[[[-35.47087,-8.54588],[-35.4742,-8.62774],[-35.34142,-8.72505],[-35.2648,-8.63046],[-35.47087,-8.54588]]]},"properties":{"cod_ibge":"260590","name":"Gameleira","uf":"PE"}},
{"type":"Feature","geometry":{"type":"Polygon","coordinates":[[[-40.10384,-7.68688],[-40.08338,-7.8092],[-39.93632,-7.82512],[-39.85351,-8.02793],[-39.76261,-7.91243],[-39.81449,-7.69052],[-39.90396,-7.70689],[-39.90443,-7.33855],[-40.15714,-7.37129],[-40.10384,-7.68688]]]},"properties":{"cod_ibge":"260200","name":"Bodocó","uf":"PE"}},
{"type":"Feature","geometry":{"type":"Polygon","coordinates":[[[-35.47087,-8.54588],[-35.2648,-8.63046],[-35.26432,-8.63046],[-35.27289,-8.48768],[-35.34618,-8.42765],[-35.40567,-8.42811],[-35.44564,-8.45175],[-35.4999,-8.49814],[-35.48752,-8.50587],[-35.47087,-8.54588]]]},"properties":{"cod_ibge":"261180","name":"Ribeirão","uf":"PE"}},
{"type":"Feature","geometry":{"type":"Polygon","coordinates":[[[-37.59532,-8.31851],[-37.51537,-8.18573],[-37.54107,-7.97882],[-37.61674,-7.89606],[-37.69146,-7.98382],[-37.81139,-8.08114],[-37.79759,-8.21074],[-37.89419,-8.39309],[-37.78664,-8.41401],[-37.59532,-8.31851]]]},"properties":{"cod_ibge":"260510","name":"Custódia","uf":"PE"}},
{"type":"Feature","geometry":{"type":"Polygon","coordinates":[[[-37.37688,-7.6264],[-37.30454,-7.60321],[-37.15035,-7.71689],[-37.16082,-7.69779],[-37.19794,-7.63549],[-37.07944,-7.51681],[-37.02566,-7.4968],[-37.15939,-7.49498],[-37.27028,-7.39312],[-37.36736,-7.37947],[-37.4497,-7.535],[-37.41543,-7.64277],[-37.37688,-7.6264]]]},"properties":{"cod_ibge":"261360","name":"São José do Egito","uf":"PE"}},
{"type":"Feature","geometry":{"type":"Polygon","coordinates":[[[-40.75822,-8.62364],[-40.57927,-8.6673],[-40.42936,-8.64456],[-40.34655,-8.5095],[-40.43507,-8.38945],[-40.65923,-8.37899],[-40.78011,-8.29623],[-40.86196,-8.37081],[-40.84816,-8.55452],[-40.75822,-8.62364]]]},"properties":{"cod_ibge":"260515","name":"Dormentes","uf":"PE"}},
{"type":"Feature","geometry":{"type":"Polygon","coordinates":[[[-37.16891,-9.26528],[-37.06088,-9.30803],[-37.05517,-9.30757],[-36.94618,-9.18661],[-36.98521,-9.12931],[-36.86576,-8.8883],[-36.86861,-8.88739],[-36.9933,-8.89649],[-37.09943,-8.97107],[-37.19842,-9.21526],[-37.16891,-9.26528]]]},"properties":{"cod_ibge":"260050","name":"Águas Belas","uf":"PE"}},
{"type":"Feature","geometry":{"type":"Polygon","coordinates":[[[-35.25813,-8.05749],[-35.42756,-8.08159],[-35.42946,-8.08114],[-35.34332,-8.11752],[-35.36664,-8.29896],[-35.35808,-8.30032],[-35.2648,-8.24303],[-35.21483,-8.18709],[-35.19769,-8.08159],[-35.22244,-8.01884],[-35.25813,-8.05749]]]},"properties":{"cod_ibge":"261640","name":"Vitória de Santo Antão","uf":"PE"}},
{"type":"Feature","geometry":{"type":"Polygon","coordinates":[[[-35.4623,-8.09387],[-35.6303,-8.10388],[-35.65219,-8.20301],[-35.63458,-8.37399],[-35.55034,-8.35808],[-35.54844,-8.33943],[-35.50989,-8.30032],[-35.4485,-8.17118],[-35.4623,-8.09387]]]},"properties":{"cod_ibge":"260640","name":"Gravatá","uf":"PE"}},
{"type":"Feature","geometry":{"type":"Polygon","coordinates":[[[-36.5331,-9.10158],[-36.60067,-9.03336],[-36.63732,-9.02063],[-36.68919,-9.02063],[-36.6773,-9.12431],[-36.5331,-9.10158]]]},"properties":{"cod_ibge":"261510","name":"Terezinha","uf":"PE"}},
{"type":"Feature","geometry":{"type":"Polygon","coordinates":[[[-37.27028,-7.39312],[-37.15939,-7.49498],[-37.02566,-7.4968],[-37.02519,-7.4968],[-36.98521,-7.47542],[-37.01376,-7.40358],[-37.05326,-7.37947],[-37.177,-7.30944],[-37.26076,-7.27397],[-37.27028,-7.39312]]]},"properties":{"cod_ibge":"260770","name":"Itapetim","uf":"PE"}},
{"type":"Feature","geometry":{"type":"Polygon","coordinates":[[[-35.15534,-7.70962],[-35.25956,-7.67551],[-35.3043,-7.766],[-35.25242,-7.80875],[-35.15534,-7.70962]]]},"properties":{"cod_ibge":"260950","name":"Nazaré da Mata","uf":"PE"}},
{"type":"Feature","geometry":{"type":"Polygon","coordinates":[[[-36.63732,-9.02063],[-36.63066,-8.95651],[-36.86528,-8.88876],[-36.78675,-9.00835],[-36.78438,-9.1134],[-36.68919,-9.02063],[-36.63732,-9.02063]]]},"properties":{"cod_ibge":"261230","name":"Saloá","uf":"PE"}},
{"type":"Feature","geometry":{"type":"Polygon","coordinates":[[[-35.14011,-8.30987],[-34.96069,-8.36672],[-34.92881,-8.22529],[-35.06444,-8.22302],[-35.21483,-8.18709],[-35.2648,-8.24303],[-35.14011,-8.30987]]]},"properties":{"cod_ibge":"260290","name":"Cabo de Santo Agostinho","uf":"PE"}},
{"type":"Feature","geometry":{"type":"Polygon","coordinates":[[[-38.06552,-8.68458],[-38.19021,-8.67685],[-38.47004,-8.86557],[-38.51383,-8.96015],[-38.31299,-9.14841],[-38.20496,-9.10385],[-38.2359,-8.85556],[-38.06552,-8.68458]]]},"properties":{"cod_ibge":"261100","name":"Petrolândia","uf":"PE"}},
{"type":"Feature","geometry":{"type":"Polygon","coordinates":[[[-39.04637,-8.37945],[-39.27243,-8.58363],[-39.2453,-8.68412],[-39.06446,-8.73142],[-38.95214,-8.80463],[-38.85506,-8.78462],[-38.84363,-8.69549],[-38.62662,-8.62001],[-38.62805,-8.61637],[-38.75702,-8.57499],[-38.91121,-8.33034],[-39.04637,-8.37945]]]},"properties":{"cod_ibge":"260160","name":"Belém do São Francisco","uf":"PE"}},
{"type":"Feature","geometry":{"type":"Polygon","coordinates":[[[-37.14416,-8.12479],[-37.1494,-8.02384],[-37.35023,-7.94881],[-37.54107,-7.97882],[-37.51537,-8.18573],[-37.59532,-8.31851],[-37.57534,-8.40446],[-37.46207,-8.45812],[-37.36832,-8.41856],[-37.22316,-8.40537],[-37.14892,-8.40355],[-37.02043,-8.28986],[-37.14416,-8.12479]]]},"properties":{"cod_ibge":"261410","name":"Sertânia","uf":"PE"}},
{"type":"Feature","geometry":{"type":"Polygon","coordinates":[[[-36.19568,-9.04473],[-36.36653,-9.01836],[-36.46504,-9.07793],[-36.4027,-9.22345],[-36.35606,-9.21844],[-36.29133,-9.17388],[-36.19568,-9.04473]]]},"properties":{"cod_ibge":"260470","name":"Correntes","uf":"PE"}},
{"type":"Feature","geometry":{"type":"Polygon","coordinates":[[[-34.86218,-7.71143],[-34.92214,-7.69052],[-34.89026,-7.80193],[-34.86218,-7.71143]]]},"properties":{"cod_ibge":"260775","name":"Itapissuma","uf":"PE"}},
{"type":"Feature","geometry":{"type":"Polygon","coordinates":[[[-38.16356,-7.90561],[-38.0284,-8.13343],[-37.93941,-8.06886],[-38.01603,-8.08296],[-38.0522,-7.92152],[-38.11978,-7.90879],[-38.16356,-7.90561]]]},"properties":{"cod_ibge":"260340","name":"Calumbi","uf":"PE"}},
{"type":"Feature","geometry":{"type":"Polygon","coordinates":[[[-35.5908,-8.51451],[-35.53749,-8.65866],[-35.48752,-8.50587],[-35.4999,-8.49814],[-35.54273,-8.48768],[-35.5908,-8.51451]]]},"properties":{"cod_ibge":"260820","name":"Joaquim Nabuco","uf":"PE"}},
{"type":"Feature","geometry":{"type":"Polygon","coordinates":[[[-36.40079,-8.77689],[-36.44838,-8.65775],[-36.48693,-8.70413],[-36.48693,-8.79554],[-36.44458,-8.79963],[-36.40079,-8.77689]]]},"properties":{"cod_ibge":"260825","name":"Jucati","uf":"PE"}},
{"type":"Feature","geometry":{"type":"Polygon","coordinates":[[[-34.99591,-8.03703],[-35.00019,-7.92926],[-35.02875,-7.9338],[-35.03684,-7.94017],[-34.99591,-8.03703]]]},"properties":{"cod_ibge":"260345","name":"Camaragibe","uf":"PE"}}
]}