{"type":"FeatureCollection", "features": [
{"type":"Feature","geometry":{"type":"Polygon","coordinates":[[[-44.16572,-23.03391],[-44.07435,-22.95205],[-43.88065,-22.91568],[-43.93919,-22.88112],[-44.11195,-22.86474],[-44.19238,-22.92886],[-44.16572,-23.03391]]]},"properties":{"cod_ibge":"330260","name":"Mangaratiba","uf":"RJ"}},
{"type":"Feature","geometry":{"type":"Polygon","coordinates":[[[-43.58892,-22.28813],[-43.6684,-22.08623],[-43.70885,-22.07577],[-43.97726,-22.14626],[-44.17953,-22.22856],[-44.18904,-22.24039],[-44.14812,-22.33133],[-44.02628,-22.29723],[-43.74883,-22.40318],[-43.58892,-22.28813]]]},"properties":{"cod_ibge":"330610","name":"Valença","uf":"RJ"}},
{"type":"Feature","geometry":{"type":"Polygon","coordinates":[[[-42.28112,-22.93932],[-42.03746,-22.93296],[-42.12217,-22.9084],[-42.21164,-22.87793],[-42.23686,-22.86338],[-42.28112,-22.93932]]]},"properties":{"cod_ibge":"330025","name":"Arraial do Cabo","uf":"RJ"}},
{"type":"Feature","geometry":{"type":"Polygon","coordinates":[[[-41.91182,-20.92892],[-41.80093,-20.98712],[-41.74144,-20.87253],[-41.77523,-20.79977],[-41.91182,-20.92892]]]},"properties":{"cod_ibge":"330615","name":"Varre-Sai","uf":"RJ"}},
{"type":"Feature","geometry":{"type":"Polygon","coordinates":[[[-43.91349,-22.52096],[-44.03057,-22.49731],[-44.06864,-22.59236],[-43.91349,-22.52096]]]},"properties":{"cod_ibge":"330395","name":"Pinheiral","uf":"RJ"}},
{"type":"Feature","geometry":{"type":"Polygon","coordinates":[[[-42.55763,-22.16354],[-42.54811,-21.99983],[-42.69088,-21.96936],[-42.75561,-22.11806],[-42.74466,-22.12761],[-42.7142,-22.26631],[-42.55763,-22.16354]]]},"properties":{"cod_ibge":"330570","name":"Sumidouro","uf":"RJ"}},
{"type":"Feature","geometry":{"type":"Polygon","coordinates":[[[-44.16572,-22.6733],[-44.31802,-22.84519],[-44.19238,-22.92886],[-44.11195,-22.86474],[-43.93919,-22.88112],[-43.87399,-22.80927],[-44.01724,-22.64056],[-44.08625,-22.64056],[-44.16572,-22.6733]]]},"properties":{"cod_ibge":"330440","name":"Rio Claro","uf":"RJ"}},
{"type":"Feature","geometry":{"type":"Polygon","coordinates":[[[-42.73371,-22.84064],[-42.65995,-22.85883],[-42.64519,-22.85474],[-42.74704,-22.68649],[-42.73371,-22.84064]]]},"properties":{"cod_ibge":"330575","name":"Tanguá","uf":"RJ"}},
{"type":"Feature","geometry":{"type":"Polygon","coordinates":[[[-42.08029,-21.03032],[-41.94323,-21.15219],[-41.83901,-21.08171],[-41.80093,-20.98712],[-41.91182,-20.92892],[-42.08457,-21.02305],[-42.08029,-21.03032]]]},"properties":{"cod_ibge":"330310","name":"Natividade","uf":"RJ"}},
{"type":"Feature","geometry":{"type":"Polygon","coordinates":[[[-42.34823,-22.10806],[-42.41485,-22.03757],[-42.50908,-21.90752],[-42.54811,-21.99983],[-42.55763,-22.16354],[-42.52193,-22.1599],[-42.34823,-22.10806]]]},"properties":{"cod_ibge":"330160","name":"Duas Barras","uf":"RJ"}},
{"type":"Feature","geometry":{"type":"Polygon","coordinates":[[[-43.91349,-22.52096],[-43.79785,-22.55188],[-43.75454,-22.46003],[-43.74883,-22.40318],[-44.02628,-22.29723],[-44.00582,-22.40728],[-44.03057,-22.49731],[-43.91349,-22.52096]]]},"properties":{"cod_ibge":"330030","name":"Barra do Piraí","uf":"RJ"}},
{"type":"Feature","geometry":{"type":"Polygon","coordinates":[[[-43.68839,-22.46321],[-43.5618,-22.50004],[-43.49136,-22.42001],[-43.50373,-22.31133],[-43.32527,-22.27858],[-43.40046,-22.21629],[-43.58892,-22.28813],[-43.74883,-22.40318],[-43.75454,-22.46003],[-43.68839,-22.46321]]]},"properties":{"cod_ibge":"330620","name":"Vassouras","uf":"RJ"}},
{"type":"Feature","geometry":{"type":"Polygon","coordinates":[[[-43.01355,-22.97661],[-42.64139,-22.9375],[-42.65995,-22.85883],[-42.73371,-22.84064],[-42.886,-22.86747],[-42.95692,-22.90067],[-43.01355,-22.97661]]]},"properties":{"cod_ibge":"330270","name":"Maricá","uf":"RJ"}},
{"type":"Feature","geometry":{"type":"Polygon","coordinates":[[[-42.91837,-22.45093],[-42.72753,-22.35544],[-42.7142,-22.26631],[-42.74466,-22.12761],[-42.98071,-22.26449],[-43.03639,-22.30814],[-43.02878,-22.46139],[-42.91837,-22.45093]]]},"properties":{"cod_ibge":"330580","name":"Teresópolis","uf":"RJ"}},
{"type":"Feature","geometry":{"type":"Polygon","coordinates":[[[-43.43711,-22.05985],[-43.5913,-22.05576],[-43.6684,-22.08623],[-43.58892,-22.28813],[-43.40046,-22.21629],[-43.43711,-22.05985]]]},"properties":{"cod_ibge":"330450","name":"Rio das Flores","uf":"RJ"}},
{"type":"Feature","geometry":{"type":"Polygon","coordinates":[[[-42.66518,-21.87341],[-42.9098,-21.99073],[-43.00213,-22.03302],[-42.96976,-22.0885],[-42.75561,-22.11806],[-42.69088,-21.96936],[-42.66518,-21.87341]]]},"properties":{"cod_ibge":"330540","name":"Sapucaia","uf":"RJ"}},
{"type":"Feature","geometry":{"type":"Polygon","coordinates":[[[-41.9299,-20.84342],[-41.97845,-20.93483],[-42.15073,-20.97393],[-42.08457,-21.02305],[-41.91182,-20.92892],[-41.77523,-20.79977],[-41.84472,-20.77749],[-41.8747,-20.76612],[-41.928,-20.79386],[-41.9299,-20.84342]]]},"properties":{"cod_ibge":"330410","name":"Porciúncula","uf":"RJ"}},
{"type":"Feature","geometry":{"type":"Polygon","coordinates":[[[-44.33229,-22.49368],[-44.30088,-22.44957],[-44.31373,-22.40227],[-44.33229,-22.49368]]]},"properties":{"cod_ibge":"330411","name":"Porto Real","uf":"RJ"}},
{"type":"Feature","geometry":{"type":"Polygon","coordinates":[[[-43.63461,-22.78335],[-43.55561,-22.67967],[-43.63889,-22.72014],[-43.63461,-22.78335]]]},"properties":{"cod_ibge":"330414","name":"Queimados","uf":"RJ"}},
{"type":"Feature","geometry":{"type":"Polygon","coordinates":[[[-41.54251,-22.23447],[-41.13371,-22.09532],[-41.43781,-21.98664],[-41.65959,-22.05576],[-41.69385,-22.10851],[-41.57392,-22.13852],[-41.54251,-22.23447]]]},"properties":{"cod_ibge":"330415","name":"Quissamã","uf":"RJ"}},
{"type":"Feature","geometry":{"type":"Polygon","coordinates":[[[-44.25995,-22.26813],[-44.31373,-22.40227],[-44.30088,-22.44957],[-44.14812,-22.33133],[-44.18904,-22.24039],[-44.25995,-22.26813]]]},"properties":{"cod_ibge":"330412","name":"Quatis","uf":"RJ"}},
{"type":"Feature","geometry":{"type":"Polygon","coordinates":[[[-42.90694,-22.65511],[-42.74704,-22.68649],[-42.56477,-22.62009],[-42.55049,-22.45593],[-42.55239,-22.37817],[-42.72753,-22.35544],[-42.91837,-22.45093],[-42.86554,-22.57144],[-42.90694,-22.65511]]]},"properties":{"cod_ibge":"330080","name":"Cachoeiras de Macacu","uf":"RJ"}},
{"type":"Feature","geometry":{"type":"Polygon","coordinates":[[[-42.18261,-22.55279],[-41.9913,-22.59827],[-41.97892,-22.56234],[-42.06363,-22.42274],[-42.20545,-22.36908],[-42.27779,-22.40182],[-42.18689,-22.55552],[-42.18261,-22.55279]]]},"properties":{"cod_ibge":"330130","name":"Casimiro de Abreu","uf":"RJ"}},
{"type":"Feature","geometry":{"type":"Polygon","coordinates":[[[-43.32527,-22.27858],[-43.28862,-22.3709],[-43.18154,-22.30132],[-43.15965,-22.19264],[-43.25864,-22.10351],[-43.34668,-22.00392],[-43.43711,-22.05985],[-43.40046,-22.21629],[-43.32527,-22.27858]]]},"properties":{"cod_ibge":"330370","name":"Paraíba do Sul","uf":"RJ"}},
{"type":"Feature","geometry":{"type":"Polygon","coordinates":[[[-41.81759,-22.41683],[-41.68909,-22.29996],[-41.77095,-22.18082],[-41.91753,-22.21174],[-41.97369,-22.13352],[-42.07648,-22.16444],[-42.25067,-22.30632],[-42.20545,-22.36908],[-42.06363,-22.42274],[-41.81759,-22.41683]]]},"properties":{"cod_ibge":"330240","name":"Macaé","uf":"RJ"}},
{"type":"Feature","geometry":{"type":"Polygon","coordinates":[[[-42.21926,-22.00983],[-42.24305,-21.973],[-42.31777,-21.99665],[-42.26923,-22.08941],[-42.21926,-22.00983]]]},"properties":{"cod_ibge":"330245","name":"Macuco","uf":"RJ"}},
{"type":"Feature","geometry":{"type":"Polygon","coordinates":[[[-41.78142,-21.40048],[-41.81616,-21.32772],[-41.99796,-21.4887],[-42.11979,-21.60148],[-42.05697,-21.63695],[-41.93657,-21.59693],[-41.74287,-21.46414],[-41.78142,-21.40048]]]},"properties":{"cod_ibge":"330090","name":"Cambuci","uf":"RJ"}},
{"type":"Feature","geometry":{"type":"Polygon","coordinates":[[[-42.38154,-22.93568],[-42.44674,-22.82291],[-42.64519,-22.85474],[-42.65995,-22.85883],[-42.64139,-22.9375],[-42.38154,-22.93568]]]},"properties":{"cod_ibge":"330550","name":"Saquarema","uf":"RJ"}},
{"type":"Feature","geometry":{"type":"Polygon","coordinates":[[[-44.31373,-22.40227],[-44.25995,-22.26813],[-44.35942,-22.25403],[-44.5436,-22.33224],[-44.5969,-22.39818],[-44.47982,-22.45821],[-44.57691,-22.51687],[-44.65639,-22.48185],[-44.66162,-22.38045],[-44.6659,-22.37272],[-44.80344,-22.39363],[-44.80963,-22.40455],[-44.80963,-22.40546],[-44.68827,-22.52142],[-44.64592,-22.60372],[-44.46602,-22.61555],[-44.36085,-22.61191],[-44.34229,-22.58917],[-44.33229,-22.49368],[-44.31373,-22.40227]]]},"properties":{"cod_ibge":"330420","name":"Resende","uf":"RJ"}},
{"type":"Feature","geometry":{"type":"Polygon","coordinates":[[[-43.75311,-22.70013],[-43.78357,-22.80199],[-43.67363,-22.86384],[-43.63461,-22.78335],[-43.63889,-22.72014],[-43.67078,-22.65284],[-43.75311,-22.70013]]]},"properties":{"cod_ibge":"330555","name":"Seropédica","uf":"RJ"}},
{"type":"Feature","geometry":{"type":"Polygon","coordinates":[[[-43.1311,-22.02939],[-43.22771,-22.02893],[-43.3267,-22.00801],[-43.34668,-22.00392],[-43.25864,-22.10351],[-43.13062,-22.03484],[-43.1311,-22.02939]]]},"properties":{"cod_ibge":"330095","name":"Comendador Levy Gasparian","uf":"RJ"}},
{"type":"Feature","geometry":{"type":"Polygon","coordinates":[[[-41.77095,-22.18082],[-41.68909,-22.29996],[-41.54251,-22.23447],[-41.57392,-22.13852],[-41.69385,-22.10851],[-41.77095,-22.18082]]]},"properties":{"cod_ibge":"330093","name":"Carapebus","uf":"RJ"}},
{"type":"Feature","geometry":{"type":"Polygon","coordinates":[[[-41.97369,-22.13352],[-41.91753,-22.21174],[-41.77095,-22.18082],[-41.69385,-22.10851],[-41.65959,-22.05576],[-41.75049,-22.08623],[-41.96179,-22.07804],[-41.97369,-22.13352]]]},"properties":{"cod_ibge":"330140","name":"Conceição de Macabu","uf":"RJ"}},
{"type":"Feature","geometry":{"type":"MultiPolygon","coordinates":[[[[-44.52123,-23.02709],[-44.32087,-22.93614],[-44.16572,-23.03391],[-44.19238,-22.92886],[-44.31802,-22.84519],[-44.49458,-22.84701],[-44.62926,-22.90476],[-44.63878,-22.91431],[-44.52123,-23.02709]]],[[[-44.35133,-23.21444],[-44.15906,-23.17215],[-44.21617,-23.08984],[-44.35133,-23.21444]]]]},"properties":{"cod_ibge":"330010","name":"Angra dos Reis","uf":"RJ"}},
{"type":"Feature","geometry":{"type":"Polygon","coordinates":[[[-43.25864,-22.10351],[-43.15965,-22.19264],[-43.04781,-22.20855],[-42.96976,-22.0885],[-43.00213,-22.03302],[-43.13062,-22.03484],[-43.25864,-22.10351]]]},"properties":{"cod_ibge":"330600","name":"Três Rios","uf":"RJ"}},
{"type":"Feature","geometry":{"type":"Polygon","coordinates":[[[-42.05697,-21.63695],[-42.11979,-21.60148],[-42.18451,-21.68151],[-42.05697,-21.63695]]]},"properties":{"cod_ibge":"330015","name":"Aperibé","uf":"RJ"}},
{"type":"Feature","geometry":{"type":"Polygon","coordinates":[[[-44.72444,-23.36769],[-44.59071,-23.36223],[-44.52742,-23.27265],[-44.69494,-23.23263],[-44.68447,-23.07165],[-44.52123,-23.02709],[-44.63878,-22.91431],[-44.79202,-22.98207],[-44.82438,-23.1626],[-44.88244,-23.20262],[-44.72444,-23.36769]]]},"properties":{"cod_ibge":"330380","name":"Paraty","uf":"RJ"}},
{"type":"Feature","geometry":{"type":"Polygon","coordinates":[[[-43.03877,-22.6924],[-43.06209,-22.48458],[-43.22485,-22.56371],[-43.21438,-22.72787],[-43.03877,-22.6924]]]},"properties":{"cod_ibge":"330250","name":"Magé","uf":"RJ"}},
{"type":"Feature","geometry":{"type":"Polygon","coordinates":[[[-43.49136,-22.42001],[-43.37048,-22.45184],[-43.28862,-22.3709],[-43.32527,-22.27858],[-43.50373,-22.31133],[-43.49136,-22.42001]]]},"properties":{"cod_ibge":"330385","name":"Paty do Alferes","uf":"RJ"}},
{"type":"Feature","geometry":{"type":"Polygon","coordinates":[[[-42.18689,-22.55552],[-42.27779,-22.40182],[-42.55049,-22.45593],[-42.56477,-22.62009],[-42.44198,-22.73014],[-42.18689,-22.55552]]]},"properties":{"cod_ibge":"330560","name":"Silva Jardim","uf":"RJ"}},
{"type":"Feature","geometry":{"type":"Polygon","coordinates":[[[-41.93704,-21.74108],[-41.93657,-21.59693],[-42.05697,-21.63695],[-42.18451,-21.68151],[-42.23686,-21.69743],[-42.16738,-21.85886],[-41.93704,-21.74108]]]},"properties":{"cod_ibge":"330210","name":"Itaocara","uf":"RJ"}},
{"type":"Feature","geometry":{"type":"Polygon","coordinates":[[[-42.12217,-22.9084],[-42.02509,-22.79653],[-42.13169,-22.65329],[-42.254,-22.79199],[-42.21164,-22.87793],[-42.12217,-22.9084]]]},"properties":{"cod_ibge":"330520","name":"São Pedro da Aldeia","uf":"RJ"}},
{"type":"Feature","geometry":{"type":"Polygon","coordinates":[[[-43.0264,-22.74287],[-42.886,-22.86747],[-42.73371,-22.84064],[-42.74704,-22.68649],[-42.90694,-22.65511],[-43.02592,-22.72605],[-43.0264,-22.74287]]]},"properties":{"cod_ibge":"330190","name":"Itaboraí","uf":"RJ"}},
{"type":"Feature","geometry":{"type":"Polygon","coordinates":[[[-41.83901,-21.08171],[-41.58487,-21.31726],[-41.4697,-21.20267],[-41.55774,-21.17311],[-41.64531,-21.14355],[-41.71717,-21.1049],[-41.73383,-20.94347],[-41.74144,-20.87253],[-41.80093,-20.98712],[-41.83901,-21.08171]]]},"properties":{"cod_ibge":"330060","name":"Bom Jesus do Itabapoana","uf":"RJ"}},
{"type":"Feature","geometry":{"type":"Polygon","coordinates":[[[-41.74287,-21.46414],[-41.93657,-21.59693],[-41.93704,-21.74108],[-41.97131,-21.80293],[-41.88374,-21.8725],[-41.69623,-21.71425],[-41.53823,-21.62194],[-41.62675,-21.59556],[-41.74287,-21.46414]]]},"properties":{"cod_ibge":"330480","name":"São Fidélis","uf":"RJ"}},
{"type":"Feature","geometry":{"type":"Polygon","coordinates":[[[-42.24305,-21.973],[-42.16738,-21.85886],[-42.23686,-21.69743],[-42.26685,-21.71425],[-42.37773,-21.74836],[-42.45959,-21.78474],[-42.50908,-21.90752],[-42.41485,-22.03757],[-42.31777,-21.99665],[-42.24305,-21.973]]]},"properties":{"cod_ibge":"330110","name":"Cantagalo","uf":"RJ"}},
{"type":"Feature","geometry":{"type":"Polygon","coordinates":[[[-41.55108,-21.42913],[-41.65721,-21.47915],[-41.62675,-21.59556],[-41.53823,-21.62194],[-41.36024,-21.54418],[-41.44924,-21.39866],[-41.55108,-21.42913]]]},"properties":{"cod_ibge":"330115","name":"Cardoso Moreira","uf":"RJ"}},
{"type":"Feature","geometry":{"type":"Polygon","coordinates":[[[-43.36525,-22.68512],[-43.40141,-22.53324],[-43.58559,-22.58326],[-43.62271,-22.64238],[-43.55561,-22.67967],[-43.63461,-22.78335],[-43.67363,-22.86384],[-43.48993,-22.81563],[-43.41093,-22.76789],[-43.36525,-22.68512]]]},"properties":{"cod_ibge":"330350","name":"Nova Iguaçu","uf":"RJ"}},
{"type":"Feature","geometry":{"type":"Polygon","coordinates":[[[-41.58487,-21.31726],[-41.83901,-21.08171],[-41.94323,-21.15219],[-42.08029,-21.03032],[-42.11836,-21.07489],[-42.17452,-21.13173],[-42.19546,-21.16038],[-42.03508,-21.23814],[-42.09314,-21.345],[-42.0346,-21.34318],[-41.91753,-21.29498],[-41.81616,-21.32772],[-41.78142,-21.40048],[-41.58487,-21.31726]]]},"properties":{"cod_ibge":"330220","name":"Itaperuna","uf":"RJ"}},
{"type":"Feature","geometry":{"type":"Polygon","coordinates":[[[-44.66162,-22.38045],[-44.65639,-22.48185],[-44.57691,-22.51687],[-44.47982,-22.45821],[-44.5969,-22.39818],[-44.5436,-22.33224],[-44.66162,-22.38045]]]},"properties":{"cod_ibge":"330225","name":"Itatiaia","uf":"RJ"}},
{"type":"Feature","geometry":{"type":"Polygon","coordinates":[[[-41.97369,-22.72969],[-41.9913,-22.59827],[-42.18261,-22.55279],[-42.13169,-22.65329],[-42.02509,-22.79653],[-42.12217,-22.9084],[-42.03746,-22.93296],[-41.9694,-22.82291],[-41.97369,-22.72969]]]},"properties":{"cod_ibge":"330070","name":"Cabo Frio","uf":"RJ"}},
{"type":"Feature","geometry":{"type":"Polygon","coordinates":[[[-42.13597,-22.02484],[-41.97131,-21.80293],[-41.93704,-21.74108],[-42.16738,-21.85886],[-42.24305,-21.973],[-42.21926,-22.00983],[-42.13597,-22.02484]]]},"properties":{"cod_ibge":"330530","name":"São Sebastião do Alto","uf":"RJ"}},
{"type":"Feature","geometry":{"type":"Polygon","coordinates":[[[-44.08625,-22.64056],[-44.01724,-22.64056],[-43.87399,-22.80927],[-43.785,-22.69285],[-43.77215,-22.606],[-43.79785,-22.55188],[-43.91349,-22.52096],[-44.06864,-22.59236],[-44.08625,-22.64056]]]},"properties":{"cod_ibge":"330400","name":"Piraí","uf":"RJ"}},
{"type":"Feature","geometry":{"type":"Polygon","coordinates":[[[-43.55561,-22.67967],[-43.62271,-22.64238],[-43.66078,-22.61964],[-43.67078,-22.65284],[-43.63889,-22.72014],[-43.55561,-22.67967]]]},"properties":{"cod_ibge":"330227","name":"Japeri","uf":"RJ"}},
{"type":"Feature","geometry":{"type":"Polygon","coordinates":[[[-43.1035,-22.8561],[-42.95692,-22.90067],[-42.886,-22.86747],[-43.0264,-22.74287],[-43.1035,-22.8561]]]},"properties":{"cod_ibge":"330490","name":"São Gonçalo","uf":"RJ"}},
{"type":"Feature","geometry":{"type":"Polygon","coordinates":[[[-42.69088,-21.96936],[-42.54811,-21.99983],[-42.50908,-21.90752],[-42.45959,-21.78474],[-42.4634,-21.7861],[-42.60617,-21.84658],[-42.66518,-21.87341],[-42.69088,-21.96936]]]},"properties":{"cod_ibge":"330120","name":"Carmo","uf":"RJ"}},
{"type":"Feature","geometry":{"type":"Polygon","coordinates":[[[-43.59749,-22.56825],[-43.71171,-22.54961],[-43.77215,-22.606],[-43.785,-22.69285],[-43.75311,-22.70013],[-43.67078,-22.65284],[-43.66078,-22.61964],[-43.59749,-22.56825]]]},"properties":{"cod_ibge":"330360","name":"Paracambi","uf":"RJ"}},
{"type":"Feature","geometry":{"type":"Polygon","coordinates":[[[-43.27292,-22.80972],[-43.33098,-22.80245],[-43.39047,-22.81381],[-43.46899,-22.84019],[-43.48993,-22.81563],[-43.67363,-22.86384],[-43.79594,-22.91704],[-43.54895,-23.06074],[-43.3029,-23.01617],[-43.15013,-22.95069],[-43.27292,-22.80972]]]},"properties":{"cod_ibge":"330455","name":"Rio de Janeiro","uf":"RJ"}},
{"type":"Feature","geometry":{"type":"Polygon","coordinates":[[[-42.22402,-21.33773],[-42.09314,-21.345],[-42.03508,-21.23814],[-42.19546,-21.16038],[-42.2026,-21.22131],[-42.22402,-21.33773]]]},"properties":{"cod_ibge":"330230","name":"Laje do Muriaé","uf":"RJ"}},
{"type":"Feature","geometry":{"type":"Polygon","coordinates":[[[-41.81759,-22.41683],[-42.06363,-22.42274],[-41.97892,-22.56234],[-41.81759,-22.41683]]]},"properties":{"cod_ibge":"330452","name":"Rio das Ostras","uf":"RJ"}},
{"type":"Feature","geometry":{"type":"Polygon","coordinates":[[[-43.46899,-22.84019],[-43.39047,-22.81381],[-43.41093,-22.79153],[-43.46899,-22.84019]]]},"properties":{"cod_ibge":"330320","name":"Nilópolis","uf":"RJ"}},
{"type":"Feature","geometry":{"type":"Polygon","coordinates":[[[-40.98189,-21.91115],[-41.04804,-21.61785],[-41.13418,-21.67787],[-41.1832,-21.7238],[-41.128,-21.91206],[-40.98189,-21.91115]]]},"properties":{"cod_ibge":"330500","name":"São João da Barra","uf":"RJ"}},
{"type":"Feature","geometry":{"type":"Polygon","coordinates":[[[-43.33098,-22.80245],[-43.27292,-22.80972],[-43.21438,-22.72787],[-43.22485,-22.56371],[-43.29624,-22.47549],[-43.40141,-22.53324],[-43.36525,-22.68512],[-43.32908,-22.75606],[-43.33098,-22.80245]]]},"properties":{"cod_ibge":"330170","name":"Duque de Caxias","uf":"RJ"}},
{"type":"Feature","geometry":{"type":"Polygon","coordinates":[[[-44.34229,-22.58917],[-44.16572,-22.6733],[-44.08625,-22.64056],[-44.14193,-22.43547],[-44.00582,-22.40728],[-44.02628,-22.29723],[-44.14812,-22.33133],[-44.30088,-22.44957],[-44.33229,-22.49368],[-44.34229,-22.58917]]]},"properties":{"cod_ibge":"330040","name":"Barra Mansa","uf":"RJ"}},
{"type":"Feature","geometry":{"type":"Polygon","coordinates":[[[-43.71171,-22.54961],[-43.68839,-22.46321],[-43.75454,-22.46003],[-43.79785,-22.55188],[-43.77215,-22.606],[-43.71171,-22.54961]]]},"properties":{"cod_ibge":"330280","name":"Mendes","uf":"RJ"}},
{"type":"Feature","geometry":{"type":"Polygon","coordinates":[[[-44.00582,-22.40728],[-44.14193,-22.43547],[-44.08625,-22.64056],[-44.06864,-22.59236],[-44.03057,-22.49731],[-44.00582,-22.40728]]]},"properties":{"cod_ibge":"330630","name":"Volta Redonda","uf":"RJ"}},
{"type":"Feature","geometry":{"type":"Polygon","coordinates":[[[-43.36525,-22.68512],[-43.41093,-22.76789],[-43.39713,-22.77743],[-43.32908,-22.75606],[-43.36525,-22.68512]]]},"properties":{"cod_ibge":"330045","name":"Belford Roxo","uf":"RJ"}},
{"type":"Feature","geometry":{"type":"Polygon","coordinates":[[[-43.41093,-22.79153],[-43.39713,-22.77743],[-43.41093,-22.76789],[-43.48993,-22.81563],[-43.46899,-22.84019],[-43.41093,-22.79153]]]},"properties":{"cod_ibge":"330285","name":"Mesquita","uf":"RJ"}},
{"type":"Feature","geometry":{"type":"Polygon","coordinates":[[[-41.96179,-22.07804],[-42.13597,-22.02484],[-42.21926,-22.00983],[-42.26923,-22.08941],[-42.29397,-22.11442],[-42.28731,-22.29223],[-42.25067,-22.30632],[-42.07648,-22.16444],[-41.97369,-22.13352],[-41.96179,-22.07804]]]},"properties":{"cod_ibge":"330590","name":"Trajano de Moraes","uf":"RJ"}},
{"type":"Feature","geometry":{"type":"Polygon","coordinates":[[[-42.13597,-22.02484],[-41.96179,-22.07804],[-41.75049,-22.08623],[-41.70956,-21.89433],[-41.88374,-21.8725],[-41.97131,-21.80293],[-42.13597,-22.02484]]]},"properties":{"cod_ibge":"330460","name":"Santa Maria Madalena","uf":"RJ"}},
{"type":"Feature","geometry":{"type":"Polygon","coordinates":[[[-43.1035,-22.8561],[-43.01355,-22.97661],[-42.95692,-22.90067],[-43.1035,-22.8561]]]},"properties":{"cod_ibge":"330330","name":"Niterói","uf":"RJ"}},
{"type":"Feature","geometry":{"type":"MultiPolygon","coordinates":[[[[-43.79594,-22.91704],[-43.67363,-22.86384],[-43.78357,-22.80199],[-43.75311,-22.70013],[-43.785,-22.69285],[-43.87399,-22.80927],[-43.93919,-22.88112],[-43.88065,-22.91568],[-43.79594,-22.91704]]],[[[-43.79309,-23.06392],[-43.66792,-23.05301],[-43.6665,-23.04255],[-43.79309,-23.06165],[-43.79309,-23.06392]]]]},"properties":{"cod_ibge":"330200","name":"Itaguaí","uf":"RJ"}},
{"type":"Feature","geometry":{"type":"Polygon","coordinates":[[[-41.78142,-21.40048],[-41.74287,-21.46414],[-41.62675,-21.59556],[-41.65721,-21.47915],[-41.55108,-21.42913],[-41.58487,-21.31726],[-41.78142,-21.40048]]]},"properties":{"cod_ibge":"330205","name":"Italva","uf":"RJ"}},
{"type":"Feature","geometry":{"type":"Polygon","coordinates":[[[-43.59749,-22.56825],[-43.5618,-22.50004],[-43.68839,-22.46321],[-43.71171,-22.54961],[-43.59749,-22.56825]]]},"properties":{"cod_ibge":"330180","name":"Engenheiro Paulo de Frontin","uf":"RJ"}},
{"type":"Feature","geometry":{"type":"Polygon","coordinates":[[[-42.52193,-22.1599],[-42.3587,-22.30178],[-42.28731,-22.29223],[-42.29397,-22.11442],[-42.34823,-22.10806],[-42.52193,-22.1599]]]},"properties":{"cod_ibge":"330050","name":"Bom Jardim","uf":"RJ"}},
{"type":"Feature","geometry":{"type":"Polygon","coordinates":[[[-43.32908,-22.75606],[-43.39713,-22.77743],[-43.41093,-22.79153],[-43.39047,-22.81381],[-43.33098,-22.80245],[-43.32908,-22.75606]]]},"properties":{"cod_ibge":"330510","name":"São João de Meriti","uf":"RJ"}},
{"type":"Feature","geometry":{"type":"Polygon","coordinates":[[[-42.75561,-22.11806],[-42.96976,-22.0885],[-43.04781,-22.20855],[-42.98071,-22.26449],[-42.74466,-22.12761],[-42.75561,-22.11806]]]},"properties":{"cod_ibge":"330515","name":"São José do Vale do Rio Preto","uf":"RJ"}},
{"type":"Feature","geometry":{"type":"Polygon","coordinates":[[[-41.81616,-21.32772],[-41.91753,-21.29498],[-42.0346,-21.34318],[-42.05792,-21.43368],[-41.99796,-21.4887],[-41.81616,-21.32772]]]},"properties":{"cod_ibge":"330513","name":"São José de Ubá","uf":"RJ"}},
{"type":"Feature","geometry":{"type":"Polygon","coordinates":[[[-42.23686,-22.86338],[-42.21164,-22.87793],[-42.254,-22.79199],[-42.23686,-22.86338]]]},"properties":{"cod_ibge":"330187","name":"Iguaba Grande","uf":"RJ"}},
{"type":"Feature","geometry":{"type":"Polygon","coordinates":[[[-42.90694,-22.65511],[-42.86554,-22.57144],[-42.91837,-22.45093],[-43.02878,-22.46139],[-43.06209,-22.48458],[-43.03877,-22.6924],[-43.02592,-22.72605],[-42.90694,-22.65511]]]},"properties":{"cod_ibge":"330185","name":"Guapimirim","uf":"RJ"}},
{"type":"Feature","geometry":{"type":"Polygon","coordinates":[[[-43.37048,-22.45184],[-43.49136,-22.42001],[-43.5618,-22.50004],[-43.59749,-22.56825],[-43.66078,-22.61964],[-43.62271,-22.64238],[-43.58559,-22.58326],[-43.40141,-22.53324],[-43.29624,-22.47549],[-43.37048,-22.45184]]]},"properties":{"cod_ibge":"330290","name":"Miguel Pereira","uf":"RJ"}},
{"type":"Feature","geometry":{"type":"Polygon","coordinates":[[[-42.11979,-21.60148],[-41.99796,-21.4887],[-42.05792,-21.43368],[-42.12407,-21.47369],[-42.27541,-21.42731],[-42.34585,-21.58283],[-42.35251,-21.59147],[-42.26685,-21.71425],[-42.23686,-21.69743],[-42.18451,-21.68151],[-42.11979,-21.60148]]]},"properties":{"cod_ibge":"330470","name":"Santo Antônio de Pádua","uf":"RJ"}},
{"type":"Feature","geometry":{"type":"Polygon","coordinates":[[[-41.65959,-22.05576],[-41.43781,-21.98664],[-41.13371,-22.09532],[-41.00426,-22.0212],[-40.98189,-21.91115],[-41.128,-21.91206],[-41.1832,-21.7238],[-41.13418,-21.67787],[-41.24412,-21.50052],[-41.276,-21.23996],[-41.4697,-21.20267],[-41.58487,-21.31726],[-41.55108,-21.42913],[-41.44924,-21.39866],[-41.36024,-21.54418],[-41.53823,-21.62194],[-41.69623,-21.71425],[-41.88374,-21.8725],[-41.70956,-21.89433],[-41.75049,-22.08623],[-41.65959,-22.05576]]]},"properties":{"cod_ibge":"330100","name":"Campos dos Goytacazes","uf":"RJ"}},
{"type":"Feature","geometry":{"type":"Polygon","coordinates":[[[-41.04804,-21.61785],[-41.05756,-21.4787],[-40.96095,-21.30089],[-41.13704,-21.22722],[-41.276,-21.23996],[-41.24412,-21.50052],[-41.13418,-21.67787],[-41.04804,-21.61785]]]},"properties":{"cod_ibge":"330475","name":"São Francisco de Itabapoana","uf":"RJ"}},
{"type":"Feature","geometry":{"type":"Polygon","coordinates":[[[-42.44674,-22.82291],[-42.44198,-22.73014],[-42.56477,-22.62009],[-42.74704,-22.68649],[-42.64519,-22.85474],[-42.44674,-22.82291]]]},"properties":{"cod_ibge":"330430","name":"Rio Bonito","uf":"RJ"}},
{"type":"Feature","geometry":{"type":"Polygon","coordinates":[[[-42.72753,-22.35544],[-42.55239,-22.37817],[-42.55049,-22.45593],[-42.27779,-22.40182],[-42.20545,-22.36908],[-42.25067,-22.30632],[-42.28731,-22.29223],[-42.3587,-22.30178],[-42.52193,-22.1599],[-42.55763,-22.16354],[-42.7142,-22.26631],[-42.72753,-22.35544]]]},"properties":{"cod_ibge":"330340","name":"Nova Friburgo","uf":"RJ"}},
{"type":"Feature","geometry":{"type":"Polygon","coordinates":[[[-42.27541,-21.42731],[-42.12407,-21.47369],[-42.05792,-21.43368],[-42.0346,-21.34318],[-42.09314,-21.345],[-42.22402,-21.33773],[-42.23544,-21.34273],[-42.27541,-21.42731]]]},"properties":{"cod_ibge":"330300","name":"Miracema","uf":"RJ"}},
{"type":"Feature","geometry":{"type":"Polygon","coordinates":[[[-43.18154,-22.30132],[-43.04781,-22.20855],[-43.15965,-22.19264],[-43.18154,-22.30132]]]},"properties":{"cod_ibge":"330022","name":"Areal","uf":"RJ"}},
{"type":"Feature","geometry":{"type":"Polygon","coordinates":[[[-42.41485,-22.03757],[-42.34823,-22.10806],[-42.29397,-22.11442],[-42.26923,-22.08941],[-42.31777,-21.99665],[-42.41485,-22.03757]]]},"properties":{"cod_ibge":"330150","name":"Cordeiro","uf":"RJ"}},
{"type":"Feature","geometry":{"type":"Polygon","coordinates":[[[-41.9694,-22.82291],[-41.90801,-22.77834],[-41.97369,-22.72969],[-41.9694,-22.82291]]]},"properties":{"cod_ibge":"330023","name":"Armação dos Búzios","uf":"RJ"}},
{"type":"Feature","geometry":{"type":"Polygon","coordinates":[[[-42.38154,-22.93568],[-42.28112,-22.93932],[-42.23686,-22.86338],[-42.254,-22.79199],[-42.13169,-22.65329],[-42.18261,-22.55279],[-42.18689,-22.55552],[-42.44198,-22.73014],[-42.44674,-22.82291],[-42.38154,-22.93568]]]},"properties":{"cod_ibge":"330020","name":"Araruama","uf":"RJ"}},
{"type":"Feature","geometry":{"type":"Polygon","coordinates":[[[-43.02878,-22.46139],[-43.03639,-22.30814],[-42.98071,-22.26449],[-43.04781,-22.20855],[-43.18154,-22.30132],[-43.28862,-22.3709],[-43.37048,-22.45184],[-43.29624,-22.47549],[-43.22485,-22.56371],[-43.06209,-22.48458],[-43.02878,-22.46139]]]},"properties":{"cod_ibge":"330390","name":"Petrópolis","uf":"RJ"}}
]}