{"type":"FeatureCollection", "features": [
{"type":"Feature","geometry":{"type":"Polygon","coordinates":[[[-38.29063,-7.02114],[-38.36059,-6.98976],[-38.34345,-7.10481],[-38.29063,-7.02114]]]},"properties":{"cod_ibge":"250410","name":"Carrapateira","uf":"PB"}},
{"type":"Feature","geometry":{"type":"Polygon","coordinates":[[[-35.51417,-7.03069],[-35.49181,-7.07207],[-35.37711,-7.03251],[-35.31572,-6.98658],[-35.38044,-6.93246],[-35.45944,-6.96339],[-35.51417,-7.03069]]]},"properties":{"cod_ibge":"250980","name":"Mulungu","uf":"PB"}},
{"type":"Feature","geometry":{"type":"Polygon","coordinates":[[[-35.23291,-7.20531],[-35.30382,-7.21577],[-35.32095,-7.29353],[-35.27098,-7.36401],[-35.21911,-7.29944],[-35.23291,-7.20531]]]},"properties":{"cod_ibge":"251150","name":"Pilar","uf":"PB"}},
{"type":"Feature","geometry":{"type":"Polygon","coordinates":[[[-35.78306,-6.82515],[-35.78021,-6.69054],[-35.86587,-6.67917],[-35.92393,-6.72101],[-35.89776,-6.79377],[-35.81019,-6.8638],[-35.78306,-6.82515]]]},"properties":{"cod_ibge":"250415","name":"Casserengue","uf":"PB"}},
{"type":"Feature","geometry":{"type":"Polygon","coordinates":[[[-35.6836,-6.65962],[-35.6441,-6.77512],[-35.53035,-6.77103],[-35.52084,-6.7583],[-35.52655,-6.64507],[-35.54035,-6.59641],[-35.6836,-6.65962]]]},"properties":{"cod_ibge":"250150","name":"Bananeiras","uf":"PB"}},
{"type":"Feature","geometry":{"type":"Polygon","coordinates":[[[-36.23184,-6.59641],[-36.26849,-6.69191],[-36.25041,-6.68554],[-36.24184,-6.64234],[-36.23184,-6.59641]]]},"properties":{"cod_ibge":"250153","name":"Baraúna","uf":"PB"}},
{"type":"Feature","geometry":{"type":"Polygon","coordinates":[[[-37.01376,-7.40358],[-36.77391,-7.37402],[-36.77724,-7.32036],[-36.76677,-7.30581],[-37.01472,-7.24896],[-37.05326,-7.37947],[-37.01376,-7.40358]]]},"properties":{"cod_ibge":"250850","name":"Livramento","uf":"PB"}},
{"type":"Feature","geometry":{"type":"Polygon","coordinates":[[[-36.07194,-7.60412],[-35.95629,-7.65323],[-35.86873,-7.66278],[-35.87539,-7.5118],[-36.00912,-7.4536],[-36.04957,-7.48361],[-36.08669,-7.60048],[-36.07194,-7.60412]]]},"properties":{"cod_ibge":"250157","name":"Barra de Santana","uf":"PB"}},
{"type":"Feature","geometry":{"type":"Polygon","coordinates":[[[-38.0798,-7.38948],[-38.04649,-7.51408],[-37.98081,-7.52636],[-37.95606,-7.49862],[-38.0798,-7.38948]]]},"properties":{"cod_ibge":"251020","name":"Nova Olinda","uf":"PB"}},
{"type":"Feature","geometry":{"type":"Polygon","coordinates":[[[-35.96724,-7.07116],[-35.95677,-7.0175],[-35.94344,-6.93838],[-35.95344,-6.91246],[-36.11096,-6.93246],[-36.15998,-6.94611],[-36.23232,-7.10527],[-36.22375,-7.19803],[-36.09478,-7.15438],[-36.0253,-7.1662],[-35.97961,-7.10026],[-35.96724,-7.07116]]]},"properties":{"cod_ibge":"251200","name":"Pocinhos","uf":"PB"}},
{"type":"Feature","geometry":{"type":"Polygon","coordinates":[[[-38.08932,-7.01159],[-38.26398,-6.99249],[-38.29063,-7.02114],[-38.34345,-7.10481],[-38.29539,-7.15438],[-38.27825,-7.17802],[-38.17213,-7.1612],[-38.05791,-7.08844],[-38.08932,-7.01159]]]},"properties":{"cod_ibge":"250020","name":"Aguiar","uf":"PB"}},
{"type":"Feature","geometry":{"type":"Polygon","coordinates":[[[-37.48491,-6.24262],[-37.33453,-6.16986],[-37.23363,-6.21307],[-37.15701,-6.15258],[-37.17414,-6.04799],[-37.37879,-6.08528],[-37.52203,-6.15168],[-37.61626,-6.17623],[-37.61293,-6.27218],[-37.48491,-6.24262]]]},"properties":{"cod_ibge":"250200","name":"Belém do Brejo do Cruz","uf":"PB"}},
{"type":"Feature","geometry":{"type":"Polygon","coordinates":[[[-35.57557,-6.80696],[-35.64172,-6.80059],[-35.69121,-6.81832],[-35.65695,-6.86835],[-35.58794,-6.83924],[-35.57604,-6.82333],[-35.57557,-6.80696]]]},"properties":{"cod_ibge":"251590","name":"Serraria","uf":"PB"}},
{"type":"Feature","geometry":{"type":"Polygon","coordinates":[[[-38.22923,-6.48318],[-38.28872,-6.50546],[-38.3425,-6.58641],[-38.34869,-6.6146],[-38.25636,-6.60778],[-38.22923,-6.48318]]]},"properties":{"cod_ibge":"251720","name":"Vieirópolis","uf":"PB"}},
{"type":"Feature","geometry":{"type":"Polygon","coordinates":[[[-37.81995,-7.09799],[-37.77569,-7.14255],[-37.70383,-7.17575],[-37.67956,-7.01659],[-37.86945,-7.01659],[-37.81995,-7.09799]]]},"properties":{"cod_ibge":"250590","name":"Emas","uf":"PB"}},
{"type":"Feature","geometry":{"type":"Polygon","coordinates":[[[-35.53702,-7.38584],[-35.70311,-7.33764],[-35.75594,-7.47224],[-35.58413,-7.45041],[-35.54606,-7.43404],[-35.53416,-7.39403],[-35.53702,-7.38584]]]},"properties":{"cod_ibge":"250720","name":"Itatuba","uf":"PB"}},
{"type":"Feature","geometry":{"type":"Polygon","coordinates":[[[-35.44231,-6.48682],[-35.45421,-6.61233],[-35.40757,-6.48955],[-35.44231,-6.48682]]]},"properties":{"cod_ibge":"250855","name":"Logradouro","uf":"PB"}},
{"type":"Feature","geometry":{"type":"Polygon","coordinates":[[[-35.44279,-6.75284],[-35.409,-6.76557],[-35.37426,-6.75693],[-35.43422,-6.70737],[-35.47372,-6.74056],[-35.44279,-6.75284]]]},"properties":{"cod_ibge":"251593","name":"Sertãozinho","uf":"PB"}},
{"type":"Feature","geometry":{"type":"Polygon","coordinates":[[[-37.96891,-6.61324],[-37.78283,-6.64189],[-37.78807,-6.59778],[-37.80282,-6.59505],[-37.90229,-6.54139],[-37.98081,-6.52956],[-37.96891,-6.61324]]]},"properties":{"cod_ibge":"250810","name":"Lagoa","uf":"PB"}},
{"type":"Feature","geometry":{"type":"Polygon","coordinates":[[[-38.52144,-6.49273],[-38.52239,-6.44498],[-38.53858,-6.42134],[-38.61091,-6.53184],[-38.60711,-6.52956],[-38.52144,-6.49273]]]},"properties":{"cod_ibge":"250205","name":"Bernardino Batista","uf":"PB"}},
{"type":"Feature","geometry":{"type":"Polygon","coordinates":[[[-38.56237,-6.35585],[-38.53858,-6.42134],[-38.52239,-6.44498],[-38.46243,-6.41452],[-38.44815,-6.40315],[-38.45862,-6.33039],[-38.56237,-6.35585]]]},"properties":{"cod_ibge":"251203","name":"Poço Dantas","uf":"PB"}},
{"type":"Feature","geometry":{"type":"Polygon","coordinates":[[[-38.57094,-6.79786],[-38.52002,-6.70373],[-38.64899,-6.62779],[-38.67231,-6.70646],[-38.65232,-6.75693],[-38.61377,-6.7824],[-38.57094,-6.79786]]]},"properties":{"cod_ibge":"251330","name":"Santa Helena","uf":"PB"}},
{"type":"Feature","geometry":{"type":"Polygon","coordinates":[[[-35.23291,-7.20531],[-35.18722,-7.17757],[-35.26099,-7.13755],[-35.3319,-7.17484],[-35.33285,-7.17939],[-35.30382,-7.21577],[-35.23291,-7.20531]]]},"properties":{"cod_ibge":"251597","name":"Sobrado","uf":"PB"}},
{"type":"Feature","geometry":{"type":"Polygon","coordinates":[[[-38.67373,-7.04615],[-38.64661,-6.87835],[-38.67183,-6.84697],[-38.76511,-6.91064],[-38.76463,-6.99385],[-38.67373,-7.04615]]]},"properties":{"cod_ibge":"250330","name":"Cachoeira dos Índios","uf":"PB"}},
{"type":"Feature","geometry":{"type":"Polygon","coordinates":[[[-38.50431,-6.51774],[-38.49622,-6.6628],[-38.43816,-6.57549],[-38.50145,-6.52866],[-38.50431,-6.51774]]]},"properties":{"cod_ibge":"251207","name":"Poço de José de Moura","uf":"PB"}},
{"type":"Feature","geometry":{"type":"Polygon","coordinates":[[[-37.24791,-7.1994],[-37.24506,-7.11027],[-37.38878,-7.14801],[-37.38688,-7.1662],[-37.33405,-7.21668],[-37.24791,-7.1994]]]},"properties":{"cod_ibge":"251460","name":"São José do Bonfim","uf":"PB"}},
{"type":"Feature","geometry":{"type":"Polygon","coordinates":[[[-34.85742,-7.34264],[-34.80269,-7.38811],[-34.80602,-7.24442],[-34.92928,-7.22532],[-34.94308,-7.24851],[-34.85742,-7.34264]]]},"properties":{"cod_ibge":"250460","name":"Conde","uf":"PB"}},
{"type":"Feature","geometry":{"type":"Polygon","coordinates":[[[-35.54035,-6.59641],[-35.52655,-6.64507],[-35.51084,-6.6478],[-35.45421,-6.61233],[-35.44231,-6.48682],[-35.58128,-6.48409],[-35.63696,-6.45453],[-35.65266,-6.49182],[-35.55748,-6.54594],[-35.54035,-6.59641]]]},"properties":{"cod_ibge":"251640","name":"Tacima","uf":"PB"}},
{"type":"Feature","geometry":{"type":"Polygon","coordinates":[[[-35.34856,-7.19439],[-35.37711,-7.03251],[-35.49181,-7.07207],[-35.53273,-7.12073],[-35.51513,-7.20349],[-35.44802,-7.25669],[-35.34856,-7.19439]]]},"properties":{"cod_ibge":"250640","name":"Gurinhém","uf":"PB"}},
{"type":"Feature","geometry":{"type":"Polygon","coordinates":[[[-35.5651,-6.90882],[-35.5651,-6.88654],[-35.58794,-6.83924],[-35.65695,-6.86835],[-35.64981,-6.91064],[-35.58413,-6.92155],[-35.5651,-6.90882]]]},"properties":{"cod_ibge":"251160","name":"Pilões","uf":"PB"}},
{"type":"Feature","geometry":{"type":"Polygon","coordinates":[[[-37.48491,-6.24262],[-37.33405,-6.30856],[-37.23363,-6.21307],[-37.33453,-6.16986],[-37.48491,-6.24262]]]},"properties":{"cod_ibge":"251465","name":"São José do Brejo do Cruz","uf":"PB"}},
{"type":"Feature","geometry":{"type":"Polygon","coordinates":[[[-35.92393,-6.72101],[-35.96724,-6.58504],[-36.1062,-6.66872],[-36.26088,-6.83697],[-36.15998,-6.94611],[-36.11096,-6.93246],[-35.89776,-6.79377],[-35.92393,-6.72101]]]},"properties":{"cod_ibge":"250160","name":"Barra de Santa Rosa","uf":"PB"}},
{"type":"Feature","geometry":{"type":"Polygon","coordinates":[[[-35.89538,-7.08571],[-35.82732,-7.12482],[-35.81257,-7.10254],[-35.8554,-7.05115],[-35.89728,-7.0798],[-35.89823,-7.08026],[-35.89538,-7.08571]]]},"properties":{"cod_ibge":"251510","name":"São Sebastião de Lagoa de Roça","uf":"PB"}},
{"type":"Feature","geometry":{"type":"Polygon","coordinates":[[[-38.4572,-7.71826],[-38.5243,-7.62731],[-38.68278,-7.57865],[-38.71514,-7.62185],[-38.59378,-7.75418],[-38.4572,-7.71826]]]},"properties":{"cod_ibge":"251335","name":"Santa Inês","uf":"PB"}},
{"type":"Feature","geometry":{"type":"Polygon","coordinates":[[[-36.24184,-6.64234],[-36.1062,-6.66872],[-35.96724,-6.58504],[-35.87682,-6.57777],[-35.8673,-6.54457],[-35.87015,-6.48864],[-35.96534,-6.48455],[-36.09621,-6.41997],[-36.09669,-6.42043],[-36.17426,-6.43089],[-36.22518,-6.55958],[-36.23184,-6.59641],[-36.24184,-6.64234]]]},"properties":{"cod_ibge":"250510","name":"Cuité","uf":"PB"}},
{"type":"Feature","geometry":{"type":"Polygon","coordinates":[[[-35.08776,-6.62506],[-35.13345,-6.76694],[-35.12345,-6.89563],[-35.09871,-6.93929],[-35.00257,-6.91246],[-34.89882,-6.86607],[-34.925,-6.76739],[-35.02684,-6.70828],[-35.00495,-6.59823],[-35.08776,-6.62506]]]},"properties":{"cod_ibge":"251290","name":"Rio Tinto","uf":"PB"}},
{"type":"Feature","geometry":{"type":"Polygon","coordinates":[[[-37.81662,-6.44817],[-37.84327,-6.33312],[-37.91942,-6.41179],[-37.86421,-6.44998],[-37.81662,-6.44817]]]},"properties":{"cod_ibge":"250290","name":"Brejo dos Santos","uf":"PB"}},
{"type":"Feature","geometry":{"type":"Polygon","coordinates":[[[-36.66064,-7.12937],[-36.56355,-7.18212],[-36.48503,-7.18848],[-36.47694,-6.99431],[-36.55594,-6.89427],[-36.67539,-7.01568],[-36.66064,-7.12937]]]},"properties":{"cod_ibge":"250770","name":"Juazeirinho","uf":"PB"}},
{"type":"Feature","geometry":{"type":"Polygon","coordinates":[[[-36.53357,-6.73329],[-36.40174,-6.75648],[-36.28134,-6.67872],[-36.43839,-6.62915],[-36.52072,-6.61051],[-36.53357,-6.73329]]]},"properties":{"cod_ibge":"251030","name":"Nova Palmeira","uf":"PB"}},
{"type":"Feature","geometry":{"type":"Polygon","coordinates":[[[-35.71168,-7.0889],[-35.70644,-7.1039],[-35.67741,-7.14619],[-35.62744,-7.13255],[-35.53273,-7.12073],[-35.49181,-7.07207],[-35.51417,-7.03069],[-35.59317,-6.94929],[-35.68788,-7.02978],[-35.71168,-7.0889]]]},"properties":{"cod_ibge":"250030","name":"Alagoa Grande","uf":"PB"}},
{"type":"Feature","geometry":{"type":"Polygon","coordinates":[[[-35.97961,-7.10026],[-35.93059,-7.10754],[-35.89538,-7.08571],[-35.89823,-7.08026],[-35.96724,-7.07116],[-35.97961,-7.10026]]]},"properties":{"cod_ibge":"250950","name":"Montadas","uf":"PB"}},
{"type":"Feature","geometry":{"type":"Polygon","coordinates":[[[-37.78521,-6.87926],[-37.63102,-6.8065],[-37.65719,-6.72192],[-37.78283,-6.64189],[-37.96891,-6.61324],[-38.0165,-6.67053],[-38.02269,-6.76421],[-37.90419,-6.73329],[-37.87659,-6.8256],[-38.00032,-6.87335],[-38.0146,-6.88381],[-38.00603,-6.94383],[-37.86945,-7.01659],[-37.78521,-6.87926]]]},"properties":{"cod_ibge":"251210","name":"Pombal","uf":"PB"}},
{"type":"Feature","geometry":{"type":"Polygon","coordinates":[[[-38.14072,-7.39675],[-38.25303,-7.39266],[-38.25636,-7.48816],[-38.09979,-7.48088],[-38.14072,-7.39675]]]},"properties":{"cod_ibge":"250210","name":"Boa Ventura","uf":"PB"}},
{"type":"Feature","geometry":{"type":"Polygon","coordinates":[[[-36.91002,-6.75693],[-36.77438,-6.91473],[-36.7601,-6.91473],[-36.73012,-6.83651],[-36.83482,-6.73101],[-36.91002,-6.75693]]]},"properties":{"cod_ibge":"251470","name":"São José do Sabugi","uf":"PB"}},
{"type":"Feature","geometry":{"type":"Polygon","coordinates":[[[-36.72679,-7.77601],[-36.5726,-7.93608],[-36.53643,-7.90152],[-36.61876,-7.70643],[-36.65731,-7.68551],[-36.76534,-7.72781],[-36.72679,-7.77601]]]},"properties":{"cod_ibge":"250470","name":"Congo","uf":"PB"}},
{"type":"Feature","geometry":{"type":"Polygon","coordinates":[[[-35.41471,-6.67599],[-35.34856,-6.74966],[-35.32,-6.70873],[-35.32857,-6.62188],[-35.41471,-6.67599]]]},"properties":{"cod_ibge":"250820","name":"Lagoa de Dentro","uf":"PB"}},
{"type":"Feature","geometry":{"type":"Polygon","coordinates":[[[-36.33083,-7.30808],[-36.14285,-7.35583],[-36.12381,-7.36174],[-36.09478,-7.15438],[-36.22375,-7.19803],[-36.32607,-7.18894],[-36.33083,-7.30808]]]},"properties":{"cod_ibge":"250215","name":"Boa Vista","uf":"PB"}},
{"type":"Feature","geometry":{"type":"Polygon","coordinates":[[[-37.00996,-6.87107],[-36.94238,-7.04069],[-36.91525,-7.08071],[-36.86528,-7.06297],[-36.77438,-6.91473],[-36.91002,-6.75693],[-36.95903,-6.78331],[-37.00996,-6.87107]]]},"properties":{"cod_ibge":"251340","name":"Santa Luzia","uf":"PB"}},
{"type":"Feature","geometry":{"type":"Polygon","coordinates":[[[-37.14416,-8.12479],[-37.02043,-8.28986],[-36.95475,-8.29941],[-36.96427,-8.18073],[-36.87956,-8.01702],[-36.92905,-8.03703],[-37.03756,-8.0443],[-37.14416,-8.12479]]]},"properties":{"cod_ibge":"251520","name":"São Sebastião do Umbuzeiro","uf":"PB"}},
{"type":"Feature","geometry":{"type":"Polygon","coordinates":[[[-37.08658,-7.10845],[-37.1889,-7.05888],[-37.24506,-7.11027],[-37.24791,-7.1994],[-37.17557,-7.2285],[-37.08991,-7.16893],[-37.08658,-7.10845]]]},"properties":{"cod_ibge":"250340","name":"Cacimba de Areia","uf":"PB"}},
{"type":"Feature","geometry":{"type":"Polygon","coordinates":[[[-35.5651,-6.90882],[-35.47134,-6.92382],[-35.53464,-6.87198],[-35.5651,-6.88654],[-35.5651,-6.90882]]]},"properties":{"cod_ibge":"250520","name":"Cuitegi","uf":"PB"}},
{"type":"Feature","geometry":{"type":"Polygon","coordinates":[[[-36.7068,-7.26988],[-36.66064,-7.12937],[-36.77866,-7.1089],[-36.93048,-7.14983],[-37.02043,-7.19076],[-37.01472,-7.24896],[-36.76677,-7.30581],[-36.7068,-7.26988]]]},"properties":{"cod_ibge":"251650","name":"Taperoá","uf":"PB"}},
{"type":"Feature","geometry":{"type":"Polygon","coordinates":[[[-36.48503,-7.18848],[-36.56355,-7.18212],[-36.55594,-7.32127],[-36.60115,-7.35219],[-36.33083,-7.30808],[-36.32607,-7.18894],[-36.48503,-7.18848]]]},"properties":{"cod_ibge":"250650","name":"Gurjão","uf":"PB"}},
{"type":"Feature","geometry":{"type":"Polygon","coordinates":[[[-35.26337,-6.95611],[-35.17723,-6.95156],[-35.23053,-6.86971],[-35.29668,-6.85152],[-35.26337,-6.95611]]]},"properties":{"cod_ibge":"250523","name":"Cuité de Mamanguape","uf":"PB"}},
{"type":"Feature","geometry":{"type":"Polygon","coordinates":[[[-35.57604,-6.82333],[-35.58794,-6.83924],[-35.5651,-6.88654],[-35.53464,-6.87198],[-35.48562,-6.81923],[-35.57604,-6.82333]]]},"properties":{"cod_ibge":"251170","name":"Pilõezinhos","uf":"PB"}},
{"type":"Feature","geometry":{"type":"Polygon","coordinates":[[[-35.24291,-6.696],[-35.32,-6.70873],[-35.34856,-6.74966],[-35.37045,-6.75557],[-35.34951,-6.77467],[-35.23101,-6.76103],[-35.22768,-6.68872],[-35.24291,-6.696]]]},"properties":{"cod_ibge":"250527","name":"Curral de Cima","uf":"PB"}},
{"type":"Feature","geometry":{"type":"Polygon","coordinates":[[[-37.1889,-7.05888],[-37.08658,-7.10845],[-37.0071,-7.05161],[-37.17319,-6.98294],[-37.1889,-7.05888]]]},"properties":{"cod_ibge":"251260","name":"Quixaba","uf":"PB"}},
{"type":"Feature","geometry":{"type":"Polygon","coordinates":[[[-38.09122,-7.23487],[-38.05791,-7.08844],[-38.17213,-7.1612],[-38.09122,-7.23487]]]},"properties":{"cod_ibge":"250260","name":"Igaracy","uf":"PB"}},
{"type":"Feature","geometry":{"type":"Polygon","coordinates":[[[-36.65493,-6.92837],[-36.7601,-6.91473],[-36.77438,-6.91473],[-36.86528,-7.06297],[-36.7444,-7.02932],[-36.70109,-7.0075],[-36.65493,-6.92837]]]},"properties":{"cod_ibge":"250780","name":"Junco do Seridó","uf":"PB"}},
{"type":"Feature","geometry":{"type":"Polygon","coordinates":[[[-38.61996,-7.22032],[-38.55428,-7.25169],[-38.40627,-7.20622],[-38.40818,-7.20258],[-38.64423,-7.18394],[-38.61996,-7.22032]]]},"properties":{"cod_ibge":"250960","name":"Monte Horebe","uf":"PB"}},
{"type":"Feature","geometry":{"type":"Polygon","coordinates":[[[-37.90086,-7.30626],[-37.77569,-7.14255],[-37.81995,-7.09799],[-38.05791,-7.08844],[-38.09122,-7.23487],[-38.05267,-7.31763],[-37.90086,-7.30626]]]},"properties":{"cod_ibge":"251130","name":"Piancó","uf":"PB"}},
{"type":"Feature","geometry":{"type":"Polygon","coordinates":[[[-35.82542,-7.45996],[-35.7112,-7.64186],[-35.65647,-7.61685],[-35.58413,-7.45041],[-35.75594,-7.47224],[-35.82494,-7.45951],[-35.82542,-7.45996]]]},"properties":{"cod_ibge":"250130","name":"Aroeiras","uf":"PB"}},
{"type":"Feature","geometry":{"type":"Polygon","coordinates":[[[-36.7444,-7.02932],[-36.77866,-7.1089],[-36.66064,-7.12937],[-36.67539,-7.01568],[-36.70109,-7.0075],[-36.7444,-7.02932]]]},"properties":{"cod_ibge":"250135","name":"Assunção","uf":"PB"}},
{"type":"Feature","geometry":{"type":"Polygon","coordinates":[[[-36.87956,-8.01702],[-36.81626,-7.95836],[-36.5726,-7.93608],[-36.72679,-7.77601],[-36.78342,-7.82694],[-36.96094,-7.83103],[-36.92905,-8.03703],[-36.87956,-8.01702]]]},"properties":{"cod_ibge":"250390","name":"Camalaú","uf":"PB"}},
{"type":"Feature","geometry":{"type":"Polygon","coordinates":[[[-36.43982,-7.4777],[-36.47789,-7.65323],[-36.446,-7.67187],[-36.30228,-7.59684],[-36.43982,-7.4777]]]},"properties":{"cod_ibge":"251394","name":"São Domingos do Cariri","uf":"PB"}},
{"type":"Feature","geometry":{"type":"Polygon","coordinates":[[[-35.83494,-7.19576],[-35.78592,-7.15119],[-35.82732,-7.12482],[-35.89538,-7.08571],[-35.93059,-7.10754],[-35.90727,-7.17984],[-35.83494,-7.19576]]]},"properties":{"cod_ibge":"250830","name":"Lagoa Seca","uf":"PB"}},
{"type":"Feature","geometry":{"type":"Polygon","coordinates":[[[-37.78521,-6.87926],[-37.69384,-6.9602],[-37.63102,-6.8065],[-37.78521,-6.87926]]]},"properties":{"cod_ibge":"251392","name":"São Bentinho","uf":"PB"}},
{"type":"Feature","geometry":{"type":"Polygon","coordinates":[[[-38.35202,-6.88608],[-38.42816,-6.9311],[-38.38676,-6.9884],[-38.36059,-6.98976],[-38.29063,-7.02114],[-38.26398,-6.99249],[-38.25589,-6.90473],[-38.32489,-6.87562],[-38.35202,-6.88608]]]},"properties":{"cod_ibge":"251000","name":"Nazarezinho","uf":"PB"}},
{"type":"Feature","geometry":{"type":"Polygon","coordinates":[[[-37.65719,-6.72192],[-37.63911,-6.72465],[-37.51965,-6.71055],[-37.48491,-6.7101],[-37.46492,-6.53275],[-37.50966,-6.52684],[-37.66385,-6.54821],[-37.78807,-6.59778],[-37.78283,-6.64189],[-37.65719,-6.72192]]]},"properties":{"cod_ibge":"251090","name":"Paulista","uf":"PB"}},
{"type":"Feature","geometry":{"type":"Polygon","coordinates":[[[-38.1074,-6.6046],[-38.08979,-6.69373],[-38.0165,-6.67053],[-37.96891,-6.61324],[-38.1074,-6.6046]]]},"properties":{"cod_ibge":"251398","name":"São Francisco","uf":"PB"}},
{"type":"Feature","geometry":{"type":"Polygon","coordinates":[[[-38.40627,-7.20622],[-38.42293,-7.31172],[-38.31442,-7.16347],[-38.40818,-7.20258],[-38.40627,-7.20622]]]},"properties":{"cod_ibge":"251570","name":"Serra Grande","uf":"PB"}},
{"type":"Feature","geometry":{"type":"Polygon","coordinates":[[[-35.67979,-7.7037],[-35.61935,-7.66232],[-35.65647,-7.61685],[-35.7112,-7.64186],[-35.83303,-7.66096],[-35.82542,-7.74963],[-35.78973,-7.74054],[-35.67979,-7.7037]]]},"properties":{"cod_ibge":"251700","name":"Umbuzeiro","uf":"PB"}},
{"type":"Feature","geometry":{"type":"Polygon","coordinates":[[[-35.55748,-6.54594],[-35.68931,-6.59095],[-35.73214,-6.61869],[-35.74213,-6.67645],[-35.6836,-6.65962],[-35.54035,-6.59641],[-35.55748,-6.54594]]]},"properties":{"cod_ibge":"250570","name":"Dona Inês","uf":"PB"}},
{"type":"Feature","geometry":{"type":"Polygon","coordinates":[[[-38.00032,-6.87335],[-37.87659,-6.8256],[-37.90419,-6.73329],[-38.02269,-6.76421],[-38.00032,-6.87335]]]},"properties":{"cod_ibge":"251396","name":"São Domingos","uf":"PB"}},
{"type":"Feature","geometry":{"type":"Polygon","coordinates":[[[-35.69835,-7.21895],[-35.67741,-7.14619],[-35.70644,-7.1039],[-35.78592,-7.15119],[-35.83494,-7.19576],[-35.70454,-7.25988],[-35.69835,-7.21895]]]},"properties":{"cod_ibge":"250920","name":"Massaranduba","uf":"PB"}},
{"type":"Feature","geometry":{"type":"Polygon","coordinates":[[[-35.36283,-7.44268],[-35.43232,-7.31808],[-35.53416,-7.39403],[-35.54606,-7.43404],[-35.49514,-7.48406],[-35.43422,-7.47088],[-35.36283,-7.44268]]]},"properties":{"cod_ibge":"251310","name":"Salgado de São Félix","uf":"PB"}},
{"type":"Feature","geometry":{"type":"Polygon","coordinates":[[[-36.22185,-7.54454],[-36.14285,-7.35583],[-36.33083,-7.30808],[-36.43982,-7.4777],[-36.30228,-7.59684],[-36.22185,-7.54454]]]},"properties":{"cod_ibge":"250310","name":"Cabaceiras","uf":"PB"}},
{"type":"Feature","geometry":{"type":"Polygon","coordinates":[[[-35.80305,-6.86607],[-35.64981,-6.91064],[-35.65695,-6.86835],[-35.69121,-6.81832],[-35.78306,-6.82515],[-35.81019,-6.8638],[-35.80305,-6.86607]]]},"properties":{"cod_ibge":"250090","name":"Arara","uf":"PB"}},
{"type":"Feature","geometry":{"type":"Polygon","coordinates":[[[-37.26409,-6.73238],[-37.31406,-6.68918],[-37.48491,-6.7101],[-37.51965,-6.71055],[-37.55392,-6.77558],[-37.48206,-6.91564],[-37.21269,-6.90518],[-37.23459,-6.82469],[-37.26409,-6.73238]]]},"properties":{"cod_ibge":"251440","name":"São José de Espinharas","uf":"PB"}},
{"type":"Feature","geometry":{"type":"Polygon","coordinates":[[[-38.68278,-7.57865],[-38.5243,-7.62731],[-38.4572,-7.71826],[-38.43435,-7.72053],[-38.43863,-7.59093],[-38.49146,-7.43814],[-38.40056,-7.42404],[-38.41389,-7.34082],[-38.54952,-7.33491],[-38.68278,-7.57865]]]},"properties":{"cod_ibge":"250440","name":"Conceição","uf":"PB"}},
{"type":"Feature","geometry":{"type":"Polygon","coordinates":[[[-38.15309,-6.89518],[-38.08979,-6.69373],[-38.1074,-6.6046],[-38.12739,-6.59732],[-38.25636,-6.60778],[-38.34869,-6.6146],[-38.35345,-6.77194],[-38.32489,-6.87562],[-38.25589,-6.90473],[-38.15309,-6.89518]]]},"properties":{"cod_ibge":"251620","name":"Sousa","uf":"PB"}},
{"type":"Feature","geometry":{"type":"Polygon","coordinates":[[[-36.34416,-6.30265],[-36.50454,-6.38632],[-36.52834,-6.47909],[-36.4817,-6.52047],[-36.34416,-6.30265]]]},"properties":{"cod_ibge":"250620","name":"Frei Martinho","uf":"PB"}},
{"type":"Feature","geometry":{"type":"Polygon","coordinates":[[[-36.43839,-6.62915],[-36.28134,-6.67872],[-36.26849,-6.69191],[-36.23184,-6.59641],[-36.22518,-6.55958],[-36.22661,-6.43407],[-36.29657,-6.37041],[-36.27896,-6.31766],[-36.29514,-6.29219],[-36.34416,-6.30265],[-36.4817,-6.52047],[-36.43839,-6.62915]]]},"properties":{"cod_ibge":"251140","name":"Picuí","uf":"PB"}},
{"type":"Feature","geometry":{"type":"Polygon","coordinates":[[[-35.42232,-7.27261],[-35.32095,-7.29353],[-35.30382,-7.21577],[-35.33285,-7.17939],[-35.34856,-7.19439],[-35.44802,-7.25669],[-35.42232,-7.27261]]]},"properties":{"cod_ibge":"251445","name":"São José dos Ramos","uf":"PB"}},
{"type":"Feature","geometry":{"type":"Polygon","coordinates":[[[-35.7112,-7.64186],[-35.82542,-7.45996],[-35.87539,-7.5118],[-35.86873,-7.66278],[-35.83303,-7.66096],[-35.7112,-7.64186]]]},"properties":{"cod_ibge":"250625","name":"Gado Bravo","uf":"PB"}},
{"type":"Feature","geometry":{"type":"Polygon","coordinates":[[[-34.93166,-6.72101],[-34.96497,-6.60278],[-35.00495,-6.59823],[-35.02684,-6.70828],[-34.93166,-6.72101]]]},"properties":{"cod_ibge":"250140","name":"Baía da Traição","uf":"PB"}},
{"type":"Feature","geometry":{"type":"Polygon","coordinates":[[[-35.24291,-6.696],[-35.32857,-6.62188],[-35.32,-6.70873],[-35.24291,-6.696]]]},"properties":{"cod_ibge":"251272","name":"Pedro Régis","uf":"PB"}},
{"type":"Feature","geometry":{"type":"Polygon","coordinates":[[[-35.82542,-7.74963],[-35.83303,-7.66096],[-35.86873,-7.66278],[-35.95629,-7.65323],[-36.02149,-7.81011],[-36.00341,-7.81284],[-35.94344,-7.7901],[-35.8811,-7.76646],[-35.82542,-7.74963]]]},"properties":{"cod_ibge":"251315","name":"Santa Cecília","uf":"PB"}},
{"type":"Feature","geometry":{"type":"Polygon","coordinates":[[[-35.94344,-6.93838],[-35.77688,-7.02114],[-35.80733,-6.8738],[-35.95344,-6.91246],[-35.94344,-6.93838]]]},"properties":{"cod_ibge":"251270","name":"Remígio","uf":"PB"}},
{"type":"Feature","geometry":{"type":"Polygon","coordinates":[[[-35.53035,-6.77103],[-35.6441,-6.77512],[-35.64172,-6.80059],[-35.57557,-6.80696],[-35.53035,-6.77103]]]},"properties":{"cod_ibge":"250270","name":"Borborema","uf":"PB"}},
{"type":"Feature","geometry":{"type":"Polygon","coordinates":[[[-34.92928,-7.22532],[-34.80602,-7.24442],[-34.84219,-7.05615],[-34.86361,-7.0607],[-34.89121,-7.0939],[-34.93594,-7.16666],[-34.92928,-7.22532]]]},"properties":{"cod_ibge":"250750","name":"João Pessoa","uf":"PB"}},
{"type":"Feature","geometry":{"type":"Polygon","coordinates":[[[-35.3319,-7.17484],[-35.26099,-7.13755],[-35.28859,-7.10936],[-35.3319,-7.17484]]]},"properties":{"cod_ibge":"251276","name":"Riachão do Poço","uf":"PB"}},
{"type":"Feature","geometry":{"type":"Polygon","coordinates":[[[-35.65266,-6.49182],[-35.68931,-6.59095],[-35.55748,-6.54594],[-35.65266,-6.49182]]]},"properties":{"cod_ibge":"251274","name":"Riachão","uf":"PB"}},
{"type":"Feature","geometry":{"type":"Polygon","coordinates":[[[-37.57581,-6.81196],[-37.52013,-7.00158],[-37.48206,-6.91564],[-37.55392,-6.77558],[-37.57581,-6.81196]]]},"properties":{"cod_ibge":"250880","name":"Malta","uf":"PB"}},
{"type":"Feature","geometry":{"type":"Polygon","coordinates":[[[-35.70454,-7.25988],[-35.67122,-7.20895],[-35.69835,-7.21895],[-35.70454,-7.25988]]]},"properties":{"cod_ibge":"251275","name":"Riachão do Bacamarte","uf":"PB"}},
{"type":"Feature","geometry":{"type":"Polygon","coordinates":[[[-36.17426,-6.43089],[-36.22661,-6.43407],[-36.22518,-6.55958],[-36.17426,-6.43089]]]},"properties":{"cod_ibge":"251010","name":"Nova Floresta","uf":"PB"}},
{"type":"Feature","geometry":{"type":"Polygon","coordinates":[[[-37.572,-7.48907],[-37.72144,-7.38311],[-37.72477,-7.3872],[-37.73477,-7.59729],[-37.62007,-7.5259],[-37.572,-7.48907]]]},"properties":{"cod_ibge":"250010","name":"Água Branca","uf":"PB"}},
{"type":"Feature","geometry":{"type":"Polygon","coordinates":[[[-36.19044,-7.6414],[-36.12667,-7.77101],[-36.07194,-7.60412],[-36.08669,-7.60048],[-36.19044,-7.6414]]]},"properties":{"cod_ibge":"251278","name":"Riacho de Santo Antônio","uf":"PB"}},
{"type":"Feature","geometry":{"type":"Polygon","coordinates":[[[-35.62744,-7.13255],[-35.67741,-7.14619],[-35.69835,-7.21895],[-35.67122,-7.20895],[-35.60507,-7.16938],[-35.62744,-7.13255]]]},"properties":{"cod_ibge":"251580","name":"Serra Redonda","uf":"PB"}},
{"type":"Feature","geometry":{"type":"Polygon","coordinates":[[[-35.43422,-6.70737],[-35.37426,-6.75693],[-35.37045,-6.75557],[-35.34856,-6.74966],[-35.41471,-6.67599],[-35.43422,-6.70737]]]},"properties":{"cod_ibge":"250580","name":"Duas Estradas","uf":"PB"}},
{"type":"Feature","geometry":{"type":"Polygon","coordinates":[[[-37.92037,-7.47497],[-37.89705,-7.56273],[-37.75333,-7.62594],[-37.74571,-7.60912],[-37.73477,-7.59729],[-37.72477,-7.3872],[-37.84042,-7.41676],[-37.92037,-7.47497]]]},"properties":{"cod_ibge":"250800","name":"Juru","uf":"PB"}},
{"type":"Feature","geometry":{"type":"Polygon","coordinates":[[[-38.64423,-7.18394],[-38.40818,-7.20258],[-38.31442,-7.16347],[-38.29539,-7.15438],[-38.34345,-7.10481],[-38.36059,-6.98976],[-38.38676,-6.9884],[-38.66993,-7.04751],[-38.64423,-7.18394]]]},"properties":{"cod_ibge":"251450","name":"São José de Piranhas","uf":"PB"}},
{"type":"Feature","geometry":{"type":"Polygon","coordinates":[[[-37.52013,-7.00158],[-37.57581,-6.81196],[-37.63911,-6.72465],[-37.65719,-6.72192],[-37.63102,-6.8065],[-37.69384,-6.9602],[-37.67956,-7.01659],[-37.52013,-7.00158]]]},"properties":{"cod_ibge":"250450","name":"Condado","uf":"PB"}},
{"type":"Feature","geometry":{"type":"Polygon","coordinates":[[[-35.11251,-6.50501],[-35.08776,-6.62506],[-35.00495,-6.59823],[-34.96497,-6.60278],[-34.96831,-6.48727],[-35.11251,-6.50501]]]},"properties":{"cod_ibge":"250930","name":"Mataraca","uf":"PB"}},
{"type":"Feature","geometry":{"type":"Polygon","coordinates":[[[-37.73286,-6.48727],[-37.80282,-6.59505],[-37.78807,-6.59778],[-37.66385,-6.54821],[-37.73286,-6.48727]]]},"properties":{"cod_ibge":"250937","name":"Mato Grosso","uf":"PB"}},
{"type":"Feature","geometry":{"type":"Polygon","coordinates":[[[-35.71168,-7.0889],[-35.81257,-7.10254],[-35.82732,-7.12482],[-35.78592,-7.15119],[-35.70644,-7.1039],[-35.71168,-7.0889]]]},"properties":{"cod_ibge":"250933","name":"Matinhas","uf":"PB"}},
{"type":"Feature","geometry":{"type":"Polygon","coordinates":[[[-38.12025,-7.81875],[-38.06933,-7.77237],[-38.10407,-7.57047],[-38.1312,-7.79556],[-38.12025,-7.81875]]]},"properties":{"cod_ibge":"251455","name":"São José de Princesa","uf":"PB"}},
{"type":"Feature","geometry":{"type":"Polygon","coordinates":[[[-38.12739,-6.59732],[-38.1074,-6.6046],[-37.96891,-6.61324],[-37.98081,-6.52956],[-38.02697,-6.47454],[-38.07076,-6.46408],[-38.12025,-6.52229],[-38.12739,-6.59732]]]},"properties":{"cod_ibge":"251320","name":"Santa Cruz","uf":"PB"}},
{"type":"Feature","geometry":{"type":"Polygon","coordinates":[[[-34.84219,-7.05615],[-34.85885,-7.02978],[-34.86361,-7.0607],[-34.84219,-7.05615]]]},"properties":{"cod_ibge":"250320","name":"Cabedelo","uf":"PB"}},
{"type":"Feature","geometry":{"type":"Polygon","coordinates":[[[-35.19341,-7.31126],[-35.1482,-7.20531],[-35.18722,-7.17757],[-35.23291,-7.20531],[-35.21911,-7.29944],[-35.19341,-7.31126]]]},"properties":{"cod_ibge":"251500","name":"São Miguel de Taipu","uf":"PB"}},
{"type":"Feature","geometry":{"type":"Polygon","coordinates":[[[-36.4046,-6.85607],[-36.32941,-6.93519],[-36.26088,-6.83697],[-36.25897,-6.80968],[-36.4046,-6.85607]]]},"properties":{"cod_ibge":"250500","name":"Cubati","uf":"PB"}},
{"type":"Feature","geometry":{"type":"Polygon","coordinates":[[[-37.66385,-6.54821],[-37.50966,-6.52684],[-37.58866,-6.44225],[-37.73286,-6.48727],[-37.66385,-6.54821]]]},"properties":{"cod_ibge":"251280","name":"Riacho dos Cavalos","uf":"PB"}},
{"type":"Feature","geometry":{"type":"Polygon","coordinates":[[[-37.31406,-7.28944],[-37.33405,-7.22805],[-37.39687,-7.30808],[-37.38592,-7.35674],[-37.31406,-7.28944]]]},"properties":{"cod_ibge":"250939","name":"Maturéia","uf":"PB"}},
{"type":"Feature","geometry":{"type":"Polygon","coordinates":[[[-36.96094,-7.83103],[-36.78342,-7.82694],[-36.72679,-7.77601],[-36.76534,-7.72781],[-36.87813,-7.53863],[-36.98521,-7.47542],[-37.02519,-7.4968],[-37.07658,-7.59957],[-37.02614,-7.71689],[-36.96094,-7.83103]]]},"properties":{"cod_ibge":"251630","name":"Sumé","uf":"PB"}},
{"type":"Feature","geometry":{"type":"Polygon","coordinates":[[[-35.53464,-6.87198],[-35.47134,-6.92382],[-35.45944,-6.96339],[-35.38044,-6.93246],[-35.46468,-6.81241],[-35.48562,-6.81923],[-35.53464,-6.87198]]]},"properties":{"cod_ibge":"250630","name":"Guarabira","uf":"PB"}},
{"type":"Feature","geometry":{"type":"Polygon","coordinates":[[[-36.67396,-7.38266],[-36.63018,-7.39266],[-36.60115,-7.35219],[-36.55594,-7.32127],[-36.7068,-7.26988],[-36.76677,-7.30581],[-36.77724,-7.32036],[-36.67396,-7.38266]]]},"properties":{"cod_ibge":"251065","name":"Parari","uf":"PB"}},
{"type":"Feature","geometry":{"type":"Polygon","coordinates":[[[-35.12345,-6.89563],[-35.13345,-6.76694],[-35.08776,-6.62506],[-35.11251,-6.50501],[-35.14582,-6.55276],[-35.19389,-6.55048],[-35.22768,-6.68872],[-35.23101,-6.76103],[-35.16343,-6.85061],[-35.12345,-6.89563]]]},"properties":{"cod_ibge":"250890","name":"Mamanguape","uf":"PB"}},
{"type":"Feature","geometry":{"type":"Polygon","coordinates":[[[-34.9545,-7.40585],[-34.85076,-7.43995],[-34.85742,-7.34264],[-34.94308,-7.24851],[-35.0435,-7.27898],[-34.9545,-7.40585]]]},"properties":{"cod_ibge":"250060","name":"Alhandra","uf":"PB"}},
{"type":"Feature","geometry":{"type":"Polygon","coordinates":[[[-38.54952,-7.33491],[-38.41389,-7.34082],[-38.42293,-7.31172],[-38.40627,-7.20622],[-38.55428,-7.25169],[-38.54952,-7.33491]]]},"properties":{"cod_ibge":"250240","name":"Bonito de Santa Fé","uf":"PB"}},
{"type":"Feature","geometry":{"type":"Polygon","coordinates":[[[-36.0253,-7.1662],[-35.90727,-7.17984],[-35.93059,-7.10754],[-35.97961,-7.10026],[-36.0253,-7.1662]]]},"properties":{"cod_ibge":"251240","name":"Puxinanã","uf":"PB"}},
{"type":"Feature","geometry":{"type":"Polygon","coordinates":[[[-35.53273,-7.12073],[-35.62744,-7.13255],[-35.60507,-7.16938],[-35.54273,-7.20122],[-35.51513,-7.20349],[-35.53273,-7.12073]]]},"properties":{"cod_ibge":"250760","name":"Juarez Távora","uf":"PB"}},
{"type":"Feature","geometry":{"type":"Polygon","coordinates":[[[-35.64981,-6.91064],[-35.80305,-6.86607],[-35.80733,-6.8738],[-35.77688,-7.02114],[-35.78021,-7.0266],[-35.68788,-7.02978],[-35.59317,-6.94929],[-35.58413,-6.92155],[-35.64981,-6.91064]]]},"properties":{"cod_ibge":"250110","name":"Areia","uf":"PB"}},
{"type":"Feature","geometry":{"type":"Polygon","coordinates":[[[-36.54357,-6.84197],[-36.4046,-6.85607],[-36.25897,-6.80968],[-36.25041,-6.68554],[-36.26849,-6.69191],[-36.28134,-6.67872],[-36.40174,-6.75648],[-36.53357,-6.73329],[-36.54357,-6.84197]]]},"properties":{"cod_ibge":"251110","name":"Pedra Lavrada","uf":"PB"}},
{"type":"Feature","geometry":{"type":"Polygon","coordinates":[[[-37.0071,-7.05161],[-37.02043,-7.19076],[-36.93048,-7.14983],[-36.91525,-7.08071],[-36.94238,-7.04069],[-37.0071,-7.05161]]]},"properties":{"cod_ibge":"250115","name":"Areia de Baraúnas","uf":"PB"}},
{"type":"Feature","geometry":{"type":"Polygon","coordinates":[[[-38.42816,-6.9311],[-38.42055,-6.82105],[-38.57094,-6.79786],[-38.64661,-6.87835],[-38.67373,-7.04615],[-38.66993,-7.04751],[-38.38676,-6.9884],[-38.42816,-6.9311]]]},"properties":{"cod_ibge":"250370","name":"Cajazeiras","uf":"PB"}},
{"type":"Feature","geometry":{"type":"Polygon","coordinates":[[[-35.0435,-7.27898],[-34.94308,-7.24851],[-34.92928,-7.22532],[-34.93594,-7.16666],[-34.9407,-7.12255],[-34.89121,-7.0939],[-34.86361,-7.0607],[-34.85885,-7.02978],[-34.86932,-6.97794],[-35.00257,-6.91246],[-35.09871,-6.93929],[-35.13345,-6.94247],[-35.15772,-7.02751],[-35.0592,-7.08116],[-35.0673,-7.2285],[-35.0435,-7.27898]]]},"properties":{"cod_ibge":"251370","name":"Santa Rita","uf":"PB"}},
{"type":"Feature","geometry":{"type":"Polygon","coordinates":[[[-35.43232,-7.31808],[-35.42232,-7.27261],[-35.44802,-7.25669],[-35.51513,-7.20349],[-35.54273,-7.20122],[-35.53702,-7.38584],[-35.53416,-7.39403],[-35.43232,-7.31808]]]},"properties":{"cod_ibge":"250940","name":"Mogeiro","uf":"PB"}},
{"type":"Feature","geometry":{"type":"Polygon","coordinates":[[[-35.70311,-7.33764],[-35.53702,-7.38584],[-35.54273,-7.20122],[-35.60507,-7.16938],[-35.67122,-7.20895],[-35.70454,-7.25988],[-35.73547,-7.324],[-35.70311,-7.33764]]]},"properties":{"cod_ibge":"250680","name":"Ingá","uf":"PB"}},
{"type":"Feature","geometry":{"type":"Polygon","coordinates":[[[-38.64899,-6.62779],[-38.52002,-6.70373],[-38.49622,-6.6628],[-38.50431,-6.51774],[-38.52144,-6.49273],[-38.60711,-6.52956],[-38.64899,-6.62779]]]},"properties":{"cod_ibge":"251680","name":"Triunfo","uf":"PB"}},
{"type":"Feature","geometry":{"type":"Polygon","coordinates":[[[-37.08658,-7.10845],[-37.08991,-7.16893],[-37.02043,-7.19076],[-37.0071,-7.05161],[-37.08658,-7.10845]]]},"properties":{"cod_ibge":"251070","name":"Passagem","uf":"PB"}},
{"type":"Feature","geometry":{"type":"Polygon","coordinates":[[[-37.63911,-6.72465],[-37.57581,-6.81196],[-37.55392,-6.77558],[-37.51965,-6.71055],[-37.63911,-6.72465]]]},"properties":{"cod_ibge":"250550","name":"Vista Serrana","uf":"PB"}},
{"type":"Feature","geometry":{"type":"Polygon","coordinates":[[[-36.59877,-7.58365],[-36.53024,-7.52817],[-36.63018,-7.39266],[-36.67396,-7.38266],[-36.87813,-7.53863],[-36.76534,-7.72781],[-36.65731,-7.68551],[-36.59877,-7.58365]]]},"properties":{"cod_ibge":"251550","name":"Serra Branca","uf":"PB"}},
{"type":"Feature","geometry":{"type":"Polygon","coordinates":[[[-37.78521,-6.87926],[-37.86945,-7.01659],[-37.67956,-7.01659],[-37.69384,-6.9602],[-37.78521,-6.87926]]]},"properties":{"cod_ibge":"250375","name":"Cajazeirinhas","uf":"PB"}},
{"type":"Feature","geometry":{"type":"Polygon","coordinates":[[[-38.1312,-7.79556],[-38.10407,-7.57047],[-38.18355,-7.61367],[-38.31109,-7.73917],[-38.2221,-7.82057],[-38.1312,-7.79556]]]},"properties":{"cod_ibge":"250900","name":"Manaíra","uf":"PB"}},
{"type":"Feature","geometry":{"type":"Polygon","coordinates":[[[-34.925,-6.76739],[-34.93166,-6.72101],[-35.02684,-6.70828],[-34.925,-6.76739]]]},"properties":{"cod_ibge":"250905","name":"Marcação","uf":"PB"}},
{"type":"Feature","geometry":{"type":"Polygon","coordinates":[[[-38.42816,-6.9311],[-38.35202,-6.88608],[-38.35345,-6.77194],[-38.34869,-6.6146],[-38.3425,-6.58641],[-38.43816,-6.57549],[-38.49622,-6.6628],[-38.52002,-6.70373],[-38.57094,-6.79786],[-38.42055,-6.82105],[-38.42816,-6.9311]]]},"properties":{"cod_ibge":"250070","name":"São João do Rio do Peixe","uf":"PB"}},
{"type":"Feature","geometry":{"type":"Polygon","coordinates":[[[-37.70383,-7.17575],[-37.5701,-7.31627],[-37.49443,-7.22714],[-37.52013,-7.00158],[-37.67956,-7.01659],[-37.70383,-7.17575]]]},"properties":{"cod_ibge":"250420","name":"Catingueira","uf":"PB"}},
{"type":"Feature","geometry":{"type":"Polygon","coordinates":[[[-38.26398,-6.99249],[-38.08932,-7.01159],[-38.00603,-6.94383],[-38.0146,-6.88381],[-38.15309,-6.89518],[-38.25589,-6.90473],[-38.26398,-6.99249]]]},"properties":{"cod_ibge":"251420","name":"São José da Lagoa Tapada","uf":"PB"}},
{"type":"Feature","geometry":{"type":"Polygon","coordinates":[[[-35.78021,-7.0266],[-35.77688,-7.02114],[-35.94344,-6.93838],[-35.95677,-7.0175],[-35.89728,-7.0798],[-35.8554,-7.05115],[-35.78021,-7.0266]]]},"properties":{"cod_ibge":"250600","name":"Esperança","uf":"PB"}},
{"type":"Feature","geometry":{"type":"Polygon","coordinates":[[[-35.6441,-6.77512],[-35.6836,-6.65962],[-35.74213,-6.67645],[-35.78021,-6.69054],[-35.78306,-6.82515],[-35.69121,-6.81832],[-35.64172,-6.80059],[-35.6441,-6.77512]]]},"properties":{"cod_ibge":"251600","name":"Solânea","uf":"PB"}},
{"type":"Feature","geometry":{"type":"Polygon","coordinates":[[[-35.58413,-7.45041],[-35.65647,-7.61685],[-35.61935,-7.66232],[-35.52702,-7.64504],[-35.5018,-7.51271],[-35.49514,-7.48406],[-35.54606,-7.43404],[-35.58413,-7.45041]]]},"properties":{"cod_ibge":"250990","name":"Natuba","uf":"PB"}},
{"type":"Feature","geometry":{"type":"Polygon","coordinates":[[[-35.89728,-7.0798],[-35.95677,-7.0175],[-35.96724,-7.07116],[-35.89823,-7.08026],[-35.89728,-7.0798]]]},"properties":{"cod_ibge":"250120","name":"Areial","uf":"PB"}},
{"type":"Feature","geometry":{"type":"Polygon","coordinates":[[[-35.15391,-7.39266],[-34.98544,-7.46178],[-34.98496,-7.49998],[-34.9545,-7.40585],[-35.0435,-7.27898],[-35.0673,-7.2285],[-35.1482,-7.20531],[-35.19341,-7.31126],[-35.15391,-7.39266]]]},"properties":{"cod_ibge":"251120","name":"Pedras de Fogo","uf":"PB"}},
{"type":"Feature","geometry":{"type":"Polygon","coordinates":[[[-37.07658,-7.59957],[-37.02519,-7.4968],[-37.02566,-7.4968],[-37.07944,-7.51681],[-37.0999,-7.59957],[-37.07658,-7.59957]]]},"properties":{"cod_ibge":"250073","name":"Amparo","uf":"PB"}},
{"type":"Feature","geometry":{"type":"Polygon","coordinates":[[[-36.04957,-7.48361],[-36.12381,-7.36174],[-36.14285,-7.35583],[-36.22185,-7.54454],[-36.19044,-7.6414],[-36.08669,-7.60048],[-36.04957,-7.48361]]]},"properties":{"cod_ibge":"250250","name":"Boqueirão","uf":"PB"}},
{"type":"Feature","geometry":{"type":"Polygon","coordinates":[[[-36.00912,-7.4536],[-35.87539,-7.5118],[-35.82542,-7.45996],[-35.82494,-7.45951],[-35.83827,-7.33127],[-35.9482,-7.28034],[-36.00198,-7.38402],[-36.00912,-7.4536]]]},"properties":{"cod_ibge":"251250","name":"Queimadas","uf":"PB"}},
{"type":"Feature","geometry":{"type":"Polygon","coordinates":[[[-35.32857,-6.62188],[-35.24291,-6.696],[-35.22768,-6.68872],[-35.19389,-6.55048],[-35.22435,-6.52183],[-35.34142,-6.53866],[-35.36474,-6.51183],[-35.32857,-6.62188]]]},"properties":{"cod_ibge":"250730","name":"Jacaraú","uf":"PB"}},
{"type":"Feature","geometry":{"type":"Polygon","coordinates":[[[-38.08979,-6.69373],[-38.15309,-6.89518],[-38.0146,-6.88381],[-38.00032,-6.87335],[-38.02269,-6.76421],[-38.0165,-6.67053],[-38.08979,-6.69373]]]},"properties":{"cod_ibge":"250077","name":"Aparecida","uf":"PB"}},
{"type":"Feature","geometry":{"type":"Polygon","coordinates":[[[-34.86932,-6.97794],[-34.89882,-6.86607],[-35.00257,-6.91246],[-34.86932,-6.97794]]]},"properties":{"cod_ibge":"250860","name":"Lucena","uf":"PB"}},
{"type":"Feature","geometry":{"type":"Polygon","coordinates":[[[-35.37711,-7.03251],[-35.34856,-7.19439],[-35.33285,-7.17939],[-35.3319,-7.17484],[-35.28859,-7.10936],[-35.37711,-7.03251]]]},"properties":{"cod_ibge":"250380","name":"Caldas Brandão","uf":"PB"}},
{"type":"Feature","geometry":{"type":"Polygon","coordinates":[[[-37.38878,-7.14801],[-37.37165,-6.99795],[-37.52013,-7.00158],[-37.49443,-7.22714],[-37.38688,-7.1662],[-37.38878,-7.14801]]]},"properties":{"cod_ibge":"251380","name":"Santa Teresinha","uf":"PB"}},
{"type":"Feature","geometry":{"type":"Polygon","coordinates":[[[-35.42185,-6.66781],[-35.47372,-6.74056],[-35.43422,-6.70737],[-35.41471,-6.67599],[-35.42185,-6.66781]]]},"properties":{"cod_ibge":"251560","name":"Serra da Raiz","uf":"PB"}},
{"type":"Feature","geometry":{"type":"Polygon","coordinates":[[[-38.25636,-7.48816],[-38.25303,-7.39266],[-38.32251,-7.32991],[-38.41389,-7.34082],[-38.40056,-7.42404],[-38.31014,-7.51908],[-38.2478,-7.5691],[-38.25636,-7.48816]]]},"properties":{"cod_ibge":"250560","name":"Diamante","uf":"PB"}},
{"type":"Feature","geometry":{"type":"Polygon","coordinates":[[[-36.55594,-7.32127],[-36.56355,-7.18212],[-36.66064,-7.12937],[-36.7068,-7.26988],[-36.55594,-7.32127]]]},"properties":{"cod_ibge":"251385","name":"Santo André","uf":"PB"}},
{"type":"Feature","geometry":{"type":"Polygon","coordinates":[[[-35.32095,-7.29353],[-35.42232,-7.27261],[-35.43232,-7.31808],[-35.36283,-7.44268],[-35.34285,-7.42222],[-35.33285,-7.4154],[-35.28003,-7.38766],[-35.27098,-7.36401],[-35.32095,-7.29353]]]},"properties":{"cod_ibge":"250690","name":"Itabaiana","uf":"PB"}},
{"type":"Feature","geometry":{"type":"Polygon","coordinates":[[[-38.3425,-6.58641],[-38.28872,-6.50546],[-38.34393,-6.45681],[-38.44815,-6.40315],[-38.46243,-6.41452],[-38.50145,-6.52866],[-38.43816,-6.57549],[-38.3425,-6.58641]]]},"properties":{"cod_ibge":"251690","name":"Uiraúna","uf":"PB"}},
{"type":"Feature","geometry":{"type":"Polygon","coordinates":[[[-37.24506,-7.11027],[-37.1889,-7.05888],[-37.17319,-6.98294],[-37.21269,-6.90518],[-37.48206,-6.91564],[-37.52013,-7.00158],[-37.37165,-6.99795],[-37.38878,-7.14801],[-37.24506,-7.11027]]]},"properties":{"cod_ibge":"251080","name":"Patos","uf":"PB"}},
{"type":"Feature","geometry":{"type":"Polygon","coordinates":[[[-37.57724,-6.42179],[-37.61293,-6.27218],[-37.61626,-6.17623],[-37.70907,-6.17714],[-37.77665,-6.24581],[-37.84327,-6.33312],[-37.81662,-6.44817],[-37.73286,-6.48727],[-37.58866,-6.44225],[-37.57724,-6.42179]]]},"properties":{"cod_ibge":"250430","name":"Catolé do Rocha","uf":"PB"}},
{"type":"Feature","geometry":{"type":"Polygon","coordinates":[[[-38.27825,-7.17802],[-38.29539,-7.15438],[-38.31442,-7.16347],[-38.42293,-7.31172],[-38.41389,-7.34082],[-38.32251,-7.32991],[-38.27825,-7.17802]]]},"properties":{"cod_ibge":"251430","name":"São José de Caiana","uf":"PB"}},
{"type":"Feature","geometry":{"type":"Polygon","coordinates":[[[-35.37711,-7.03251],[-35.28859,-7.10936],[-35.26337,-6.95611],[-35.31572,-6.98658],[-35.37711,-7.03251]]]},"properties":{"cod_ibge":"250910","name":"Mari","uf":"PB"}},
{"type":"Feature","geometry":{"type":"Polygon","coordinates":[[[-38.35345,-6.77194],[-38.35202,-6.88608],[-38.32489,-6.87562],[-38.35345,-6.77194]]]},"properties":{"cod_ibge":"250915","name":"Marizópolis","uf":"PB"}},
{"type":"Feature","geometry":{"type":"Polygon","coordinates":[[[-34.98496,-7.49998],[-34.85361,-7.53954],[-34.85076,-7.43995],[-34.9545,-7.40585],[-34.98496,-7.49998]]]},"properties":{"cod_ibge":"250300","name":"Caaporã","uf":"PB"}},
{"type":"Feature","geometry":{"type":"Polygon","coordinates":[[[-36.77866,-7.1089],[-36.7444,-7.02932],[-36.86528,-7.06297],[-36.91525,-7.08071],[-36.93048,-7.14983],[-36.77866,-7.1089]]]},"properties":{"cod_ibge":"251300","name":"Salgadinho","uf":"PB"}},
{"type":"Feature","geometry":{"type":"Polygon","coordinates":[[[-36.00912,-7.4536],[-36.00198,-7.38402],[-36.12381,-7.36174],[-36.04957,-7.48361],[-36.00912,-7.4536]]]},"properties":{"cod_ibge":"250435","name":"Caturité","uf":"PB"}},
{"type":"Feature","geometry":{"type":"Polygon","coordinates":[[[-36.19044,-7.6414],[-36.22185,-7.54454],[-36.30228,-7.59684],[-36.446,-7.67187],[-36.39936,-7.81057],[-36.26373,-7.83194],[-36.12667,-7.78419],[-36.12667,-7.77101],[-36.19044,-7.6414]]]},"properties":{"cod_ibge":"250170","name":"Barra de São Miguel","uf":"PB"}},
{"type":"Feature","geometry":{"type":"Polygon","coordinates":[[[-35.46468,-6.81241],[-35.38044,-6.93246],[-35.31572,-6.98658],[-35.26337,-6.95611],[-35.29668,-6.85152],[-35.34951,-6.77467],[-35.37045,-6.75557],[-35.37426,-6.75693],[-35.409,-6.76557],[-35.46468,-6.81241]]]},"properties":{"cod_ibge":"250080","name":"Araçagi","uf":"PB"}},
{"type":"Feature","geometry":{"type":"Polygon","coordinates":[[[-37.5701,-7.31627],[-37.70383,-7.17575],[-37.77569,-7.14255],[-37.90086,-7.30626],[-37.84042,-7.41676],[-37.72477,-7.3872],[-37.72144,-7.38311],[-37.5701,-7.31627]]]},"properties":{"cod_ibge":"251040","name":"Olho d'Água","uf":"PB"}},
{"type":"Feature","geometry":{"type":"Polygon","coordinates":[[[-35.82494,-7.45951],[-35.75594,-7.47224],[-35.70311,-7.33764],[-35.73547,-7.324],[-35.83827,-7.33127],[-35.82494,-7.45951]]]},"properties":{"cod_ibge":"250610","name":"Fagundes","uf":"PB"}},
{"type":"Feature","geometry":{"type":"Polygon","coordinates":[[[-36.34226,-6.95247],[-36.47694,-6.99431],[-36.48503,-7.18848],[-36.32607,-7.18894],[-36.22375,-7.19803],[-36.23232,-7.10527],[-36.34226,-6.95247]]]},"properties":{"cod_ibge":"251610","name":"Soledade","uf":"PB"}},
{"type":"Feature","geometry":{"type":"Polygon","coordinates":[[[-37.38688,-7.1662],[-37.49443,-7.22714],[-37.5701,-7.31627],[-37.39687,-7.30808],[-37.33405,-7.22805],[-37.33405,-7.21668],[-37.38688,-7.1662]]]},"properties":{"cod_ibge":"250870","name":"Mãe d'Água","uf":"PB"}},
{"type":"Feature","geometry":{"type":"Polygon","coordinates":[[[-36.25041,-6.68554],[-36.25897,-6.80968],[-36.26088,-6.83697],[-36.1062,-6.66872],[-36.24184,-6.64234],[-36.25041,-6.68554]]]},"properties":{"cod_ibge":"251615","name":"Sossêgo","uf":"PB"}},
{"type":"Feature","geometry":{"type":"Polygon","coordinates":[[[-35.81257,-7.10254],[-35.71168,-7.0889],[-35.68788,-7.02978],[-35.78021,-7.0266],[-35.8554,-7.05115],[-35.81257,-7.10254]]]},"properties":{"cod_ibge":"250040","name":"Alagoa Nova","uf":"PB"}},
{"type":"Feature","geometry":{"type":"Polygon","coordinates":[[[-37.46492,-6.53275],[-37.38116,-6.43725],[-37.38878,-6.39087],[-37.57724,-6.42179],[-37.58866,-6.44225],[-37.50966,-6.52684],[-37.46492,-6.53275]]]},"properties":{"cod_ibge":"251390","name":"São Bento","uf":"PB"}},
{"type":"Feature","geometry":{"type":"Polygon","coordinates":[[[-37.0999,-7.59957],[-37.16082,-7.69779],[-37.15035,-7.71689],[-37.15178,-7.77965],[-37.02614,-7.71689],[-37.07658,-7.59957],[-37.0999,-7.59957]]]},"properties":{"cod_ibge":"251220","name":"Prata","uf":"PB"}},
{"type":"Feature","geometry":{"type":"Polygon","coordinates":[[[-38.67183,-6.84697],[-38.64661,-6.87835],[-38.57094,-6.79786],[-38.61377,-6.7824],[-38.67183,-6.84697]]]},"properties":{"cod_ibge":"250220","name":"Bom Jesus","uf":"PB"}},
{"type":"Feature","geometry":{"type":"Polygon","coordinates":[[[-37.80282,-6.59505],[-37.73286,-6.48727],[-37.81662,-6.44817],[-37.86421,-6.44998],[-37.90229,-6.54139],[-37.80282,-6.59505]]]},"properties":{"cod_ibge":"250740","name":"Jericó","uf":"PB"}},
{"type":"Feature","geometry":{"type":"Polygon","coordinates":[[[-37.03756,-8.0443],[-37.1494,-8.02384],[-37.14416,-8.12479],[-37.03756,-8.0443]]]},"properties":{"cod_ibge":"251740","name":"Zabelê","uf":"PB"}},
{"type":"Feature","geometry":{"type":"Polygon","coordinates":[[[-38.43435,-7.72053],[-38.31109,-7.73917],[-38.18355,-7.61367],[-38.2478,-7.5691],[-38.31014,-7.51908],[-38.43863,-7.59093],[-38.43435,-7.72053]]]},"properties":{"cod_ibge":"251350","name":"Santana de Mangueira","uf":"PB"}},
{"type":"Feature","geometry":{"type":"Polygon","coordinates":[[[-35.78021,-6.69054],[-35.74213,-6.67645],[-35.73214,-6.61869],[-35.8673,-6.54457],[-35.87682,-6.57777],[-35.86587,-6.67917],[-35.78021,-6.69054]]]},"properties":{"cod_ibge":"250350","name":"Cacimba de Dentro","uf":"PB"}},
{"type":"Feature","geometry":{"type":"Polygon","coordinates":[[[-38.25303,-7.39266],[-38.14072,-7.39675],[-38.06981,-7.35719],[-38.05267,-7.31763],[-38.09122,-7.23487],[-38.17213,-7.1612],[-38.27825,-7.17802],[-38.32251,-7.32991],[-38.25303,-7.39266]]]},"properties":{"cod_ibge":"250700","name":"Itaporanga","uf":"PB"}},
{"type":"Feature","geometry":{"type":"Polygon","coordinates":[[[-36.77724,-7.32036],[-36.77391,-7.37402],[-37.01376,-7.40358],[-36.98521,-7.47542],[-36.87813,-7.53863],[-36.67396,-7.38266],[-36.77724,-7.32036]]]},"properties":{"cod_ibge":"251480","name":"São José dos Cordeiros","uf":"PB"}},
{"type":"Feature","geometry":{"type":"Polygon","coordinates":[[[-37.86945,-7.01659],[-38.00603,-6.94383],[-38.08932,-7.01159],[-38.05791,-7.08844],[-37.81995,-7.09799],[-37.86945,-7.01659]]]},"properties":{"cod_ibge":"250480","name":"Coremas","uf":"PB"}},
{"type":"Feature","geometry":{"type":"Polygon","coordinates":[[[-37.98081,-7.52636],[-37.90324,-7.69825],[-37.76713,-7.65732],[-37.75333,-7.62594],[-37.89705,-7.56273],[-37.92037,-7.47497],[-37.95606,-7.49862],[-37.98081,-7.52636]]]},"properties":{"cod_ibge":"251660","name":"Tavares","uf":"PB"}},
{"type":"Feature","geometry":{"type":"Polygon","coordinates":[[[-38.43863,-7.59093],[-38.31014,-7.51908],[-38.40056,-7.42404],[-38.49146,-7.43814],[-38.43863,-7.59093]]]},"properties":{"cod_ibge":"250660","name":"Ibiara","uf":"PB"}},
{"type":"Feature","geometry":{"type":"Polygon","coordinates":[[[-35.44279,-6.75284],[-35.52084,-6.7583],[-35.53035,-6.77103],[-35.57557,-6.80696],[-35.57604,-6.82333],[-35.48562,-6.81923],[-35.46468,-6.81241],[-35.409,-6.76557],[-35.44279,-6.75284]]]},"properties":{"cod_ibge":"251180","name":"Pirpirituba","uf":"PB"}},
{"type":"Feature","geometry":{"type":"Polygon","coordinates":[[[-34.89121,-7.0939],[-34.9407,-7.12255],[-34.93594,-7.16666],[-34.89121,-7.0939]]]},"properties":{"cod_ibge":"250180","name":"Bayeux","uf":"PB"}},
{"type":"Feature","geometry":{"type":"Polygon","coordinates":[[[-36.65731,-7.68551],[-36.61876,-7.70643],[-36.58782,-7.63504],[-36.59877,-7.58365],[-36.65731,-7.68551]]]},"properties":{"cod_ibge":"250485","name":"Coxixola","uf":"PB"}},
{"type":"Feature","geometry":{"type":"Polygon","coordinates":[[[-36.26088,-6.83697],[-36.32941,-6.93519],[-36.34226,-6.95247],[-36.23232,-7.10527],[-36.15998,-6.94611],[-36.26088,-6.83697]]]},"properties":{"cod_ibge":"251050","name":"Olivedos","uf":"PB"}},
{"type":"Feature","geometry":{"type":"Polygon","coordinates":[[[-35.26099,-7.13755],[-35.18722,-7.17757],[-35.15772,-7.02751],[-35.13345,-6.94247],[-35.17723,-6.95156],[-35.26337,-6.95611],[-35.28859,-7.10936],[-35.26099,-7.13755]]]},"properties":{"cod_ibge":"251530","name":"Sapé","uf":"PB"}},
{"type":"Feature","geometry":{"type":"Polygon","coordinates":[[[-38.09979,-7.48088],[-38.25636,-7.48816],[-38.2478,-7.5691],[-38.18355,-7.61367],[-38.10407,-7.57047],[-38.09979,-7.48088]]]},"properties":{"cod_ibge":"250530","name":"Curral Velho","uf":"PB"}},
{"type":"Feature","geometry":{"type":"Polygon","coordinates":[[[-37.14321,-7.24624],[-37.01472,-7.24896],[-37.02043,-7.19076],[-37.08991,-7.16893],[-37.17557,-7.2285],[-37.14321,-7.24624]]]},"properties":{"cod_ibge":"250355","name":"Cacimbas","uf":"PB"}},
{"type":"Feature","geometry":{"type":"Polygon","coordinates":[[[-35.86587,-6.67917],[-35.87682,-6.57777],[-35.96724,-6.58504],[-35.92393,-6.72101],[-35.86587,-6.67917]]]},"properties":{"cod_ibge":"250535","name":"Damião","uf":"PB"}},
{"type":"Feature","geometry":{"type":"Polygon","coordinates":[[[-35.28003,-7.38766],[-35.15391,-7.39266],[-35.19341,-7.31126],[-35.21911,-7.29944],[-35.27098,-7.36401],[-35.28003,-7.38766]]]},"properties":{"cod_ibge":"250790","name":"Juripiranga","uf":"PB"}},
{"type":"Feature","geometry":{"type":"Polygon","coordinates":[[[-35.59317,-6.94929],[-35.51417,-7.03069],[-35.45944,-6.96339],[-35.47134,-6.92382],[-35.5651,-6.90882],[-35.58413,-6.92155],[-35.59317,-6.94929]]]},"properties":{"cod_ibge":"250050","name":"Alagoinha","uf":"PB"}},
{"type":"Feature","geometry":{"type":"Polygon","coordinates":[[[-35.23053,-6.86971],[-35.17723,-6.95156],[-35.13345,-6.94247],[-35.09871,-6.93929],[-35.12345,-6.89563],[-35.16343,-6.85061],[-35.23053,-6.86971]]]},"properties":{"cod_ibge":"250403","name":"Capim","uf":"PB"}},
{"type":"Feature","geometry":{"type":"Polygon","coordinates":[[[-36.63018,-7.39266],[-36.53024,-7.52817],[-36.59877,-7.58365],[-36.58782,-7.63504],[-36.47789,-7.65323],[-36.43982,-7.4777],[-36.33083,-7.30808],[-36.60115,-7.35219],[-36.63018,-7.39266]]]},"properties":{"cod_ibge":"251400","name":"São João do Cariri","uf":"PB"}},
{"type":"Feature","geometry":{"type":"Polygon","coordinates":[[[-35.83494,-7.19576],[-35.90727,-7.17984],[-36.0253,-7.1662],[-36.09478,-7.15438],[-36.12381,-7.36174],[-36.00198,-7.38402],[-35.9482,-7.28034],[-35.83827,-7.33127],[-35.73547,-7.324],[-35.70454,-7.25988],[-35.83494,-7.19576]]]},"properties":{"cod_ibge":"250400","name":"Campina Grande","uf":"PB"}},
{"type":"Feature","geometry":{"type":"Polygon","coordinates":[[[-36.53643,-7.90152],[-36.44648,-7.91652],[-36.39936,-7.81057],[-36.446,-7.67187],[-36.47789,-7.65323],[-36.58782,-7.63504],[-36.61876,-7.70643],[-36.53643,-7.90152]]]},"properties":{"cod_ibge":"250407","name":"Caraúbas","uf":"PB"}},
{"type":"Feature","geometry":{"type":"Polygon","coordinates":[[[-37.1494,-8.02384],[-37.03756,-8.0443],[-36.92905,-8.03703],[-36.96094,-7.83103],[-37.02614,-7.71689],[-37.15178,-7.77965],[-37.17081,-7.80011],[-37.35023,-7.94881],[-37.1494,-8.02384]]]},"properties":{"cod_ibge":"250970","name":"Monteiro","uf":"PB"}},
{"type":"Feature","geometry":{"type":"Polygon","coordinates":[[[-38.09979,-7.48088],[-38.10407,-7.57047],[-38.04649,-7.51408],[-38.0798,-7.38948],[-38.06981,-7.35719],[-38.14072,-7.39675],[-38.09979,-7.48088]]]},"properties":{"cod_ibge":"251100","name":"Pedra Branca","uf":"PB"}},
{"type":"Feature","geometry":{"type":"Polygon","coordinates":[[[-35.8673,-6.54457],[-35.73214,-6.61869],[-35.68931,-6.59095],[-35.65266,-6.49182],[-35.63696,-6.45453],[-35.66456,-6.44998],[-35.77354,-6.48273],[-35.77973,-6.48318],[-35.87015,-6.48864],[-35.8673,-6.54457]]]},"properties":{"cod_ibge":"250100","name":"Araruna","uf":"PB"}},
{"type":"Feature","geometry":{"type":"Polygon","coordinates":[[[-36.02149,-7.81011],[-35.95629,-7.65323],[-36.07194,-7.60412],[-36.12667,-7.77101],[-36.12667,-7.78419],[-36.02149,-7.81011]]]},"properties":{"cod_ibge":"250053","name":"Alcantil","uf":"PB"}},
{"type":"Feature","geometry":{"type":"Polygon","coordinates":[[[-37.90324,-7.69825],[-37.98081,-7.52636],[-38.04649,-7.51408],[-38.10407,-7.57047],[-38.06933,-7.77237],[-38.0008,-7.77874],[-37.95797,-7.766],[-37.90324,-7.69825]]]},"properties":{"cod_ibge":"251230","name":"Princesa Isabel","uf":"PB"}},
{"type":"Feature","geometry":{"type":"Polygon","coordinates":[[[-37.98081,-6.52956],[-37.90229,-6.54139],[-37.86421,-6.44998],[-37.91942,-6.41179],[-38.02697,-6.47454],[-37.98081,-6.52956]]]},"properties":{"cod_ibge":"250230","name":"Bom Sucesso","uf":"PB"}},
{"type":"Feature","geometry":{"type":"Polygon","coordinates":[[[-37.00996,-6.87107],[-36.95903,-6.78331],[-37.00377,-6.70964],[-37.03518,-6.7342],[-37.07563,-6.75421],[-37.15225,-6.79832],[-37.00996,-6.87107]]]},"properties":{"cod_ibge":"251710","name":"Várzea","uf":"PB"}},
{"type":"Feature","geometry":{"type":"Polygon","coordinates":[[[-35.29668,-6.85152],[-35.23053,-6.86971],[-35.16343,-6.85061],[-35.23101,-6.76103],[-35.34951,-6.77467],[-35.29668,-6.85152]]]},"properties":{"cod_ibge":"250710","name":"Itapororoca","uf":"PB"}},
{"type":"Feature","geometry":{"type":"Polygon","coordinates":[[[-37.17319,-6.98294],[-37.0071,-7.05161],[-36.94238,-7.04069],[-37.00996,-6.87107],[-37.15225,-6.79832],[-37.23459,-6.82469],[-37.21269,-6.90518],[-37.17319,-6.98294]]]},"properties":{"cod_ibge":"251490","name":"São Mamede","uf":"PB"}},
{"type":"Feature","geometry":{"type":"Polygon","coordinates":[[[-35.89776,-6.79377],[-36.11096,-6.93246],[-35.95344,-6.91246],[-35.80733,-6.8738],[-35.80305,-6.86607],[-35.81019,-6.8638],[-35.89776,-6.79377]]]},"properties":{"cod_ibge":"250057","name":"Algodão de Jandaíra","uf":"PB"}},
{"type":"Feature","geometry":{"type":"Polygon","coordinates":[[[-35.0673,-7.2285],[-35.0592,-7.08116],[-35.15772,-7.02751],[-35.18722,-7.17757],[-35.1482,-7.20531],[-35.0673,-7.2285]]]},"properties":{"cod_ibge":"250490","name":"Cruz do Espírito Santo","uf":"PB"}},
{"type":"Feature","geometry":{"type":"Polygon","coordinates":[[[-38.25636,-6.60778],[-38.12739,-6.59732],[-38.12025,-6.52229],[-38.22923,-6.48318],[-38.25636,-6.60778]]]},"properties":{"cod_ibge":"250840","name":"Lastro","uf":"PB"}},
{"type":"Feature","geometry":{"type":"Polygon","coordinates":[[[-38.0798,-7.38948],[-37.95606,-7.49862],[-37.92037,-7.47497],[-37.84042,-7.41676],[-37.90086,-7.30626],[-38.05267,-7.31763],[-38.06981,-7.35719],[-38.0798,-7.38948]]]},"properties":{"cod_ibge":"251360","name":"Santana dos Garrotes","uf":"PB"}},
{"type":"Feature","geometry":{"type":"Polygon","coordinates":[[[-35.45421,-6.61233],[-35.51084,-6.6478],[-35.42185,-6.66781],[-35.41471,-6.67599],[-35.32857,-6.62188],[-35.36474,-6.51183],[-35.40757,-6.48955],[-35.45421,-6.61233]]]},"properties":{"cod_ibge":"250360","name":"Caiçara","uf":"PB"}},
{"type":"Feature","geometry":{"type":"Polygon","coordinates":[[[-36.32941,-6.93519],[-36.4046,-6.85607],[-36.54357,-6.84197],[-36.56022,-6.84061],[-36.56784,-6.87471],[-36.55594,-6.89427],[-36.47694,-6.99431],[-36.34226,-6.95247],[-36.32941,-6.93519]]]},"properties":{"cod_ibge":"251540","name":"São Vicente do Seridó","uf":"PB"}},
{"type":"Feature","geometry":{"type":"Polygon","coordinates":[[[-38.52144,-6.49273],[-38.50431,-6.51774],[-38.50145,-6.52866],[-38.46243,-6.41452],[-38.52239,-6.44498],[-38.52144,-6.49273]]]},"properties":{"cod_ibge":"251365","name":"Joca Claudino","uf":"PB"}},
{"type":"Feature","geometry":{"type":"Polygon","coordinates":[[[-37.177,-7.30944],[-37.05326,-7.37947],[-37.01472,-7.24896],[-37.14321,-7.24624],[-37.177,-7.30944]]]},"properties":{"cod_ibge":"250540","name":"Desterro","uf":"PB"}},
{"type":"Feature","geometry":{"type":"Polygon","coordinates":[[[-37.26076,-7.27397],[-37.177,-7.30944],[-37.14321,-7.24624],[-37.17557,-7.2285],[-37.24791,-7.1994],[-37.33405,-7.21668],[-37.33405,-7.22805],[-37.31406,-7.28944],[-37.26076,-7.27397]]]},"properties":{"cod_ibge":"251670","name":"Teixeira","uf":"PB"}},
{"type":"Feature","geometry":{"type":"Polygon","coordinates":[[[-37.39687,-7.30808],[-37.5701,-7.31627],[-37.72144,-7.38311],[-37.572,-7.48907],[-37.52156,-7.4395],[-37.43161,-7.35674],[-37.38592,-7.35674],[-37.39687,-7.30808]]]},"properties":{"cod_ibge":"250670","name":"Imaculada","uf":"PB"}},
{"type":"Feature","geometry":{"type":"Polygon","coordinates":[[[-34.8341,-7.54864],[-34.80269,-7.38811],[-34.85742,-7.34264],[-34.85076,-7.43995],[-34.85361,-7.53954],[-34.8341,-7.54864]]]},"properties":{"cod_ibge":"251190","name":"Pitimbu","uf":"PB"}},
{"type":"Feature","geometry":{"type":"Polygon","coordinates":[[[-35.52084,-6.7583],[-35.44279,-6.75284],[-35.47372,-6.74056],[-35.42185,-6.66781],[-35.51084,-6.6478],[-35.52655,-6.64507],[-35.52084,-6.7583]]]},"properties":{"cod_ibge":"250190","name":"Belém","uf":"PB"}},
{"type":"Feature","geometry":{"type":"Polygon","coordinates":[[[-37.07944,-7.51681],[-37.19794,-7.63549],[-37.16082,-7.69779],[-37.0999,-7.59957],[-37.07944,-7.51681]]]},"properties":{"cod_ibge":"251060","name":"Ouro Velho","uf":"PB"}},
{"type":"Feature","geometry":{"type":"Polygon","coordinates":[[[-36.67539,-7.01568],[-36.55594,-6.89427],[-36.56784,-6.87471],[-36.65493,-6.92837],[-36.70109,-7.0075],[-36.67539,-7.01568]]]},"properties":{"cod_ibge":"251675","name":"Tenório","uf":"PB"}},
{"type":"Feature","geometry":{"type":"Polygon","coordinates":[[[-36.68681,-8.15572],[-36.62875,-8.11115],[-36.5726,-7.93608],[-36.81626,-7.95836],[-36.87956,-8.01702],[-36.96427,-8.18073],[-36.95475,-8.29941],[-36.90811,-8.25303],[-36.78771,-8.18982],[-36.68681,-8.15572]]]},"properties":{"cod_ibge":"251410","name":"São João do Tigre","uf":"PB"}},
{"type":"Feature","geometry":{"type":"Polygon","coordinates":[[[-37.48491,-6.24262],[-37.61293,-6.27218],[-37.57724,-6.42179],[-37.38878,-6.39087],[-37.33405,-6.30856],[-37.48491,-6.24262]]]},"properties":{"cod_ibge":"250280","name":"Brejo do Cruz","uf":"PB"}}
]}