{"type":"FeatureCollection", "features": [
{"type":"Feature","geometry":{"type":"Polygon","coordinates":[[[-48.01773,-16.04955],[-47.93873,-16.05001],[-47.68364,-16.05001],[-47.30863,-16.05001],[-47.31006,-16.03636],[-47.37002,-16.00135],[-47.36621,-15.82718],[-47.31481,-15.74624],[-47.32195,-15.59845],[-47.4928,-15.50204],[-48.05438,-15.50204],[-48.20001,-15.5025],[-48.23475,-15.65984],[-48.28186,-15.83082],[-48.27758,-16.04955],[-48.08484,-16.04955],[-48.01773,-16.04955]]]},"properties":{"cod_ibge":"530010","name":"Brasília","uf":"DF"}}
]}