{"type":"FeatureCollection", "features": [
{"type":"Feature","geometry":{"type":"Polygon","coordinates":[[[-71.481476,-8.88421],[-71.467199,-8.868294],[-71.441975,-8.869203],[-71.424367,-8.884664],[-71.39724,-8.877389],[-71.370589,-8.893304],[-71.343462,-8.869203],[-71.309673,-8.863746],[-71.294919,-8.846012],[-71.278739,-8.850104],[-71.231148,-8.840555],[-71.222105,-8.821001],[-71.185936,-8.802356],[-71.161189,-8.798264],[-71.147864,-8.783257],[-71.122164,-8.771434],[-71.064104,-8.753244],[-71.060296,-8.741421],[-71.026507,-8.716865],[-70.98891,-8.669572],[-70.981295,-8.649564],[-70.945602,-8.622279],[-70.930849,-8.601361],[-70.91562,-8.604544],[-70.891349,-8.640469],[-70.87374,-8.640469],[-70.858035,-8.670027],[-70.836619,-8.646381],[-70.783793,-8.640014],[-70.767612,-8.610911],[-70.742389,-8.609092],[-70.726684,-8.569529],[-70.688611,-8.523146],[-70.702413,-8.477217],[-70.652918,-8.466303],[-70.676238,-8.438109],[-70.680045,-8.382631],[-70.62484,-8.340795],[-70.633406,-8.310782],[-70.587243,-8.233022],[-70.565351,-8.20983],[-70.580104,-8.197097],[-70.556309,-8.154806],[-70.577725,-8.110696],[-70.577725,-8.055218],[-70.569158,-8.048852],[-70.58867,-7.992919],[-70.631978,-7.983824],[-70.64102,-7.956994],[-70.642448,-7.929255],[-70.600568,-7.893785],[-70.607707,-7.874686],[-70.583911,-7.872867],[-70.577249,-7.84149],[-70.545839,-7.821027],[-70.546315,-7.808749],[-70.51538,-7.792378],[-70.73525,-7.766913],[-71.088375,-7.726441],[-71.381535,-7.692335],[-71.645664,-7.661868],[-71.945487,-7.626853],[-72.000693,-7.808294],[-72.061609,-7.848766],[-72.086832,-7.862408],[-72.1092,-7.89424],[-72.155839,-7.93744],[-72.18249,-7.946535],[-72.214852,-7.975184],[-72.225798,-8.020203],[-72.246738,-8.036119],[-72.261491,-8.059311],[-72.257683,-8.071589],[-72.26625,-8.260761],[-72.225798,-8.280769],[-72.26625,-8.390816],[-72.231508,-8.41037],[-72.228177,-8.51678],[-72.20105,-8.551795],[-72.230081,-8.596814],[-72.2139,-8.700949],[-72.143941,-8.711863],[-72.124905,-8.828731],[-72.07779,-8.868294],[-72.078266,-8.84783],[-72.050187,-8.836462],[-72.027343,-8.812361],[-71.985463,-8.785531],[-71.935493,-8.785531],[-71.871245,-8.816908],[-71.85554,-8.813725],[-71.827462,-8.82282],[-71.794624,-8.817818],[-71.764166,-8.797809],[-71.755599,-8.765522],[-71.716099,-8.74324],[-71.683261,-8.706861],[-71.658038,-8.706406],[-71.611875,-8.66457],[-71.580941,-8.653202],[-71.560001,-8.654111],[-71.558573,-8.686398],[-71.546199,-8.707316],[-71.542392,-8.736419],[-71.573326,-8.755063],[-71.598074,-8.80463],[-71.618062,-8.821001],[-71.61711,-8.858289],[-71.552386,-8.850559],[-71.522404,-8.873751],[-71.502416,-8.869658],[-71.481476,-8.88421]]]},"properties":{"cod_ibge":"120060","name":"Tarauacá","uf":"AC"}},
{"type":"Feature","geometry":{"type":"Polygon","coordinates":[[[-68.834946,-10.73955],[-68.805439,-10.715449],[-68.814006,-10.692712],[-68.805915,-10.670884],[-68.783547,-10.664518],[-68.753565,-10.670429],[-68.730246,-10.647238],[-68.700263,-10.632231],[-68.649817,-10.619044],[-68.641727,-10.626774],[-68.64363,-10.654968],[-68.605557,-10.657697],[-68.552256,-10.716813],[-68.532743,-10.719996],[-68.537027,-10.741369],[-68.561774,-10.770018],[-68.543213,-10.793664],[-68.507044,-10.808671],[-68.47849,-10.8355],[-68.458977,-10.815492],[-68.434706,-10.82686],[-68.408055,-10.856418],[-68.401868,-10.894162],[-68.419001,-10.907349],[-68.422808,-10.93236],[-68.4052,-10.957371],[-68.408531,-10.994205],[-68.399965,-11.001026],[-68.401392,-11.029674],[-68.388067,-11.040588],[-68.384736,-11.018306],[-68.345235,-11.004209],[-68.330958,-11.012394],[-68.306211,-10.991476],[-68.278608,-10.989202],[-68.239583,-10.957825],[-68.229113,-10.920991],[-68.207222,-10.901892],[-68.20627,-10.880974],[-68.15392,-10.820949],[-68.14345,-10.815946],[-68.103949,-10.773656],[-68.105377,-10.714994],[-68.075871,-10.684981],[-68.039226,-10.669975],[-68.012575,-10.648602],[-68.002105,-10.648602],[-68.010671,-10.610404],[-67.9864,-10.591305],[-68.013051,-10.570387],[-68.02828,-10.542193],[-68.029707,-10.517182],[-68.043033,-10.472617],[-68.063497,-10.425324],[-68.040653,-10.388945],[-68.069208,-10.383488],[-68.092052,-10.363935],[-68.122986,-10.374848],[-68.148209,-10.370301],[-68.180095,-10.376667],[-68.201035,-10.373939],[-68.2353,-10.386672],[-68.271945,-10.388491],[-68.280512,-10.402587],[-68.313825,-10.418049],[-68.324771,-10.393493],[-68.387591,-10.379396],[-68.354277,-10.358023],[-68.350946,-10.332103],[-68.375217,-10.311639],[-68.41567,-10.307092],[-68.417097,-10.265711],[-68.449935,-10.252978],[-68.454218,-10.215234],[-68.443272,-10.192043],[-68.46564,-10.186131],[-68.470399,-10.216144],[-68.489436,-10.228877],[-68.492767,-10.249795],[-68.529888,-10.271622],[-68.553683,-10.279808],[-68.563677,-10.272986],[-68.616503,-10.306637],[-68.636967,-10.304364],[-68.675516,-10.328465],[-68.681703,-10.351657],[-68.705498,-10.36348],[-68.71692,-10.384853],[-69.131437,-10.384853],[-69.128581,-10.399404],[-69.157612,-10.467615],[-69.168558,-10.47671],[-69.157612,-10.512635],[-69.133816,-10.514908],[-69.088605,-10.557654],[-69.081466,-10.577662],[-69.066713,-10.58994],[-69.026737,-10.588122],[-68.979146,-10.574479],[-68.972959,-10.583119],[-68.917278,-10.576753],[-68.901573,-10.583119],[-68.90776,-10.603583],[-68.924417,-10.614496],[-68.913947,-10.638143],[-68.932507,-10.676796],[-68.948688,-10.677705],[-68.948688,-10.713175],[-68.980098,-10.753647],[-68.975815,-10.770927],[-68.946308,-10.775474],[-68.900145,-10.775474],[-68.877777,-10.758194],[-68.85303,-10.75774],[-68.834946,-10.73955]]]},"properties":{"cod_ibge":"120070","name":"Xapuri","uf":"AC"}},
{"type":"Feature","geometry":{"type":"Polygon","coordinates":[[[-73.130025,-8.772798],[-73.116699,-8.781438],[-73.110037,-8.822365],[-73.08053,-8.855106],[-73.058162,-8.907401],[-73.029132,-8.916496],[-72.999626,-8.915587],[-72.966312,-8.982434],[-72.939661,-8.985617],[-72.95727,-9.011082],[-72.94442,-9.028817],[-72.939185,-9.072017],[-72.944896,-9.122494],[-72.952035,-9.137955],[-73.013903,-9.175243],[-73.000102,-9.195252],[-73.010572,-9.222536],[-73.035795,-9.236179],[-73.064825,-9.230722],[-73.110988,-9.285745],[-73.102422,-9.309392],[-73.13288,-9.320306],[-73.150965,-9.353956],[-73.189037,-9.362596],[-73.190941,-9.397611],[-73.212357,-9.412163],[-72.980113,-9.412163],[-72.71646,-9.412163],[-72.709797,-9.429443],[-72.668393,-9.437629],[-72.66173,-9.448088],[-72.62223,-9.444904],[-72.573687,-9.464458],[-72.547512,-9.466732],[-72.529428,-9.484012],[-72.480409,-9.487195],[-72.447571,-9.480829],[-72.405691,-9.481284],[-72.377613,-9.495381],[-72.366667,-9.489469],[-72.340492,-9.508568],[-72.303847,-9.508568],[-72.293853,-9.493107],[-72.272913,-9.487195],[-72.251973,-9.459456],[-72.249117,-9.44445],[-72.222466,-9.414892],[-72.182966,-9.388517],[-72.161074,-9.393974],[-72.120622,-9.318941],[-72.101109,-9.308028],[-72.097778,-9.293021],[-72.044,-9.19798],[-72.067796,-9.175243],[-72.069223,-9.15569],[-72.052567,-9.142502],[-72.032103,-9.068834],[-72.042573,-9.028817],[-72.029247,-9.001987],[-72.028295,-8.971065],[-72.036386,-8.94469],[-72.053994,-8.933776],[-72.044,-8.90058],[-72.07779,-8.868294],[-72.124905,-8.828731],[-72.143941,-8.711863],[-72.2139,-8.700949],[-72.257208,-8.724141],[-72.302895,-8.76143],[-72.3581,-8.780984],[-72.377137,-8.766887],[-72.418065,-8.750516],[-72.445668,-8.755063],[-72.49659,-8.776891],[-72.541801,-8.767341],[-72.576067,-8.765977],[-72.630796,-8.775072],[-72.663158,-8.750516],[-72.667441,-8.721867],[-72.705514,-8.687762],[-72.719791,-8.689126],[-72.774521,-8.72687],[-72.810214,-8.723232],[-72.831154,-8.736419],[-72.846859,-8.729598],[-72.866371,-8.751426],[-72.891594,-8.746878],[-72.922052,-8.76052],[-72.95489,-8.745059],[-72.990107,-8.755973],[-73.013427,-8.753244],[-73.061494,-8.763704],[-73.091,-8.75188],[-73.112892,-8.756882],[-73.130025,-8.772798]]]},"properties":{"cod_ibge":"120035","name":"Marechal Thaumaturgo","uf":"AC"}},
{"type":"Feature","geometry":{"type":"Polygon","coordinates":[[[-72.860184,-7.674146],[-72.855425,-7.65823],[-72.804503,-7.664596],[-72.783563,-7.660049],[-72.843052,-7.607299],[-72.864467,-7.583198],[-72.870178,-7.561825],[-72.889215,-7.54409],[-72.889215,-7.523172],[-72.900161,-7.437681],[-73.292786,-7.295802],[-73.567861,-7.196214],[-73.738236,-7.134824],[-73.798201,-7.112996],[-73.785351,-7.128457],[-73.787731,-7.148011],[-73.767267,-7.155287],[-73.756321,-7.17575],[-73.755369,-7.195759],[-73.709682,-7.248054],[-73.717772,-7.27261],[-73.699212,-7.291709],[-73.695881,-7.309444],[-73.723007,-7.336274],[-73.78202,-7.337183],[-73.79487,-7.344004],[-73.822472,-7.338547],[-73.848171,-7.353554],[-73.863401,-7.385386],[-73.890527,-7.38584],[-73.927172,-7.36083],[-73.954299,-7.374927],[-73.934787,-7.412215],[-73.921937,-7.419491],[-73.919082,-7.458144],[-73.910991,-7.47497],[-73.9286,-7.4827],[-73.934787,-7.5259],[-73.947161,-7.533631],[-73.98333,-7.533176],[-73.985709,-7.555913],[-73.976191,-7.571375],[-73.957155,-7.566827],[-73.93098,-7.604571],[-73.877202,-7.63231],[-73.882913,-7.652318],[-73.859117,-7.674146],[-73.833894,-7.682331],[-73.82628,-7.713253],[-73.749182,-7.731443],[-73.713965,-7.759637],[-73.690646,-7.766458],[-73.674941,-7.740083],[-73.531216,-7.717346],[-73.49124,-7.740083],[-73.455071,-7.770096],[-73.390823,-7.745995],[-73.374166,-7.751452],[-73.362268,-7.728715],[-73.341804,-7.712344],[-73.340377,-7.739174],[-73.304207,-7.760092],[-73.308015,-7.777827],[-73.251382,-7.792378],[-73.175712,-7.725986],[-73.040554,-7.669144],[-73.022945,-7.675965],[-72.977734,-7.679148],[-72.948227,-7.692335],[-72.913962,-7.664142],[-72.860184,-7.674146]]]},"properties":{"cod_ibge":"120033","name":"Mâncio Lima","uf":"AC"}},
{"type":"Feature","geometry":{"type":"Polygon","coordinates":[[[-68.921561,-8.81418],[-69.212817,-8.564527],[-69.444109,-8.366261],[-69.44982,-8.395819],[-69.466953,-8.409006],[-69.505026,-8.45448],[-69.511688,-8.496316],[-69.542622,-8.548611],[-69.550713,-8.584991],[-69.56737,-8.61273],[-69.571653,-8.644107],[-69.607346,-8.661842],[-69.628286,-8.681396],[-69.659696,-8.68185],[-69.725847,-8.763704],[-69.762968,-8.785076],[-69.794854,-8.8401],[-69.826264,-8.920589],[-69.83959,-8.944235],[-69.865289,-8.957423],[-69.842445,-9.01472],[-69.830071,-9.027453],[-69.81865,-9.078384],[-69.808656,-9.099757],[-69.791999,-9.11067],[-69.803421,-9.133862],[-69.831975,-9.157054],[-69.851011,-9.186612],[-69.908121,-9.229358],[-69.913356,-9.243455],[-69.966181,-9.239362],[-69.988073,-9.263008],[-70.012345,-9.254368],[-70.035664,-9.285745],[-70.063267,-9.289838],[-70.082779,-9.281198],[-70.12228,-9.288019],[-70.146551,-9.284836],[-70.152262,-9.270284],[-70.188431,-9.271194],[-70.210323,-9.279834],[-70.216985,-9.292566],[-70.261245,-9.314849],[-70.272191,-9.340769],[-70.299794,-9.340314],[-70.295986,-9.36487],[-70.330252,-9.395792],[-70.271239,-9.419894],[-70.204136,-9.437629],[-70.155117,-9.472189],[-70.035188,-9.50493],[-70.037568,-9.526758],[-70.064219,-9.525393],[-70.098484,-9.535398],[-70.112285,-9.546312],[-70.155117,-9.562227],[-70.175105,-9.585419],[-70.186051,-9.618615],[-70.215082,-9.635895],[-70.215558,-9.645445],[-70.243636,-9.681369],[-70.262197,-9.68819],[-70.27457,-9.716839],[-70.291703,-9.723205],[-70.296462,-9.743214],[-70.324065,-9.758675],[-70.333583,-9.808242],[-70.401638,-9.887367],[-70.414964,-9.891459],[-70.437331,-9.913287],[-70.439711,-9.931477],[-70.461603,-9.953759],[-70.502055,-9.964673],[-70.531085,-10.007873],[-70.554881,-10.022879],[-70.581056,-10.027427],[-70.606755,-10.05744],[-70.611038,-10.42487],[-70.25601,-10.425324],[-70.255058,-10.394402],[-70.240305,-10.342107],[-70.218889,-10.312094],[-70.22698,-10.292086],[-70.187003,-10.256161],[-70.162256,-10.228877],[-70.152262,-10.20523],[-70.136081,-10.194316],[-70.11181,-10.150661],[-70.042803,-9.990138],[-70.037568,-9.952395],[-70.043755,-9.931022],[-70.032333,-9.892369],[-70.038995,-9.865539],[-70.020911,-9.832343],[-69.977127,-9.782322],[-69.977603,-9.725479],[-69.972368,-9.706835],[-69.946193,-9.675003],[-69.927633,-9.629074],[-69.93144,-9.611339],[-69.878614,-9.542219],[-69.869096,-9.521301],[-69.867668,-9.466732],[-69.86053,-9.439448],[-69.847204,-9.424441],[-69.817698,-9.424441],[-69.783908,-9.380331],[-69.797234,-9.334403],[-69.770107,-9.338495],[-69.69063,-9.229358],[-69.667786,-9.236179],[-69.612581,-9.208894],[-69.587834,-9.178881],[-69.558327,-9.179336],[-69.458386,-9.145231],[-69.432211,-9.117946],[-69.387,-9.09339],[-69.349403,-9.046552],[-69.256125,-9.046097],[-69.233757,-9.039731],[-69.223287,-8.995621],[-69.20092,-8.955604],[-69.176648,-8.941962],[-69.110973,-8.955604],[-69.084322,-8.930138],[-69.080515,-8.904218],[-69.070045,-8.895123],[-69.02293,-8.886483],[-69.011032,-8.870113],[-68.989616,-8.864201],[-68.971531,-8.841464],[-68.933459,-8.831005],[-68.921561,-8.81418]]]},"properties":{"cod_ibge":"120034","name":"Manoel Urbano","uf":"AC"}},
{"type":"Feature","geometry":{"type":"Polygon","coordinates":[[[-73.130025,-8.772798],[-73.112892,-8.756882],[-73.091,-8.75188],[-73.061494,-8.763704],[-73.013427,-8.753244],[-72.990107,-8.755973],[-72.95489,-8.745059],[-72.922052,-8.76052],[-72.891594,-8.746878],[-72.866371,-8.751426],[-72.846859,-8.729598],[-72.831154,-8.736419],[-72.810214,-8.723232],[-72.774521,-8.72687],[-72.719791,-8.689126],[-72.705514,-8.687762],[-72.667441,-8.721867],[-72.663158,-8.750516],[-72.630796,-8.775072],[-72.576067,-8.765977],[-72.541801,-8.767341],[-72.49659,-8.776891],[-72.445668,-8.755063],[-72.418065,-8.750516],[-72.377137,-8.766887],[-72.3581,-8.780984],[-72.302895,-8.76143],[-72.257208,-8.724141],[-72.2139,-8.700949],[-72.230081,-8.596814],[-72.20105,-8.551795],[-72.228177,-8.51678],[-72.231508,-8.41037],[-72.26625,-8.390816],[-72.225798,-8.280769],[-72.26625,-8.260761],[-72.283383,-8.210285],[-72.301943,-8.205737],[-72.319552,-8.229384],[-72.359528,-8.241662],[-72.372853,-8.238478],[-72.396173,-8.254394],[-72.417589,-8.253485],[-72.433294,-8.240297],[-72.460897,-8.231657],[-72.50706,-8.232567],[-72.519433,-8.216196],[-72.564645,-8.187548],[-72.634128,-8.185274],[-72.674104,-8.223017],[-72.703134,-8.212558],[-72.731689,-8.218015],[-72.761195,-8.200735],[-72.800696,-8.204373],[-72.793081,-8.185274],[-72.801172,-8.146621],[-72.811642,-8.124339],[-72.864943,-8.159354],[-72.893498,-8.184819],[-72.914914,-8.190731],[-72.942517,-8.210739],[-72.962029,-8.211194],[-73.003433,-8.224382],[-73.015331,-8.255304],[-73.037698,-8.282588],[-73.079578,-8.294866],[-73.100518,-8.337612],[-73.177616,-8.373991],[-73.202363,-8.378539],[-73.332286,-8.475398],[-73.327527,-8.522236],[-73.34466,-8.602271],[-73.34228,-8.618641],[-73.316105,-8.624098],[-73.284219,-8.669118],[-73.247098,-8.688671],[-73.224255,-8.679577],[-73.166194,-8.698676],[-73.140019,-8.731872],[-73.140019,-8.75279],[-73.130025,-8.772798]]]},"properties":{"cod_ibge":"120039","name":"Porto Walter","uf":"AC"}},
{"type":"Feature","geometry":{"type":"Polygon","coordinates":[[[-67.567124,-10.509451],[-67.545708,-10.495354],[-67.478129,-10.467615],[-67.465755,-10.455337],[-67.436249,-10.448061],[-67.431966,-10.431236],[-67.411026,-10.418503],[-67.423875,-10.391219],[-67.401032,-10.371665],[-67.380568,-10.381215],[-67.338212,-10.376667],[-67.319651,-10.381669],[-67.315368,-10.347109],[-67.32679,-10.338469],[-67.315844,-10.318915],[-67.283482,-10.31937],[-67.268253,-10.330284],[-67.236843,-10.316187],[-67.198294,-10.323008],[-67.17783,-10.339379],[-67.134523,-10.315732],[-67.125956,-10.290267],[-67.098829,-10.282081],[-67.085028,-10.290267],[-67.055522,-10.279353],[-67.050763,-10.267075],[-67.009834,-10.252068],[-67.00222,-10.229786],[-67.00222,-10.202047],[-67.075986,-10.202502],[-67.075986,-10.087907],[-67.100257,-10.103823],[-67.124528,-9.969675],[-67.164981,-9.984681],[-67.251596,-10.028336],[-67.300139,-10.062442],[-67.346778,-10.061987],[-67.428634,-10.096093],[-67.430062,-10.12747],[-67.441484,-10.160211],[-67.46052,-10.177946],[-67.48384,-10.22342],[-67.501448,-10.242064],[-67.50478,-10.264346],[-67.564268,-10.289357],[-67.623281,-10.31937],[-67.625661,-10.343016],[-67.638034,-10.368482],[-67.658498,-10.39895],[-67.682294,-10.392583],[-67.687053,-10.410773],[-67.711324,-10.441695],[-67.680866,-10.476255],[-67.650408,-10.482622],[-67.620426,-10.480803],[-67.60948,-10.504449],[-67.567124,-10.509451]]]},"properties":{"cod_ibge":"120038","name":"Plácido de Castro","uf":"AC"}},
{"type":"Feature","geometry":{"type":"Polygon","coordinates":[[[-67.805554,-10.198409],[-67.828398,-10.120648],[-67.814597,-10.087907],[-67.77462,-10.107916],[-67.738927,-10.108371],[-67.670872,-10.102004],[-67.646125,-10.080177],[-67.637558,-10.060168],[-67.609956,-10.04789],[-67.580925,-10.069263],[-67.560461,-10.058349],[-67.527148,-10.02106],[-67.509539,-10.025153],[-67.49193,-10.001507],[-67.496689,-9.976496],[-67.492406,-9.948302],[-67.482412,-9.926474],[-67.516678,-9.906466],[-67.513346,-9.885548],[-67.526672,-9.859628],[-67.542377,-9.850078],[-67.568076,-9.850078],[-67.581401,-9.836891],[-67.612335,-9.858718],[-67.653263,-9.863266],[-67.6723,-9.851897],[-67.684673,-9.833707],[-67.709897,-9.836436],[-67.707041,-9.816882],[-67.717987,-9.805513],[-67.702758,-9.787324],[-67.743686,-9.739576],[-67.794133,-9.782322],[-67.796036,-9.761858],[-67.822687,-9.775046],[-67.822687,-9.797783],[-67.833633,-9.833253],[-67.825067,-9.851442],[-67.82935,-9.870087],[-67.849338,-9.860992],[-67.864567,-9.841438],[-67.901212,-9.842802],[-67.949279,-9.853716],[-67.990683,-9.854171],[-68.001629,-9.867813],[-68.028756,-9.875998],[-68.044937,-9.891459],[-68.068256,-9.895097],[-68.098714,-9.929658],[-68.134883,-9.93466],[-68.152968,-9.961035],[-68.267662,-9.823703],[-68.300024,-9.7946],[-68.366651,-9.780503],[-68.389971,-9.788688],[-68.393778,-9.803695],[-68.413766,-9.810516],[-68.453742,-9.844621],[-68.422332,-9.691828],[-68.439941,-9.642262],[-68.455646,-9.624982],[-68.427092,-9.599516],[-68.425664,-9.560863],[-68.418049,-9.545402],[-68.432327,-9.5404],[-68.466592,-9.545857],[-68.488008,-9.570868],[-68.510852,-9.576779],[-68.514183,-9.588602],[-68.584142,-9.539036],[-68.601274,-9.538126],[-68.607937,-9.505385],[-68.63316,-9.515844],[-68.672661,-9.559954],[-68.700263,-9.679096],[-68.693125,-9.75049],[-68.666474,-9.840983],[-68.694552,-9.886912],[-68.801156,-9.961944],[-68.884916,-10.062896],[-69.037207,-10.164304],[-69.120967,-10.268894],[-69.172365,-10.286629],[-69.310855,-10.363935],[-69.341789,-10.403042],[-69.363681,-10.463068],[-69.341789,-10.48535],[-69.322276,-10.472163],[-69.288011,-10.470344],[-69.248986,-10.454883],[-69.247083,-10.437602],[-69.21948,-10.414865],[-69.196161,-10.412592],[-69.183311,-10.39895],[-69.149521,-10.397131],[-69.131437,-10.384853],[-68.71692,-10.384853],[-68.705498,-10.36348],[-68.681703,-10.351657],[-68.675516,-10.328465],[-68.636967,-10.304364],[-68.616503,-10.306637],[-68.563677,-10.272986],[-68.553683,-10.279808],[-68.529888,-10.271622],[-68.492767,-10.249795],[-68.489436,-10.228877],[-68.470399,-10.216144],[-68.46564,-10.186131],[-68.443272,-10.192043],[-68.454218,-10.215234],[-68.449935,-10.252978],[-68.417097,-10.265711],[-68.41567,-10.307092],[-68.375217,-10.311639],[-68.350946,-10.332103],[-68.354277,-10.358023],[-68.387591,-10.379396],[-68.324771,-10.393493],[-68.313825,-10.418049],[-68.280512,-10.402587],[-68.271945,-10.388491],[-68.2353,-10.386672],[-68.201035,-10.373939],[-68.180095,-10.376667],[-68.148209,-10.370301],[-68.122986,-10.374848],[-68.092052,-10.363935],[-68.069208,-10.383488],[-68.040653,-10.388945],[-68.0259,-10.369391],[-68.038274,-10.351657],[-67.997346,-10.315732],[-67.959749,-10.313913],[-67.945948,-10.287538],[-67.846007,-10.287538],[-67.819832,-10.268439],[-67.831253,-10.256616],[-67.816024,-10.233879],[-67.805554,-10.198409]]]},"properties":{"cod_ibge":"120040","name":"Rio Branco","uf":"AC"}},
{"type":"Feature","geometry":{"type":"Polygon","coordinates":[[[-70.606755,-10.05744],[-70.581056,-10.027427],[-70.554881,-10.022879],[-70.531085,-10.007873],[-70.502055,-9.964673],[-70.461603,-9.953759],[-70.439711,-9.931477],[-70.437331,-9.913287],[-70.414964,-9.891459],[-70.401638,-9.887367],[-70.333583,-9.808242],[-70.324065,-9.758675],[-70.296462,-9.743214],[-70.291703,-9.723205],[-70.27457,-9.716839],[-70.262197,-9.68819],[-70.243636,-9.681369],[-70.215558,-9.645445],[-70.215082,-9.635895],[-70.186051,-9.618615],[-70.175105,-9.585419],[-70.155117,-9.562227],[-70.112285,-9.546312],[-70.098484,-9.535398],[-70.064219,-9.525393],[-70.037568,-9.526758],[-70.035188,-9.50493],[-70.155117,-9.472189],[-70.204136,-9.437629],[-70.271239,-9.419894],[-70.330252,-9.395792],[-70.295986,-9.36487],[-70.299794,-9.340314],[-70.272191,-9.340769],[-70.261245,-9.314849],[-70.216985,-9.292566],[-70.210323,-9.279834],[-70.188431,-9.271194],[-70.152262,-9.270284],[-70.146551,-9.284836],[-70.12228,-9.288019],[-70.082779,-9.281198],[-70.063267,-9.289838],[-70.035664,-9.285745],[-70.012345,-9.254368],[-69.988073,-9.263008],[-69.966181,-9.239362],[-69.913356,-9.243455],[-69.908121,-9.229358],[-69.851011,-9.186612],[-69.831975,-9.157054],[-69.803421,-9.133862],[-69.791999,-9.11067],[-69.808656,-9.099757],[-69.81865,-9.078384],[-69.830071,-9.027453],[-69.842445,-9.01472],[-69.865289,-8.957423],[-70.089918,-8.973794],[-70.193666,-8.967427],[-70.31883,-8.963789],[-70.364993,-8.982434],[-70.40259,-9.018358],[-70.437331,-9.08566],[-70.453036,-9.103849],[-70.498724,-9.106578],[-70.527754,-9.13841],[-70.572014,-9.212987],[-70.627219,-9.270284],[-70.629123,-9.306209],[-70.639593,-9.31303],[-70.631502,-9.376693],[-70.69337,-9.371691],[-70.734775,-9.415346],[-70.770468,-9.422167],[-70.790932,-9.448997],[-70.855655,-9.448997],[-70.90277,-9.507659],[-70.951313,-9.535853],[-70.957024,-9.586329],[-71.045543,-9.642262],[-71.079333,-9.700014],[-71.088851,-9.740031],[-71.1017,-9.75049],[-71.089327,-9.778684],[-71.100273,-9.815973],[-71.077429,-9.827796],[-71.050778,-9.815518],[-71.000332,-9.818246],[-70.991289,-9.792781],[-70.969874,-9.755947],[-70.952265,-9.74185],[-70.924662,-9.74185],[-70.896108,-9.708654],[-70.868505,-9.664544],[-70.835191,-9.646354],[-70.79807,-9.641352],[-70.786173,-9.614068],[-70.754763,-9.596333],[-70.747148,-9.563137],[-70.720973,-9.554952],[-70.692895,-9.535398],[-70.673382,-9.529486],[-70.634834,-9.494016],[-70.632454,-9.479465],[-70.596285,-9.457637],[-70.564399,-9.431262],[-70.548218,-9.433991],[-70.50491,-9.422167],[-70.494916,-9.439902],[-70.521091,-9.456273],[-70.512049,-9.481738],[-70.52014,-9.504021],[-70.542983,-9.511751],[-70.545363,-9.539036],[-70.564399,-9.537671],[-70.569158,-9.555861],[-70.600568,-9.555861],[-70.603424,-9.803695],[-70.606755,-10.05744]]]},"properties":{"cod_ibge":"120043","name":"Santa Rosa do Purus","uf":"AC"}},
{"type":"Feature","geometry":{"type":"Polygon","coordinates":[[[-73.630205,-8.058856],[-73.399389,-8.030207],[-73.398913,-8.013837],[-73.379877,-7.992009],[-73.341804,-7.985643],[-73.324672,-7.996557],[-73.297069,-7.988826],[-73.267562,-7.953356],[-73.237104,-7.941988],[-73.225682,-7.924708],[-73.199983,-7.906063],[-73.170953,-7.896059],[-73.153344,-7.901061],[-73.092428,-7.88651],[-73.112416,-7.915158],[-73.115272,-7.934257],[-73.076723,-7.94608],[-73.041982,-7.935621],[-73.008668,-7.933803],[-72.9863,-7.941988],[-72.970595,-7.936986],[-72.952987,-7.948354],[-72.909679,-7.926981],[-72.891118,-7.929255],[-72.853522,-7.910156],[-72.784991,-7.896969],[-72.769286,-7.878324],[-72.736924,-7.87605],[-72.735972,-7.85877],[-72.708369,-7.844673],[-72.687429,-7.846492],[-72.682194,-7.825574],[-72.656019,-7.835579],[-72.641742,-7.823301],[-72.638411,-7.766913],[-72.646977,-7.725531],[-72.641742,-7.705523],[-72.654592,-7.694609],[-72.732641,-7.725077],[-72.741207,-7.725077],[-72.794509,-7.688698],[-72.860184,-7.674146],[-72.913962,-7.664142],[-72.948227,-7.692335],[-72.977734,-7.679148],[-73.022945,-7.675965],[-73.040554,-7.669144],[-73.175712,-7.725986],[-73.251382,-7.792378],[-73.308015,-7.777827],[-73.304207,-7.760092],[-73.340377,-7.739174],[-73.341804,-7.712344],[-73.362268,-7.728715],[-73.374166,-7.751452],[-73.390823,-7.745995],[-73.455071,-7.770096],[-73.49124,-7.740083],[-73.531216,-7.717346],[-73.674941,-7.740083],[-73.690646,-7.766458],[-73.67732,-7.800109],[-73.685887,-7.843309],[-73.70873,-7.875141],[-73.733953,-7.874686],[-73.756321,-7.856951],[-73.767743,-7.861499],[-73.777737,-7.889693],[-73.750134,-7.930619],[-73.746327,-7.949264],[-73.702543,-7.967453],[-73.681127,-7.985188],[-73.66923,-8.012473],[-73.634964,-8.009744],[-73.615928,-8.038848],[-73.630205,-8.058856]]]},"properties":{"cod_ibge":"120042","name":"Rodrigues Alves","uf":"AC"}},
{"type":"Feature","geometry":{"type":"Polygon","coordinates":[[[-68.220071,-9.242545],[-68.503237,-9.114308],[-68.646962,-9.04928],[-68.921561,-8.81418],[-68.933459,-8.831005],[-68.971531,-8.841464],[-68.989616,-8.864201],[-69.011032,-8.870113],[-69.02293,-8.886483],[-69.070045,-8.895123],[-69.080515,-8.904218],[-69.084322,-8.930138],[-69.110973,-8.955604],[-69.176648,-8.941962],[-69.20092,-8.955604],[-69.223287,-8.995621],[-69.233757,-9.039731],[-69.256125,-9.046097],[-69.349403,-9.046552],[-69.387,-9.09339],[-69.432211,-9.117946],[-69.458386,-9.145231],[-69.558327,-9.179336],[-69.587834,-9.178881],[-69.612581,-9.208894],[-69.667786,-9.236179],[-69.69063,-9.229358],[-69.770107,-9.338495],[-69.797234,-9.334403],[-69.783908,-9.380331],[-69.817698,-9.424441],[-69.847204,-9.424441],[-69.86053,-9.439448],[-69.867668,-9.466732],[-69.869096,-9.521301],[-69.878614,-9.542219],[-69.93144,-9.611339],[-69.927633,-9.629074],[-69.946193,-9.675003],[-69.972368,-9.706835],[-69.977603,-9.725479],[-69.977127,-9.782322],[-70.020911,-9.832343],[-70.038995,-9.865539],[-70.032333,-9.892369],[-70.043755,-9.931022],[-70.037568,-9.952395],[-70.042803,-9.990138],[-70.11181,-10.150661],[-70.136081,-10.194316],[-70.152262,-10.20523],[-70.162256,-10.228877],[-70.187003,-10.256161],[-70.22698,-10.292086],[-70.218889,-10.312094],[-70.240305,-10.342107],[-70.255058,-10.394402],[-70.25601,-10.425324],[-70.611038,-10.42487],[-70.61437,-10.705444],[-70.601996,-10.698169],[-70.577249,-10.703171],[-70.555833,-10.688164],[-70.533941,-10.693621],[-70.53061,-10.716358],[-70.502055,-10.723634],[-70.458747,-10.712266],[-70.44447,-10.719541],[-70.419247,-10.710901],[-70.400686,-10.725908],[-70.34215,-10.704535],[-70.313595,-10.71363],[-70.311215,-10.700897],[-70.286468,-10.69635],[-70.258865,-10.71363],[-70.249823,-10.69635],[-70.219365,-10.684981],[-70.207943,-10.694531],[-70.178913,-10.690893],[-70.17463,-10.673158],[-70.135605,-10.662699],[-70.119424,-10.638598],[-70.09087,-10.651785],[-70.070405,-10.616315],[-70.018055,-10.595397],[-70.006158,-10.58221],[-69.979983,-10.585393],[-69.941434,-10.567658],[-69.926205,-10.549469],[-69.876235,-10.554471],[-69.865289,-10.541283],[-69.832927,-10.540829],[-69.830071,-10.508542],[-69.798661,-10.50354],[-69.807228,-10.48626],[-69.785336,-10.461704],[-69.723468,-10.453064],[-69.709666,-10.437602],[-69.659696,-10.423051],[-69.636376,-10.411682],[-69.630666,-10.396221],[-69.58831,-10.37121],[-69.550713,-10.404861],[-69.539767,-10.422141],[-69.545002,-10.447607],[-69.532628,-10.484895],[-69.507881,-10.504904],[-69.341789,-10.48535],[-69.363681,-10.463068],[-69.341789,-10.403042],[-69.310855,-10.363935],[-69.172365,-10.286629],[-69.120967,-10.268894],[-69.037207,-10.164304],[-68.884916,-10.062896],[-68.801156,-9.961944],[-68.694552,-9.886912],[-68.666474,-9.840983],[-68.693125,-9.75049],[-68.700263,-9.679096],[-68.672661,-9.559954],[-68.63316,-9.515844],[-68.607937,-9.505385],[-68.601274,-9.538126],[-68.584142,-9.539036],[-68.514183,-9.588602],[-68.510852,-9.576779],[-68.488008,-9.570868],[-68.466592,-9.545857],[-68.432327,-9.5404],[-68.418049,-9.545402],[-68.397109,-9.501747],[-68.356181,-9.490833],[-68.337145,-9.464458],[-68.331434,-9.440357],[-68.400917,-9.323944],[-68.366651,-9.299388],[-68.335241,-9.290293],[-68.316205,-9.295295],[-68.284795,-9.283017],[-68.267186,-9.265282],[-68.246246,-9.263463],[-68.220071,-9.242545]]]},"properties":{"cod_ibge":"120050","name":"Sena Madureira","uf":"AC"}},
{"type":"Feature","geometry":{"type":"Polygon","coordinates":[[[-68.748806,-11.018761],[-68.717396,-10.988293],[-68.71692,-10.978289],[-68.687414,-10.96783],[-68.686462,-10.937362],[-68.733101,-10.899164],[-68.784499,-10.868696],[-68.786403,-10.833227],[-68.834946,-10.73955],[-68.85303,-10.75774],[-68.877777,-10.758194],[-68.900145,-10.775474],[-68.946308,-10.775474],[-68.975815,-10.770927],[-68.980098,-10.753647],[-68.948688,-10.713175],[-68.948688,-10.677705],[-68.932507,-10.676796],[-68.913947,-10.638143],[-68.924417,-10.614496],[-68.90776,-10.603583],[-68.901573,-10.583119],[-68.917278,-10.576753],[-68.972959,-10.583119],[-68.979146,-10.574479],[-69.026737,-10.588122],[-69.066713,-10.58994],[-69.081466,-10.577662],[-69.088605,-10.557654],[-69.133816,-10.514908],[-69.157612,-10.512635],[-69.168558,-10.47671],[-69.157612,-10.467615],[-69.128581,-10.399404],[-69.131437,-10.384853],[-69.149521,-10.397131],[-69.183311,-10.39895],[-69.196161,-10.412592],[-69.21948,-10.414865],[-69.247083,-10.437602],[-69.248986,-10.454883],[-69.288011,-10.470344],[-69.322276,-10.472163],[-69.341789,-10.48535],[-69.507881,-10.504904],[-69.510736,-10.55629],[-69.551189,-10.615861],[-69.652081,-10.689529],[-69.670642,-10.731365],[-69.75583,-10.741369],[-69.777721,-10.781841],[-69.72442,-10.82777],[-69.686347,-10.82777],[-69.653509,-10.857328],[-69.63828,-10.845504],[-69.58593,-10.864149],[-69.56499,-10.858692],[-69.552616,-10.868696],[-69.520731,-10.848233],[-69.485037,-10.793664],[-69.497887,-10.7491],[-69.497887,-10.700442],[-69.473616,-10.710447],[-69.435067,-10.703171],[-69.392711,-10.732274],[-69.389856,-10.826405],[-69.423645,-10.926448],[-69.388904,-10.939636],[-69.352735,-10.935998],[-69.327511,-10.948731],[-69.291818,-10.950095],[-69.271354,-10.941455],[-69.232806,-10.94009],[-69.216149,-10.957825],[-69.201396,-10.948276],[-69.15666,-10.962827],[-69.148094,-10.971922],[-69.121443,-10.96692],[-69.097647,-10.979653],[-69.084322,-10.970558],[-69.04387,-10.981017],[-69.001514,-11.008756],[-68.966297,-10.987838],[-68.948212,-11.011485],[-68.932507,-11.005118],[-68.912043,-11.021489],[-68.89491,-11.006028],[-68.859693,-11.016487],[-68.849699,-10.99284],[-68.829235,-11.006028],[-68.811626,-10.994205],[-68.770222,-11.006937],[-68.748806,-11.018761]]]},"properties":{"cod_ibge":"120010","name":"Brasiléia","uf":"AC"}},
{"type":"Feature","geometry":{"type":"Polygon","coordinates":[[[-67.796036,-9.761858],[-67.864567,-9.74094],[-67.875513,-9.720477],[-67.905971,-9.711837],[-67.922152,-9.693647],[-67.910254,-9.669091],[-68.090148,-9.55768],[-68.073015,-9.52312],[-68.027804,-9.491743],[-68.018286,-9.459001],[-68.026376,-9.443085],[-68.056358,-9.412163],[-68.059214,-9.392155],[-68.042557,-9.352137],[-68.016382,-9.35714],[-67.977358,-9.352592],[-68.220071,-9.242545],[-68.246246,-9.263463],[-68.267186,-9.265282],[-68.284795,-9.283017],[-68.316205,-9.295295],[-68.335241,-9.290293],[-68.366651,-9.299388],[-68.400917,-9.323944],[-68.331434,-9.440357],[-68.337145,-9.464458],[-68.356181,-9.490833],[-68.397109,-9.501747],[-68.418049,-9.545402],[-68.425664,-9.560863],[-68.427092,-9.599516],[-68.455646,-9.624982],[-68.439941,-9.642262],[-68.422332,-9.691828],[-68.453742,-9.844621],[-68.413766,-9.810516],[-68.393778,-9.803695],[-68.389971,-9.788688],[-68.366651,-9.780503],[-68.300024,-9.7946],[-68.267662,-9.823703],[-68.152968,-9.961035],[-68.134883,-9.93466],[-68.098714,-9.929658],[-68.068256,-9.895097],[-68.044937,-9.891459],[-68.028756,-9.875998],[-68.001629,-9.867813],[-67.990683,-9.854171],[-67.949279,-9.853716],[-67.901212,-9.842802],[-67.864567,-9.841438],[-67.849338,-9.860992],[-67.82935,-9.870087],[-67.825067,-9.851442],[-67.833633,-9.833253],[-67.822687,-9.797783],[-67.822687,-9.775046],[-67.796036,-9.761858]]]},"properties":{"cod_ibge":"120013","name":"Bujari","uf":"AC"}},
{"type":"Feature","geometry":{"type":"Polygon","coordinates":[[[-67.638034,-10.368482],[-67.685149,-10.356659],[-67.696571,-10.322553],[-67.717035,-10.291176],[-67.75606,-10.270713],[-67.765102,-10.250704],[-67.805554,-10.198409],[-67.816024,-10.233879],[-67.831253,-10.256616],[-67.819832,-10.268439],[-67.846007,-10.287538],[-67.945948,-10.287538],[-67.959749,-10.313913],[-67.997346,-10.315732],[-68.038274,-10.351657],[-68.0259,-10.369391],[-68.040653,-10.388945],[-68.063497,-10.425324],[-68.043033,-10.472617],[-68.029707,-10.517182],[-68.02828,-10.542193],[-68.013051,-10.570387],[-67.9864,-10.591305],[-68.010671,-10.610404],[-68.002105,-10.648602],[-67.976406,-10.663154],[-67.96308,-10.650421],[-67.932146,-10.655423],[-67.875513,-10.644964],[-67.827446,-10.65133],[-67.815073,-10.665427],[-67.77462,-10.685891],[-67.757963,-10.686345],[-67.729885,-10.71363],[-67.704186,-10.699988],[-67.675631,-10.604947],[-67.659926,-10.614496],[-67.64089,-10.59949],[-67.635179,-10.580391],[-67.609956,-10.562201],[-67.605197,-10.534462],[-67.594727,-10.521729],[-67.567124,-10.509451],[-67.60948,-10.504449],[-67.620426,-10.480803],[-67.650408,-10.482622],[-67.680866,-10.476255],[-67.711324,-10.441695],[-67.687053,-10.410773],[-67.682294,-10.392583],[-67.658498,-10.39895],[-67.638034,-10.368482]]]},"properties":{"cod_ibge":"120017","name":"Capixaba","uf":"AC"}},
{"type":"Feature","geometry":{"type":"Polygon","coordinates":[[[-72.860184,-7.674146],[-72.794509,-7.688698],[-72.741207,-7.725077],[-72.732641,-7.725077],[-72.654592,-7.694609],[-72.641742,-7.705523],[-72.646977,-7.725531],[-72.638411,-7.766913],[-72.641742,-7.823301],[-72.656019,-7.835579],[-72.682194,-7.825574],[-72.687429,-7.846492],[-72.708369,-7.844673],[-72.735972,-7.85877],[-72.736924,-7.87605],[-72.769286,-7.878324],[-72.784991,-7.896969],[-72.853522,-7.910156],[-72.891118,-7.929255],[-72.909679,-7.926981],[-72.952987,-7.948354],[-72.970595,-7.936986],[-72.9863,-7.941988],[-73.008668,-7.933803],[-73.041982,-7.935621],[-73.076723,-7.94608],[-73.115272,-7.934257],[-73.112416,-7.915158],[-73.092428,-7.88651],[-73.153344,-7.901061],[-73.170953,-7.896059],[-73.199983,-7.906063],[-73.225682,-7.924708],[-73.237104,-7.941988],[-73.267562,-7.953356],[-73.297069,-7.988826],[-73.324672,-7.996557],[-73.341804,-7.985643],[-73.379877,-7.992009],[-73.398913,-8.013837],[-73.399389,-8.030207],[-73.630205,-8.058856],[-73.608313,-8.078865],[-73.607837,-8.092962],[-73.587849,-8.112061],[-73.595464,-8.207101],[-73.54359,-8.255759],[-73.529788,-8.276677],[-73.539307,-8.288955],[-73.526457,-8.311692],[-73.538831,-8.341705],[-73.517891,-8.369898],[-73.48077,-8.394909],[-73.441745,-8.409461],[-73.41795,-8.409006],[-73.404624,-8.424467],[-73.403672,-8.447204],[-73.383684,-8.474034],[-73.351322,-8.469941],[-73.332286,-8.475398],[-73.202363,-8.378539],[-73.177616,-8.373991],[-73.100518,-8.337612],[-73.079578,-8.294866],[-73.037698,-8.282588],[-73.015331,-8.255304],[-73.003433,-8.224382],[-72.962029,-8.211194],[-72.942517,-8.210739],[-72.914914,-8.190731],[-72.893498,-8.184819],[-72.864943,-8.159354],[-72.811642,-8.124339],[-72.801172,-8.146621],[-72.793081,-8.185274],[-72.800696,-8.204373],[-72.761195,-8.200735],[-72.731689,-8.218015],[-72.703134,-8.212558],[-72.674104,-8.223017],[-72.634128,-8.185274],[-72.564645,-8.187548],[-72.519433,-8.216196],[-72.50706,-8.232567],[-72.460897,-8.231657],[-72.433294,-8.240297],[-72.417589,-8.253485],[-72.396173,-8.254394],[-72.372853,-8.238478],[-72.359528,-8.241662],[-72.319552,-8.229384],[-72.301943,-8.205737],[-72.283383,-8.210285],[-72.26625,-8.260761],[-72.257683,-8.071589],[-72.261491,-8.059311],[-72.246738,-8.036119],[-72.225798,-8.020203],[-72.214852,-7.975184],[-72.18249,-7.946535],[-72.155839,-7.93744],[-72.1092,-7.89424],[-72.086832,-7.862408],[-72.061609,-7.848766],[-72.000693,-7.808294],[-71.945487,-7.626853],[-72.16964,-7.600478],[-72.584633,-7.551821],[-72.900161,-7.437681],[-72.889215,-7.523172],[-72.889215,-7.54409],[-72.870178,-7.561825],[-72.864467,-7.583198],[-72.843052,-7.607299],[-72.783563,-7.660049],[-72.804503,-7.664596],[-72.855425,-7.65823],[-72.860184,-7.674146]]]},"properties":{"cod_ibge":"120020","name":"Cruzeiro do Sul","uf":"AC"}},
{"type":"Feature","geometry":{"type":"Polygon","coordinates":[[[-68.834946,-10.73955],[-68.786403,-10.833227],[-68.784499,-10.868696],[-68.733101,-10.899164],[-68.686462,-10.937362],[-68.687414,-10.96783],[-68.71692,-10.978289],[-68.717396,-10.988293],[-68.748806,-11.018761],[-68.765463,-11.064235],[-68.741667,-11.096976],[-68.721203,-11.102887],[-68.711209,-11.128353],[-68.715968,-11.145633],[-68.542737,-11.111528],[-68.539882,-11.096976],[-68.518466,-11.086972],[-68.504665,-11.064235],[-68.487056,-11.051047],[-68.4447,-11.046045],[-68.43423,-11.031948],[-68.406152,-11.053776],[-68.388067,-11.040588],[-68.401392,-11.029674],[-68.399965,-11.001026],[-68.408531,-10.994205],[-68.4052,-10.957371],[-68.422808,-10.93236],[-68.419001,-10.907349],[-68.401868,-10.894162],[-68.408055,-10.856418],[-68.434706,-10.82686],[-68.458977,-10.815492],[-68.47849,-10.8355],[-68.507044,-10.808671],[-68.543213,-10.793664],[-68.561774,-10.770018],[-68.537027,-10.741369],[-68.532743,-10.719996],[-68.552256,-10.716813],[-68.605557,-10.657697],[-68.64363,-10.654968],[-68.641727,-10.626774],[-68.649817,-10.619044],[-68.700263,-10.632231],[-68.730246,-10.647238],[-68.753565,-10.670429],[-68.783547,-10.664518],[-68.805915,-10.670884],[-68.814006,-10.692712],[-68.805439,-10.715449],[-68.834946,-10.73955]]]},"properties":{"cod_ibge":"120025","name":"Epitaciolândia","uf":"AC"}},
{"type":"Feature","geometry":{"type":"Polygon","coordinates":[[[-72.07779,-8.868294],[-72.044,-8.90058],[-72.053994,-8.933776],[-72.036386,-8.94469],[-72.028295,-8.971065],[-72.029247,-9.001987],[-72.042573,-9.028817],[-72.032103,-9.068834],[-72.052567,-9.142502],[-72.069223,-9.15569],[-72.067796,-9.175243],[-72.044,-9.19798],[-72.097778,-9.293021],[-72.101109,-9.308028],[-72.120622,-9.318941],[-72.161074,-9.393974],[-72.182966,-9.388517],[-72.222466,-9.414892],[-72.249117,-9.44445],[-72.251973,-9.459456],[-72.272913,-9.487195],[-72.293853,-9.493107],[-72.303847,-9.508568],[-72.340492,-9.508568],[-72.322883,-9.540855],[-72.295756,-9.534034],[-72.281479,-9.546766],[-72.289093,-9.60179],[-72.269105,-9.620434],[-72.254352,-9.615432],[-72.257683,-9.650447],[-72.243882,-9.660451],[-72.251497,-9.683188],[-72.257683,-9.751854],[-72.216755,-9.766406],[-72.200574,-9.780503],[-72.170116,-9.77732],[-72.153459,-9.796873],[-72.110628,-9.762768],[-72.034958,-9.743214],[-72.038765,-9.766861],[-72.008307,-9.754128],[-71.99165,-9.716839],[-71.952626,-9.714111],[-71.929306,-9.722296],[-71.920264,-9.685462],[-71.884095,-9.667272],[-71.885047,-9.653175],[-71.869818,-9.636805],[-71.835552,-9.622253],[-71.839835,-9.602699],[-71.806046,-9.562682],[-71.807949,-9.529941],[-71.793196,-9.519937],[-71.802239,-9.504021],[-71.791769,-9.482648],[-71.778443,-9.482193],[-71.731328,-9.441721],[-71.723238,-9.410799],[-71.725617,-9.346681],[-71.712768,-9.309392],[-71.699442,-9.301661],[-71.701346,-9.269375],[-71.673743,-9.258461],[-71.650899,-9.235724],[-71.623773,-9.183884],[-71.626152,-9.141593],[-71.60664,-9.115218],[-71.606164,-9.08475],[-71.59379,-9.063377],[-71.602357,-9.042914],[-71.595694,-9.013356],[-71.569995,-8.974703],[-71.563332,-8.946509],[-71.536205,-8.93605],[-71.527639,-8.90922],[-71.503844,-8.901945],[-71.481476,-8.88421],[-71.502416,-8.869658],[-71.522404,-8.873751],[-71.552386,-8.850559],[-71.61711,-8.858289],[-71.618062,-8.821001],[-71.598074,-8.80463],[-71.573326,-8.755063],[-71.542392,-8.736419],[-71.546199,-8.707316],[-71.558573,-8.686398],[-71.560001,-8.654111],[-71.580941,-8.653202],[-71.611875,-8.66457],[-71.658038,-8.706406],[-71.683261,-8.706861],[-71.716099,-8.74324],[-71.755599,-8.765522],[-71.764166,-8.797809],[-71.794624,-8.817818],[-71.827462,-8.82282],[-71.85554,-8.813725],[-71.871245,-8.816908],[-71.935493,-8.785531],[-71.985463,-8.785531],[-72.027343,-8.812361],[-72.050187,-8.836462],[-72.078266,-8.84783],[-72.07779,-8.868294]]]},"properties":{"cod_ibge":"120032","name":"Jordão","uf":"AC"}},
{"type":"Feature","geometry":{"type":"Polygon","coordinates":[[[-70.51538,-7.792378],[-70.546315,-7.808749],[-70.545839,-7.821027],[-70.577249,-7.84149],[-70.583911,-7.872867],[-70.607707,-7.874686],[-70.600568,-7.893785],[-70.642448,-7.929255],[-70.64102,-7.956994],[-70.631978,-7.983824],[-70.58867,-7.992919],[-70.569158,-8.048852],[-70.577725,-8.055218],[-70.577725,-8.110696],[-70.556309,-8.154806],[-70.580104,-8.197097],[-70.565351,-8.20983],[-70.587243,-8.233022],[-70.633406,-8.310782],[-70.62484,-8.340795],[-70.680045,-8.382631],[-70.676238,-8.438109],[-70.652918,-8.466303],[-70.702413,-8.477217],[-70.688611,-8.523146],[-70.726684,-8.569529],[-70.742389,-8.609092],[-70.767612,-8.610911],[-70.783793,-8.640014],[-70.836619,-8.646381],[-70.858035,-8.670027],[-70.87374,-8.640469],[-70.891349,-8.640469],[-70.91562,-8.604544],[-70.930849,-8.601361],[-70.945602,-8.622279],[-70.981295,-8.649564],[-70.98891,-8.669572],[-71.026507,-8.716865],[-71.060296,-8.741421],[-71.064104,-8.753244],[-71.122164,-8.771434],[-71.147864,-8.783257],[-71.161189,-8.798264],[-71.185936,-8.802356],[-71.222105,-8.821001],[-71.231148,-8.840555],[-71.278739,-8.850104],[-71.294919,-8.846012],[-71.309673,-8.863746],[-71.343462,-8.869203],[-71.370589,-8.893304],[-71.39724,-8.877389],[-71.424367,-8.884664],[-71.441975,-8.869203],[-71.467199,-8.868294],[-71.481476,-8.88421],[-71.503844,-8.901945],[-71.527639,-8.90922],[-71.536205,-8.93605],[-71.563332,-8.946509],[-71.569995,-8.974703],[-71.595694,-9.013356],[-71.602357,-9.042914],[-71.59379,-9.063377],[-71.606164,-9.08475],[-71.60664,-9.115218],[-71.626152,-9.141593],[-71.623773,-9.183884],[-71.650899,-9.235724],[-71.673743,-9.258461],[-71.701346,-9.269375],[-71.699442,-9.301661],[-71.712768,-9.309392],[-71.725617,-9.346681],[-71.723238,-9.410799],[-71.731328,-9.441721],[-71.778443,-9.482193],[-71.791769,-9.482648],[-71.802239,-9.504021],[-71.793196,-9.519937],[-71.807949,-9.529941],[-71.806046,-9.562682],[-71.839835,-9.602699],[-71.835552,-9.622253],[-71.869818,-9.636805],[-71.885047,-9.653175],[-71.884095,-9.667272],[-71.920264,-9.685462],[-71.929306,-9.722296],[-71.952626,-9.714111],[-71.99165,-9.716839],[-72.008307,-9.754128],[-72.038765,-9.766861],[-72.034958,-9.743214],[-72.110628,-9.762768],[-72.153459,-9.796873],[-72.159646,-9.824613],[-72.1487,-9.845076],[-72.143465,-9.891459],[-72.162978,-9.90874],[-72.168213,-9.932841],[-72.154411,-9.945573],[-72.155363,-9.971494],[-72.173923,-9.982407],[-72.177731,-9.999233],[-72.024012,-10.000142],[-71.71943,-10.000142],[-71.377252,-10.000142],[-71.350601,-9.970129],[-71.337275,-9.965582],[-71.322522,-9.985591],[-71.30301,-9.988774],[-71.253515,-9.962854],[-71.224009,-9.965582],[-71.207828,-9.952395],[-71.163093,-9.871451],[-71.12264,-9.845985],[-71.115502,-9.827341],[-71.077429,-9.827796],[-71.100273,-9.815973],[-71.089327,-9.778684],[-71.1017,-9.75049],[-71.088851,-9.740031],[-71.079333,-9.700014],[-71.045543,-9.642262],[-70.957024,-9.586329],[-70.951313,-9.535853],[-70.90277,-9.507659],[-70.855655,-9.448997],[-70.790932,-9.448997],[-70.770468,-9.422167],[-70.734775,-9.415346],[-70.69337,-9.371691],[-70.631502,-9.376693],[-70.639593,-9.31303],[-70.629123,-9.306209],[-70.627219,-9.270284],[-70.572014,-9.212987],[-70.527754,-9.13841],[-70.498724,-9.106578],[-70.453036,-9.103849],[-70.437331,-9.08566],[-70.40259,-9.018358],[-70.364993,-8.982434],[-70.31883,-8.963789],[-70.193666,-8.967427],[-70.089918,-8.973794],[-69.865289,-8.957423],[-69.83959,-8.944235],[-69.826264,-8.920589],[-69.794854,-8.8401],[-69.762968,-8.785076],[-69.725847,-8.763704],[-69.659696,-8.68185],[-69.628286,-8.681396],[-69.607346,-8.661842],[-69.571653,-8.644107],[-69.56737,-8.61273],[-69.550713,-8.584991],[-69.542622,-8.548611],[-69.511688,-8.496316],[-69.505026,-8.45448],[-69.466953,-8.409006],[-69.44982,-8.395819],[-69.444109,-8.366261],[-69.621623,-8.215287],[-69.801517,-8.06113],[-70.055176,-7.845128],[-70.335487,-7.812842],[-70.51538,-7.792378]]]},"properties":{"cod_ibge":"120030","name":"Feijó","uf":"AC"}},
{"type":"Feature","geometry":{"type":"Polygon","coordinates":[[[-67.325838,-9.59224],[-67.516678,-9.560863],[-67.765578,-9.448542],[-67.976882,-9.352592],[-67.977358,-9.352592],[-68.016382,-9.35714],[-68.042557,-9.352137],[-68.059214,-9.392155],[-68.056358,-9.412163],[-68.026376,-9.443085],[-68.018286,-9.459001],[-68.027804,-9.491743],[-68.073015,-9.52312],[-68.090148,-9.55768],[-67.910254,-9.669091],[-67.922152,-9.693647],[-67.905971,-9.711837],[-67.875513,-9.720477],[-67.864567,-9.74094],[-67.796036,-9.761858],[-67.794133,-9.782322],[-67.743686,-9.739576],[-67.702758,-9.787324],[-67.717987,-9.805513],[-67.707041,-9.816882],[-67.709897,-9.836436],[-67.684673,-9.833707],[-67.6723,-9.851897],[-67.653263,-9.863266],[-67.612335,-9.858718],[-67.581401,-9.836891],[-67.568076,-9.850078],[-67.542377,-9.850078],[-67.526672,-9.859628],[-67.513346,-9.885548],[-67.516678,-9.906466],[-67.482412,-9.926474],[-67.468135,-9.914651],[-67.451002,-9.917834],[-67.437677,-9.881455],[-67.438153,-9.835526],[-67.420068,-9.825067],[-67.407694,-9.805059],[-67.36867,-9.782322],[-67.362007,-9.764587],[-67.332977,-9.721387],[-67.33726,-9.683643],[-67.325838,-9.661816],[-67.339163,-9.624527],[-67.325362,-9.592695],[-67.325838,-9.59224]]]},"properties":{"cod_ibge":"120080","name":"Porto Acre","uf":"AC"}},
{"type":"Feature","geometry":{"type":"Polygon","coordinates":[[[-67.124528,-9.969675],[-67.100257,-10.103823],[-67.075986,-10.087907],[-67.075986,-10.202502],[-67.00222,-10.202047],[-67.00222,-10.229786],[-66.998413,-10.212051],[-66.982708,-10.197045],[-66.951298,-10.186586],[-66.946539,-10.159756],[-66.910845,-10.146569],[-66.894664,-10.110189],[-66.873249,-10.101549],[-66.870869,-10.080631],[-66.844218,-10.086088],[-66.840411,-10.070172],[-66.808049,-10.049709],[-66.789964,-10.02197],[-66.750464,-9.993321],[-66.739518,-9.99514],[-66.718578,-9.973767],[-66.67527,-9.966946],[-66.656234,-9.935569],[-66.636246,-9.942845],[-66.634818,-9.910558],[-66.626728,-9.897826],[-66.810429,-9.818246],[-67.134998,-9.675913],[-67.139758,-9.684098],[-67.187824,-9.692283],[-67.184969,-9.710018],[-67.102161,-9.929658],[-67.090263,-9.957397],[-67.124528,-9.969675]]]},"properties":{"cod_ibge":"120001","name":"Acrelândia","uf":"AC"}},
{"type":"Feature","geometry":{"type":"Polygon","coordinates":[[[-69.423645,-10.926448],[-69.389856,-10.826405],[-69.392711,-10.732274],[-69.435067,-10.703171],[-69.473616,-10.710447],[-69.497887,-10.700442],[-69.497887,-10.7491],[-69.485037,-10.793664],[-69.520731,-10.848233],[-69.552616,-10.868696],[-69.56499,-10.858692],[-69.58593,-10.864149],[-69.63828,-10.845504],[-69.653509,-10.857328],[-69.686347,-10.82777],[-69.72442,-10.82777],[-69.777721,-10.781841],[-69.75583,-10.741369],[-69.670642,-10.731365],[-69.652081,-10.689529],[-69.551189,-10.615861],[-69.510736,-10.55629],[-69.507881,-10.504904],[-69.532628,-10.484895],[-69.545002,-10.447607],[-69.539767,-10.422141],[-69.550713,-10.404861],[-69.58831,-10.37121],[-69.630666,-10.396221],[-69.636376,-10.411682],[-69.659696,-10.423051],[-69.709666,-10.437602],[-69.723468,-10.453064],[-69.785336,-10.461704],[-69.807228,-10.48626],[-69.798661,-10.50354],[-69.830071,-10.508542],[-69.832927,-10.540829],[-69.865289,-10.541283],[-69.876235,-10.554471],[-69.926205,-10.549469],[-69.941434,-10.567658],[-69.979983,-10.585393],[-70.006158,-10.58221],[-70.018055,-10.595397],[-70.070405,-10.616315],[-70.09087,-10.651785],[-70.119424,-10.638598],[-70.135605,-10.662699],[-70.17463,-10.673158],[-70.178913,-10.690893],[-70.207943,-10.694531],[-70.219365,-10.684981],[-70.249823,-10.69635],[-70.258865,-10.71363],[-70.286468,-10.69635],[-70.311215,-10.700897],[-70.313595,-10.71363],[-70.34215,-10.704535],[-70.400686,-10.725908],[-70.419247,-10.710901],[-70.44447,-10.719541],[-70.458747,-10.712266],[-70.502055,-10.723634],[-70.53061,-10.716358],[-70.533941,-10.693621],[-70.555833,-10.688164],[-70.577249,-10.703171],[-70.601996,-10.698169],[-70.61437,-10.705444],[-70.617701,-10.999207],[-70.526802,-10.935088],[-70.48397,-10.967375],[-70.470645,-10.986929],[-70.448277,-11.004209],[-70.427337,-11.038314],[-70.386409,-11.047409],[-70.373084,-11.060597],[-70.30836,-11.070601],[-70.281709,-11.056504],[-70.245064,-11.049683],[-70.200805,-11.054685],[-70.17463,-11.039679],[-70.13037,-11.023308],[-70.106575,-11.006028],[-70.095153,-10.986929],[-70.063267,-10.99284],[-70.037568,-10.970558],[-69.974748,-10.948731],[-69.947621,-10.924629],[-69.901458,-10.920082],[-69.853391,-10.924175],[-69.822933,-10.932815],[-69.806752,-10.925994],[-69.760113,-10.939181],[-69.739173,-10.965556],[-69.718709,-10.97556],[-69.65922,-10.952823],[-69.637328,-10.957825],[-69.59878,-10.943274],[-69.574508,-10.941455],[-69.547857,-10.953733],[-69.539291,-10.937362],[-69.521206,-10.936453],[-69.479326,-10.954642],[-69.453627,-10.949185],[-69.452676,-10.936907],[-69.423645,-10.926448]]]},"properties":{"cod_ibge":"120005","name":"Assis Brasil","uf":"AC"}},
{"type":"Feature","geometry":{"type":"Polygon","coordinates":[[[-67.805554,-10.198409],[-67.765102,-10.250704],[-67.75606,-10.270713],[-67.717035,-10.291176],[-67.696571,-10.322553],[-67.685149,-10.356659],[-67.638034,-10.368482],[-67.625661,-10.343016],[-67.623281,-10.31937],[-67.564268,-10.289357],[-67.50478,-10.264346],[-67.501448,-10.242064],[-67.48384,-10.22342],[-67.46052,-10.177946],[-67.441484,-10.160211],[-67.430062,-10.12747],[-67.428634,-10.096093],[-67.346778,-10.061987],[-67.300139,-10.062442],[-67.251596,-10.028336],[-67.164981,-9.984681],[-67.124528,-9.969675],[-67.090263,-9.957397],[-67.102161,-9.929658],[-67.184969,-9.710018],[-67.187824,-9.692283],[-67.139758,-9.684098],[-67.134998,-9.675913],[-67.325362,-9.592695],[-67.339163,-9.624527],[-67.325838,-9.661816],[-67.33726,-9.683643],[-67.332977,-9.721387],[-67.362007,-9.764587],[-67.36867,-9.782322],[-67.407694,-9.805059],[-67.420068,-9.825067],[-67.438153,-9.835526],[-67.437677,-9.881455],[-67.451002,-9.917834],[-67.468135,-9.914651],[-67.482412,-9.926474],[-67.492406,-9.948302],[-67.496689,-9.976496],[-67.49193,-10.001507],[-67.509539,-10.025153],[-67.527148,-10.02106],[-67.560461,-10.058349],[-67.580925,-10.069263],[-67.609956,-10.04789],[-67.637558,-10.060168],[-67.646125,-10.080177],[-67.670872,-10.102004],[-67.738927,-10.108371],[-67.77462,-10.107916],[-67.814597,-10.087907],[-67.828398,-10.120648],[-67.805554,-10.198409]]]},"properties":{"cod_ibge":"120045","name":"Senador Guiomard","uf":"AC"}}
]}