{"type":"FeatureCollection", "features": [
{"type":"Feature","geometry":{"type":"Polygon","coordinates":[[[-36.07479,-9.67364],[-36.24707,-9.7323],[-36.18378,-9.80051],[-36.04101,-9.85826],[-36.02673,-9.81143],[-36.00436,-9.76732],[-36.03387,-9.70138],[-36.07479,-9.67364]]]},"properties":{"cod_ibge":"270860","name":"São Miguel dos Campos","uf":"AL"}},
{"type":"Feature","geometry":{"type":"Polygon","coordinates":[[[-36.31323,-9.88691],[-36.28086,-9.93466],[-36.18378,-9.80051],[-36.24707,-9.7323],[-36.25326,-9.72957],[-36.34273,-9.73867],[-36.40079,-9.78323],[-36.31323,-9.88691]]]},"properties":{"cod_ibge":"270140","name":"Campo Alegre","uf":"AL"}},
{"type":"Feature","geometry":{"type":"Polygon","coordinates":[[[-38.00032,-9.33622],[-37.8723,-9.40671],[-37.76903,-9.28893],[-37.83328,-9.22117],[-37.94654,-9.09475],[-38.01222,-9.15614],[-38.00032,-9.33622]]]},"properties":{"cod_ibge":"270010","name":"Água Branca","uf":"AL"}},
{"type":"Feature","geometry":{"type":"Polygon","coordinates":[[[-36.64827,-10.02606],[-36.7306,-10.16112],[-36.7206,-10.2648],[-36.70157,-10.27026],[-36.68348,-10.27071],[-36.64636,-10.25753],[-36.525,-10.17704],[-36.49169,-10.07154],[-36.64827,-10.02606]]]},"properties":{"cod_ibge":"270320","name":"Igreja Nova","uf":"AL"}},
{"type":"Feature","geometry":{"type":"Polygon","coordinates":[[[-36.48075,-9.60725],[-36.53785,-9.53267],[-36.5745,-9.56587],[-36.53595,-9.66318],[-36.38842,-9.65181],[-36.39413,-9.64817],[-36.44696,-9.60588],[-36.48075,-9.60725]]]},"properties":{"cod_ibge":"270910","name":"Taquarana","uf":"AL"}},
{"type":"Feature","geometry":{"type":"Polygon","coordinates":[[[-36.31323,-9.88691],[-36.47884,-9.96013],[-36.45552,-10.03288],[-36.45314,-10.04016],[-36.30466,-10.03152],[-36.28086,-9.93511],[-36.28086,-9.93466],[-36.31323,-9.88691]]]},"properties":{"cod_ibge":"270915","name":"Teotônio Vilela","uf":"AL"}},
{"type":"Feature","geometry":{"type":"Polygon","coordinates":[[[-36.29133,-9.17388],[-36.35606,-9.21844],[-36.32655,-9.28484],[-36.20091,-9.2189],[-36.29133,-9.17388]]]},"properties":{"cod_ibge":"270190","name":"Chã Preta","uf":"AL"}},
{"type":"Feature","geometry":{"type":"Polygon","coordinates":[[[-37.84232,-9.57951],[-37.72525,-9.3344],[-37.76903,-9.28893],[-37.8723,-9.40671],[-37.89419,-9.53949],[-37.84232,-9.57951]]]},"properties":{"cod_ibge":"270580","name":"Olho d'Água do Casado","uf":"AL"}},
{"type":"Feature","geometry":{"type":"Polygon","coordinates":[[[-35.24148,-9.06474],[-35.15248,-8.91377],[-35.23482,-8.8833],[-35.35094,-8.86056],[-35.36617,-8.94333],[-35.30335,-9.02836],[-35.24148,-9.06474]]]},"properties":{"cod_ibge":"270450","name":"Maragogi","uf":"AL"}},
{"type":"Feature","geometry":{"type":"Polygon","coordinates":[[[-36.33988,-9.28665],[-36.32655,-9.28484],[-36.35606,-9.21844],[-36.4027,-9.22345],[-36.50026,-9.26301],[-36.62495,-9.33167],[-36.48646,-9.40625],[-36.33988,-9.28665]]]},"properties":{"cod_ibge":"270760","name":"Quebrangulo","uf":"AL"}},
{"type":"Feature","geometry":{"type":"Polygon","coordinates":[[[-35.9049,-9.85599],[-35.8554,-9.78823],[-36.00436,-9.76732],[-36.02673,-9.81143],[-35.9049,-9.85599]]]},"properties":{"cod_ibge":"270060","name":"Barra de São Miguel","uf":"AL"}},
{"type":"Feature","geometry":{"type":"Polygon","coordinates":[[[-36.77438,-9.72957],[-36.74725,-9.87736],[-36.69062,-9.80415],[-36.75439,-9.70729],[-36.77438,-9.72957]]]},"properties":{"cod_ibge":"270410","name":"Lagoa da Canoa","uf":"AL"}},
{"type":"Feature","geometry":{"type":"Polygon","coordinates":[[[-37.44446,-9.35759],[-37.28884,-9.3485],[-37.16891,-9.26528],[-37.19842,-9.21526],[-37.22935,-9.22663],[-37.41448,-9.28938],[-37.58819,-9.28665],[-37.58771,-9.29575],[-37.44446,-9.35759]]]},"properties":{"cod_ibge":"270720","name":"Poço das Trincheiras","uf":"AL"}},
{"type":"Feature","geometry":{"type":"Polygon","coordinates":[[[-35.88871,-9.13841],[-36.05909,-9.21572],[-36.20091,-9.2189],[-36.04243,-9.2812],[-35.88871,-9.13841]]]},"properties":{"cod_ibge":"270110","name":"Branquinha","uf":"AL"}},
{"type":"Feature","geometry":{"type":"Polygon","coordinates":[[[-38.21496,-9.35305],[-38.00318,-9.51493],[-37.89419,-9.53949],[-37.8723,-9.40671],[-38.00032,-9.33622],[-38.15642,-9.25028],[-38.2378,-9.32986],[-38.21496,-9.35305]]]},"properties":{"cod_ibge":"270240","name":"Delmiro Gouveia","uf":"AL"}},
{"type":"Feature","geometry":{"type":"Polygon","coordinates":[[[-36.11715,-9.05519],[-35.95439,-9.03109],[-35.98818,-8.90422],[-36.03339,-8.90831],[-36.11144,-9.01745],[-36.12143,-9.02791],[-36.11715,-9.05519]]]},"properties":{"cod_ibge":"270830","name":"São José da Laje","uf":"AL"}},
{"type":"Feature","geometry":{"type":"Polygon","coordinates":[[[-36.9676,-9.69501],[-36.90383,-9.62771],[-36.88717,-9.59906],[-37.04613,-9.61998],[-36.99378,-9.72139],[-36.9676,-9.69501]]]},"properties":{"cod_ibge":"270370","name":"Jaramataia","uf":"AL"}},
{"type":"Feature","geometry":{"type":"Polygon","coordinates":[[[-36.28086,-9.93511],[-36.12429,-9.93375],[-36.03149,-10.05062],[-35.96296,-9.94103],[-36.04101,-9.85826],[-36.18378,-9.80051],[-36.28086,-9.93466],[-36.28086,-9.93511]]]},"properties":{"cod_ibge":"270375","name":"Jequiá da Praia","uf":"AL"}},
{"type":"Feature","geometry":{"type":"Polygon","coordinates":[[[-36.48693,-10.42305],[-36.39603,-10.49672],[-36.30133,-10.34438],[-36.39318,-10.30982],[-36.48693,-10.42305]]]},"properties":{"cod_ibge":"270680","name":"Piaçabuçu","uf":"AL"}},
{"type":"Feature","geometry":{"type":"Polygon","coordinates":[[[-36.01673,-9.39716],[-35.92869,-9.37578],[-35.87729,-9.41671],[-35.83636,-9.26437],[-35.88871,-9.13841],[-36.04243,-9.2812],[-36.01673,-9.39716]]]},"properties":{"cod_ibge":"270550","name":"Murici","uf":"AL"}},
{"type":"Feature","geometry":{"type":"Polygon","coordinates":[[[-36.38842,-9.65181],[-36.53595,-9.66318],[-36.58259,-9.69956],[-36.55308,-9.83916],[-36.40079,-9.78323],[-36.34273,-9.73867],[-36.38842,-9.65181]]]},"properties":{"cod_ibge":"270420","name":"Limoeiro de Anadia","uf":"AL"}},
{"type":"Feature","geometry":{"type":"Polygon","coordinates":[[[-37.11989,-9.53813],[-37.10466,-9.46037],[-37.12608,-9.43717],[-37.26695,-9.44945],[-37.27028,-9.45718],[-37.11989,-9.53813]]]},"properties":{"cod_ibge":"270600","name":"Olivença","uf":"AL"}},
{"type":"Feature","geometry":{"type":"Polygon","coordinates":[[[-37.21888,-9.71002],[-37.04041,-9.80733],[-36.99378,-9.72139],[-37.04613,-9.61998],[-37.14464,-9.60088],[-37.15273,-9.61361],[-37.21888,-9.71002]]]},"properties":{"cod_ibge":"270070","name":"Batalha","uf":"AL"}},
{"type":"Feature","geometry":{"type":"Polygon","coordinates":[[[-37.03994,-9.41762],[-36.9795,-9.35941],[-37.05517,-9.30757],[-37.06088,-9.30803],[-37.12608,-9.43717],[-37.10466,-9.46037],[-37.03994,-9.41762]]]},"properties":{"cod_ibge":"270250","name":"Dois Riachos","uf":"AL"}},
{"type":"Feature","geometry":{"type":"Polygon","coordinates":[[[-35.31239,-9.14705],[-35.30335,-9.02836],[-35.36617,-8.94333],[-35.45373,-8.95015],[-35.56462,-9.01017],[-35.56034,-9.04883],[-35.5018,-9.0852],[-35.31239,-9.14705]]]},"properties":{"cod_ibge":"270730","name":"Porto Calvo","uf":"AL"}},
{"type":"Feature","geometry":{"type":"Polygon","coordinates":[[[-37.35642,-9.63771],[-37.31359,-9.55313],[-37.37307,-9.52494],[-37.44636,-9.47628],[-37.65434,-9.40898],[-37.67242,-9.53585],[-37.61722,-9.49674],[-37.46873,-9.64999],[-37.35642,-9.63771]]]},"properties":{"cod_ibge":"270840","name":"São José da Tapera","uf":"AL"}},
{"type":"Feature","geometry":{"type":"Polygon","coordinates":[[[-36.70871,-9.48492],[-36.69966,-9.29302],[-36.79675,-9.28029],[-36.82673,-9.39079],[-36.83435,-9.50902],[-36.70871,-9.48492]]]},"properties":{"cod_ibge":"270255","name":"Estrela de Alagoas","uf":"AL"}},
{"type":"Feature","geometry":{"type":"Polygon","coordinates":[[[-37.03994,-9.41762],[-36.8372,-9.53176],[-36.83435,-9.50902],[-36.82673,-9.39079],[-36.93667,-9.3776],[-36.9795,-9.35941],[-37.03994,-9.41762]]]},"properties":{"cod_ibge":"270120","name":"Cacimbinhas","uf":"AL"}},
{"type":"Feature","geometry":{"type":"Polygon","coordinates":[[[-35.57985,-9.15796],[-35.68122,-9.02427],[-35.71596,-9.01699],[-35.83446,-8.98425],[-35.86064,-9.05337],[-35.88871,-9.13841],[-35.725,-9.12522],[-35.61697,-9.13523],[-35.57985,-9.15796]]]},"properties":{"cod_ibge":"270380","name":"Joaquim Gomes","uf":"AL"}},
{"type":"Feature","geometry":{"type":"Polygon","coordinates":[[[-35.95962,-9.52767],[-36.18092,-9.61225],[-36.07479,-9.67364],[-36.03387,-9.70138],[-35.86825,-9.62544],[-35.88729,-9.58906],[-35.95962,-9.52767]]]},"properties":{"cod_ibge":"270690","name":"Pilar","uf":"AL"}},
{"type":"Feature","geometry":{"type":"Polygon","coordinates":[[[-35.82637,-8.87057],[-35.83161,-8.86875],[-35.83398,-8.87011],[-35.83541,-8.86875],[-35.84493,-8.87239],[-35.95058,-8.8924],[-35.98818,-8.90422],[-35.95439,-9.03109],[-35.86064,-9.05337],[-35.83446,-8.98425],[-35.82637,-8.87057]]]},"properties":{"cod_ibge":"270300","name":"Ibateguara","uf":"AL"}},
{"type":"Feature","geometry":{"type":"Polygon","coordinates":[[[-36.15427,-9.3053],[-36.1557,-9.4731],[-36.01673,-9.39716],[-36.04243,-9.2812],[-36.20091,-9.2189],[-36.15427,-9.3053]]]},"properties":{"cod_ibge":"270170","name":"Capela","uf":"AL"}},
{"type":"Feature","geometry":{"type":"Polygon","coordinates":[[[-35.68122,-9.02427],[-35.56034,-9.04883],[-35.56462,-9.01017],[-35.57937,-8.91104],[-35.57033,-8.84283],[-35.5827,-8.84647],[-35.65219,-8.88239],[-35.71596,-9.01699],[-35.68122,-9.02427]]]},"properties":{"cod_ibge":"270560","name":"Novo Lino","uf":"AL"}},
{"type":"Feature","geometry":{"type":"Polygon","coordinates":[[[-35.76974,-9.38943],[-35.79686,-9.53131],[-35.81447,-9.57996],[-35.79353,-9.59997],[-35.79115,-9.68046],[-35.78973,-9.71138],[-35.70834,-9.665],[-35.55843,-9.48765],[-35.67646,-9.39852],[-35.69074,-9.37078],[-35.76974,-9.38943]]]},"properties":{"cod_ibge":"270430","name":"Maceió","uf":"AL"}},
{"type":"Feature","geometry":{"type":"Polygon","coordinates":[[[-35.95962,-9.52767],[-35.92869,-9.37578],[-36.01673,-9.39716],[-36.1557,-9.4731],[-36.20805,-9.45536],[-36.2209,-9.48447],[-36.19187,-9.59997],[-36.18092,-9.61225],[-35.95962,-9.52767]]]},"properties":{"cod_ibge":"270040","name":"Atalaia","uf":"AL"}},
{"type":"Feature","geometry":{"type":"Polygon","coordinates":[[[-35.83636,-9.26437],[-35.87729,-9.41671],[-35.76974,-9.38761],[-35.83636,-9.26437]]]},"properties":{"cod_ibge":"270520","name":"Messias","uf":"AL"}},
{"type":"Feature","geometry":{"type":"Polygon","coordinates":[[[-36.2109,-9.45309],[-36.3394,-9.46446],[-36.33988,-9.5113],[-36.2209,-9.48447],[-36.20805,-9.45536],[-36.2109,-9.45309]]]},"properties":{"cod_ibge":"270700","name":"Pindoba","uf":"AL"}},
{"type":"Feature","geometry":{"type":"Polygon","coordinates":[[[-37.44636,-9.47628],[-37.33976,-9.41944],[-37.44446,-9.35759],[-37.58771,-9.29575],[-37.65434,-9.40898],[-37.44636,-9.47628]]]},"properties":{"cod_ibge":"270895","name":"Senador Rui Palmeira","uf":"AL"}},
{"type":"Feature","geometry":{"type":"Polygon","coordinates":[[[-35.45373,-8.95015],[-35.36617,-8.94333],[-35.35094,-8.86056],[-35.409,-8.83783],[-35.53987,-8.821],[-35.49085,-8.94242],[-35.45373,-8.95015]]]},"properties":{"cod_ibge":"270350","name":"Jacuípe","uf":"AL"}},
{"type":"Feature","geometry":{"type":"Polygon","coordinates":[[[-35.86777,-9.62635],[-35.79115,-9.68046],[-35.79353,-9.59997],[-35.86777,-9.62635]]]},"properties":{"cod_ibge":"270220","name":"Coqueiro Seco","uf":"AL"}},
{"type":"Feature","geometry":{"type":"Polygon","coordinates":[[[-36.2109,-9.45309],[-36.15427,-9.3053],[-36.20091,-9.2189],[-36.32655,-9.28484],[-36.33988,-9.28665],[-36.38937,-9.42535],[-36.3394,-9.46446],[-36.2109,-9.45309]]]},"properties":{"cod_ibge":"270940","name":"Viçosa","uf":"AL"}},
{"type":"Feature","geometry":{"type":"Polygon","coordinates":[[[-36.35035,-9.59224],[-36.25469,-9.62134],[-36.19187,-9.59997],[-36.2209,-9.48447],[-36.33988,-9.5113],[-36.38699,-9.50948],[-36.35035,-9.59224]]]},"properties":{"cod_ibge":"270480","name":"Maribondo","uf":"AL"}},
{"type":"Feature","geometry":{"type":"Polygon","coordinates":[[[-36.20091,-9.2189],[-36.11096,-9.15705],[-36.11715,-9.05519],[-36.12143,-9.02791],[-36.19568,-9.04473],[-36.29133,-9.17388],[-36.20091,-9.2189]]]},"properties":{"cod_ibge":"270810","name":"Santana do Mundaú","uf":"AL"}},
{"type":"Feature","geometry":{"type":"Polygon","coordinates":[[[-35.81447,-9.57996],[-35.86777,-9.62635],[-35.79353,-9.59997],[-35.81447,-9.57996]]]},"properties":{"cod_ibge":"270790","name":"Santa Luzia do Norte","uf":"AL"}},
{"type":"Feature","geometry":{"type":"Polygon","coordinates":[[[-36.38937,-9.42535],[-36.33988,-9.28665],[-36.48646,-9.40625],[-36.46076,-9.45309],[-36.38937,-9.42535]]]},"properties":{"cod_ibge":"270660","name":"Paulo Jacinto","uf":"AL"}},
{"type":"Feature","geometry":{"type":"Polygon","coordinates":[[[-37.33976,-9.41944],[-37.44636,-9.47628],[-37.37307,-9.52494],[-37.27028,-9.45718],[-37.26695,-9.44945],[-37.33976,-9.41944]]]},"properties":{"cod_ibge":"270180","name":"Carneiros","uf":"AL"}},
{"type":"Feature","geometry":{"type":"Polygon","coordinates":[[[-36.79675,-9.28029],[-36.87956,-9.2762],[-36.93667,-9.3776],[-36.82673,-9.39079],[-36.79675,-9.28029]]]},"properties":{"cod_ibge":"270530","name":"Minador do Negrão","uf":"AL"}},
{"type":"Feature","geometry":{"type":"Polygon","coordinates":[[[-36.47884,-9.96013],[-36.31323,-9.88691],[-36.40079,-9.78323],[-36.55308,-9.83916],[-36.47884,-9.96013]]]},"properties":{"cod_ibge":"270400","name":"Junqueiro","uf":"AL"}},
{"type":"Feature","geometry":{"type":"Polygon","coordinates":[[[-35.52464,-9.44263],[-35.47229,-9.35805],[-35.51417,-9.31439],[-35.68645,-9.37078],[-35.69074,-9.37078],[-35.67646,-9.39852],[-35.52464,-9.44263]]]},"properties":{"cod_ibge":"270050","name":"Barra de Santo Antônio","uf":"AL"}},
{"type":"Feature","geometry":{"type":"Polygon","coordinates":[[[-35.30335,-9.02836],[-35.31239,-9.14705],[-35.29526,-9.15569],[-35.24148,-9.06474],[-35.30335,-9.02836]]]},"properties":{"cod_ibge":"270360","name":"Japaratinga","uf":"AL"}},
{"type":"Feature","geometry":{"type":"Polygon","coordinates":[[[-36.28086,-9.93511],[-36.30466,-10.03152],[-36.45314,-10.04016],[-36.36224,-10.12156],[-36.37129,-10.23024],[-36.25945,-10.26389],[-36.03149,-10.05062],[-36.12429,-9.93375],[-36.28086,-9.93511]]]},"properties":{"cod_ibge":"270230","name":"Coruripe","uf":"AL"}},
{"type":"Feature","geometry":{"type":"Polygon","coordinates":[[[-37.84232,-9.57951],[-37.66909,-9.65818],[-37.65957,-9.67819],[-37.67242,-9.53585],[-37.65434,-9.40898],[-37.72525,-9.3344],[-37.84232,-9.57951]]]},"properties":{"cod_ibge":"270710","name":"Piranhas","uf":"AL"}},
{"type":"Feature","geometry":{"type":"Polygon","coordinates":[[[-36.85053,-10.1784],[-36.7701,-10.12429],[-36.8748,-10.0538],[-36.94761,-10.07472],[-36.91811,-10.12474],[-36.88241,-10.14748],[-36.85053,-10.1784]]]},"properties":{"cod_ibge":"270820","name":"São Brás","uf":"AL"}},
{"type":"Feature","geometry":{"type":"Polygon","coordinates":[[[-36.68586,-9.63544],[-36.83149,-9.55177],[-36.88717,-9.59906],[-36.90383,-9.62771],[-36.77438,-9.72957],[-36.75439,-9.70729],[-36.68586,-9.63544]]]},"properties":{"cod_ibge":"270235","name":"Craíbas","uf":"AL"}},
{"type":"Feature","geometry":{"type":"Polygon","coordinates":[[[-36.46837,-9.48538],[-36.38699,-9.50948],[-36.33988,-9.5113],[-36.3394,-9.46446],[-36.38937,-9.42535],[-36.46076,-9.45309],[-36.46837,-9.48538]]]},"properties":{"cod_ibge":"270490","name":"Mar Vermelho","uf":"AL"}},
{"type":"Feature","geometry":{"type":"Polygon","coordinates":[[[-36.49169,-10.07154],[-36.525,-10.17704],[-36.64636,-10.25753],[-36.58735,-10.30118],[-36.56213,-10.41577],[-36.48931,-10.42442],[-36.48693,-10.42305],[-36.39318,-10.30982],[-36.37129,-10.23024],[-36.36224,-10.12156],[-36.45314,-10.04016],[-36.45552,-10.03288],[-36.49169,-10.07154]]]},"properties":{"cod_ibge":"270670","name":"Penedo","uf":"AL"}},
{"type":"Feature","geometry":{"type":"Polygon","coordinates":[[[-36.07479,-9.67364],[-36.18092,-9.61225],[-36.19187,-9.59997],[-36.25469,-9.62134],[-36.25326,-9.72957],[-36.24707,-9.7323],[-36.07479,-9.67364]]]},"properties":{"cod_ibge":"270100","name":"Boca da Mata","uf":"AL"}},
{"type":"Feature","geometry":{"type":"Polygon","coordinates":[[[-36.70871,-9.48492],[-36.5331,-9.53085],[-36.48836,-9.5022],[-36.46837,-9.48538],[-36.46076,-9.45309],[-36.48646,-9.40625],[-36.62495,-9.33167],[-36.69966,-9.29302],[-36.70871,-9.48492]]]},"properties":{"cod_ibge":"270630","name":"Palmeira dos Índios","uf":"AL"}},
{"type":"Feature","geometry":{"type":"Polygon","coordinates":[[[-36.84148,-10.01106],[-36.71394,-10.04562],[-36.68681,-9.96558],[-36.75249,-9.88282],[-36.79818,-9.95785],[-36.84148,-10.01106]]]},"properties":{"cod_ibge":"270150","name":"Campo Grande","uf":"AL"}},
{"type":"Feature","geometry":{"type":"Polygon","coordinates":[[[-37.35642,-9.63771],[-37.30312,-9.6359],[-37.25219,-9.58224],[-37.31359,-9.55313],[-37.35642,-9.63771]]]},"properties":{"cod_ibge":"270540","name":"Monteirópolis","uf":"AL"}},
{"type":"Feature","geometry":{"type":"Polygon","coordinates":[[[-35.68645,-9.37078],[-35.725,-9.12522],[-35.88871,-9.13841],[-35.83636,-9.26437],[-35.76974,-9.38761],[-35.76974,-9.38943],[-35.69074,-9.37078],[-35.68645,-9.37078]]]},"properties":{"cod_ibge":"270280","name":"Flexeiras","uf":"AL"}},
{"type":"Feature","geometry":{"type":"Polygon","coordinates":[[[-35.33904,-9.23072],[-35.47563,-9.1907],[-35.38615,-9.28575],[-35.33904,-9.23072]]]},"properties":{"cod_ibge":"270870","name":"São Miguel dos Milagres","uf":"AL"}},
{"type":"Feature","geometry":{"type":"Polygon","coordinates":[[[-36.25326,-9.72957],[-36.25469,-9.62134],[-36.35035,-9.59224],[-36.39413,-9.64817],[-36.38842,-9.65181],[-36.34273,-9.73867],[-36.25326,-9.72957]]]},"properties":{"cod_ibge":"270020","name":"Anadia","uf":"AL"}},
{"type":"Feature","geometry":{"type":"Polygon","coordinates":[[[-37.68242,-9.17888],[-37.54821,-9.00381],[-37.54583,-9.00017],[-37.52774,-8.96106],[-37.69907,-8.93605],[-37.82614,-8.93287],[-37.94654,-9.09475],[-37.83328,-9.22117],[-37.68242,-9.17888]]]},"properties":{"cod_ibge":"270500","name":"Mata Grande","uf":"AL"}},
{"type":"Feature","geometry":{"type":"Polygon","coordinates":[[[-37.83328,-9.22117],[-37.76903,-9.28893],[-37.72525,-9.3344],[-37.65434,-9.40898],[-37.58771,-9.29575],[-37.58819,-9.28665],[-37.68242,-9.17888],[-37.83328,-9.22117]]]},"properties":{"cod_ibge":"270330","name":"Inhapi","uf":"AL"}},
{"type":"Feature","geometry":{"type":"Polygon","coordinates":[[[-36.5745,-9.56587],[-36.60924,-9.65363],[-36.58259,-9.69956],[-36.53595,-9.66318],[-36.5745,-9.56587]]]},"properties":{"cod_ibge":"270200","name":"Coité do Nóia","uf":"AL"}},
{"type":"Feature","geometry":{"type":"Polygon","coordinates":[[[-36.71394,-10.04562],[-36.84148,-10.01106],[-36.8748,-10.0538],[-36.7701,-10.12429],[-36.71394,-10.04562]]]},"properties":{"cod_ibge":"270590","name":"Olho d'Água Grande","uf":"AL"}},
{"type":"Feature","geometry":{"type":"Polygon","coordinates":[[[-36.94618,-9.70956],[-36.9676,-9.69501],[-36.99378,-9.72139],[-37.04041,-9.80733],[-37.13369,-9.91374],[-36.95332,-10.02288],[-36.94856,-10.06972],[-36.94761,-10.07472],[-36.8748,-10.0538],[-36.84148,-10.01106],[-36.79818,-9.95785],[-36.94952,-9.85872],[-36.94618,-9.70956]]]},"properties":{"cod_ibge":"270920","name":"Traipu","uf":"AL"}},
{"type":"Feature","geometry":{"type":"Polygon","coordinates":[[[-37.58819,-9.28665],[-37.41448,-9.28938],[-37.22935,-9.22663],[-37.27837,-9.15251],[-37.43637,-9.18388],[-37.58819,-9.28665]]]},"properties":{"cod_ibge":"270460","name":"Maravilha","uf":"AL"}},
{"type":"Feature","geometry":{"type":"Polygon","coordinates":[[[-38.00032,-9.33622],[-38.01222,-9.15614],[-38.09217,-9.17252],[-38.15642,-9.25028],[-38.00032,-9.33622]]]},"properties":{"cod_ibge":"270642","name":"Pariconha","uf":"AL"}},
{"type":"Feature","geometry":{"type":"Polygon","coordinates":[[[-36.9676,-9.69501],[-36.94618,-9.70956],[-36.94952,-9.85872],[-36.79818,-9.95785],[-36.75249,-9.88282],[-36.74725,-9.87736],[-36.77438,-9.72957],[-36.90383,-9.62771],[-36.9676,-9.69501]]]},"properties":{"cod_ibge":"270290","name":"Girau do Ponciano","uf":"AL"}},
{"type":"Feature","geometry":{"type":"Polygon","coordinates":[[[-35.88729,-9.58906],[-35.79686,-9.53131],[-35.76974,-9.38943],[-35.76974,-9.38761],[-35.87729,-9.41671],[-35.92869,-9.37578],[-35.95962,-9.52767],[-35.88729,-9.58906]]]},"properties":{"cod_ibge":"270770","name":"Rio Largo","uf":"AL"}},
{"type":"Feature","geometry":{"type":"Polygon","coordinates":[[[-37.46588,-9.74822],[-37.29645,-9.83052],[-37.2403,-9.73594],[-37.34975,-9.68865],[-37.30312,-9.6359],[-37.35642,-9.63771],[-37.46873,-9.64999],[-37.61722,-9.49674],[-37.67242,-9.53585],[-37.65957,-9.67819],[-37.46588,-9.74822]]]},"properties":{"cod_ibge":"270640","name":"Pão de Açúcar","uf":"AL"}},
{"type":"Feature","geometry":{"type":"Polygon","coordinates":[[[-36.64827,-10.02606],[-36.49169,-10.07154],[-36.45552,-10.03288],[-36.47884,-9.96013],[-36.55308,-9.83916],[-36.59116,-9.87145],[-36.64589,-9.98514],[-36.64827,-10.02606]]]},"properties":{"cod_ibge":"270880","name":"São Sebastião","uf":"AL"}},
{"type":"Feature","geometry":{"type":"Polygon","coordinates":[[[-37.52774,-8.96106],[-37.54583,-9.00017],[-37.54821,-9.00381],[-37.68242,-9.17888],[-37.58819,-9.28665],[-37.43637,-9.18388],[-37.39544,-9.02791],[-37.51918,-8.96834],[-37.52774,-8.96106]]]},"properties":{"cod_ibge":"270160","name":"Canapi","uf":"AL"}},
{"type":"Feature","geometry":{"type":"Polygon","coordinates":[[[-35.52464,-9.44263],[-35.67646,-9.39852],[-35.55843,-9.48765],[-35.52464,-9.44263]]]},"properties":{"cod_ibge":"270644","name":"Paripueira","uf":"AL"}},
{"type":"Feature","geometry":{"type":"Polygon","coordinates":[[[-35.47563,-9.1907],[-35.5018,-9.0852],[-35.56034,-9.04883],[-35.68122,-9.02427],[-35.57985,-9.15796],[-35.47563,-9.1907]]]},"properties":{"cod_ibge":"270510","name":"Matriz de Camaragibe","uf":"AL"}},
{"type":"Feature","geometry":{"type":"Polygon","coordinates":[[[-36.69062,-9.80415],[-36.59116,-9.87145],[-36.55308,-9.83916],[-36.58259,-9.69956],[-36.60924,-9.65363],[-36.68586,-9.63544],[-36.75439,-9.70729],[-36.69062,-9.80415]]]},"properties":{"cod_ibge":"270030","name":"Arapiraca","uf":"AL"}},
{"type":"Feature","geometry":{"type":"Polygon","coordinates":[[[-37.25219,-9.58224],[-37.30312,-9.6359],[-37.2403,-9.73594],[-37.21888,-9.71002],[-37.15273,-9.61361],[-37.25219,-9.58224]]]},"properties":{"cod_ibge":"270340","name":"Jacaré dos Homens","uf":"AL"}},
{"type":"Feature","geometry":{"type":"Polygon","coordinates":[[[-35.71596,-9.01699],[-35.65219,-8.88239],[-35.7231,-8.90968],[-35.82637,-8.87057],[-35.83446,-8.98425],[-35.71596,-9.01699]]]},"properties":{"cod_ibge":"270210","name":"Colônia Leopoldina","uf":"AL"}},
{"type":"Feature","geometry":{"type":"Polygon","coordinates":[[[-35.95439,-9.03109],[-36.11715,-9.05519],[-36.11096,-9.15705],[-36.20091,-9.2189],[-36.05909,-9.21572],[-35.88871,-9.13841],[-35.86064,-9.05337],[-35.95439,-9.03109]]]},"properties":{"cod_ibge":"270930","name":"União dos Palmares","uf":"AL"}},
{"type":"Feature","geometry":{"type":"Polygon","coordinates":[[[-37.16891,-9.26528],[-37.28884,-9.3485],[-37.44446,-9.35759],[-37.33976,-9.41944],[-37.26695,-9.44945],[-37.12608,-9.43717],[-37.06088,-9.30803],[-37.16891,-9.26528]]]},"properties":{"cod_ibge":"270800","name":"Santana do Ipanema","uf":"AL"}},
{"type":"Feature","geometry":{"type":"Polygon","coordinates":[[[-35.8554,-9.78823],[-35.78973,-9.71138],[-35.79115,-9.68046],[-35.86777,-9.62635],[-35.86825,-9.62544],[-36.03387,-9.70138],[-36.00436,-9.76732],[-35.8554,-9.78823]]]},"properties":{"cod_ibge":"270470","name":"Marechal Deodoro","uf":"AL"}},
{"type":"Feature","geometry":{"type":"Polygon","coordinates":[[[-36.04101,-9.85826],[-35.96296,-9.94103],[-35.9049,-9.85599],[-36.02673,-9.81143],[-36.04101,-9.85826]]]},"properties":{"cod_ibge":"270780","name":"Roteiro","uf":"AL"}},
{"type":"Feature","geometry":{"type":"Polygon","coordinates":[[[-35.38615,-9.28575],[-35.47563,-9.1907],[-35.57985,-9.15796],[-35.61697,-9.13523],[-35.51417,-9.31439],[-35.47229,-9.35805],[-35.38615,-9.28575]]]},"properties":{"cod_ibge":"270650","name":"Passo de Camaragibe","uf":"AL"}},
{"type":"Feature","geometry":{"type":"Polygon","coordinates":[[[-36.53785,-9.53267],[-36.48075,-9.60725],[-36.44696,-9.60588],[-36.48836,-9.5022],[-36.5331,-9.53085],[-36.53785,-9.53267]]]},"properties":{"cod_ibge":"270080","name":"Belém","uf":"AL"}},
{"type":"Feature","geometry":{"type":"Polygon","coordinates":[[[-35.33904,-9.23072],[-35.29526,-9.15569],[-35.31239,-9.14705],[-35.5018,-9.0852],[-35.47563,-9.1907],[-35.33904,-9.23072]]]},"properties":{"cod_ibge":"270740","name":"Porto de Pedras","uf":"AL"}},
{"type":"Feature","geometry":{"type":"Polygon","coordinates":[[[-37.43637,-9.18388],[-37.27837,-9.15251],[-37.39544,-9.02791],[-37.43637,-9.18388]]]},"properties":{"cod_ibge":"270610","name":"Ouro Branco","uf":"AL"}},
{"type":"Feature","geometry":{"type":"Polygon","coordinates":[[[-35.81447,-9.57996],[-35.79686,-9.53131],[-35.88729,-9.58906],[-35.86825,-9.62544],[-35.86777,-9.62635],[-35.81447,-9.57996]]]},"properties":{"cod_ibge":"270890","name":"Satuba","uf":"AL"}},
{"type":"Feature","geometry":{"type":"Polygon","coordinates":[[[-36.1557,-9.4731],[-36.15427,-9.3053],[-36.2109,-9.45309],[-36.20805,-9.45536],[-36.1557,-9.4731]]]},"properties":{"cod_ibge":"270130","name":"Cajueiro","uf":"AL"}},
{"type":"Feature","geometry":{"type":"Polygon","coordinates":[[[-36.75249,-9.88282],[-36.68681,-9.96558],[-36.64589,-9.98514],[-36.59116,-9.87145],[-36.69062,-9.80415],[-36.74725,-9.87736],[-36.75249,-9.88282]]]},"properties":{"cod_ibge":"270260","name":"Feira Grande","uf":"AL"}},
{"type":"Feature","geometry":{"type":"Polygon","coordinates":[[[-35.51417,-9.31439],[-35.61697,-9.13523],[-35.725,-9.12522],[-35.68645,-9.37078],[-35.51417,-9.31439]]]},"properties":{"cod_ibge":"270850","name":"São Luís do Quitunde","uf":"AL"}},
{"type":"Feature","geometry":{"type":"Polygon","coordinates":[[[-35.57937,-8.91104],[-35.49085,-8.94242],[-35.53987,-8.821],[-35.57033,-8.84283],[-35.57937,-8.91104]]]},"properties":{"cod_ibge":"270135","name":"Campestre","uf":"AL"}},
{"type":"Feature","geometry":{"type":"Polygon","coordinates":[[[-35.57937,-8.91104],[-35.56462,-9.01017],[-35.45373,-8.95015],[-35.49085,-8.94242],[-35.57937,-8.91104]]]},"properties":{"cod_ibge":"270390","name":"Jundiá","uf":"AL"}},
{"type":"Feature","geometry":{"type":"Polygon","coordinates":[[[-36.83149,-9.55177],[-36.68586,-9.63544],[-36.60924,-9.65363],[-36.5745,-9.56587],[-36.53785,-9.53267],[-36.5331,-9.53085],[-36.70871,-9.48492],[-36.83435,-9.50902],[-36.8372,-9.53176],[-36.83149,-9.55177]]]},"properties":{"cod_ibge":"270310","name":"Igaci","uf":"AL"}},
{"type":"Feature","geometry":{"type":"Polygon","coordinates":[[[-36.48836,-9.5022],[-36.44696,-9.60588],[-36.39413,-9.64817],[-36.35035,-9.59224],[-36.38699,-9.50948],[-36.46837,-9.48538],[-36.48836,-9.5022]]]},"properties":{"cod_ibge":"270900","name":"Tanque d'Arca","uf":"AL"}},
{"type":"Feature","geometry":{"type":"Polygon","coordinates":[[[-37.31359,-9.55313],[-37.25219,-9.58224],[-37.15273,-9.61361],[-37.14464,-9.60088],[-37.11989,-9.53813],[-37.27028,-9.45718],[-37.37307,-9.52494],[-37.31359,-9.55313]]]},"properties":{"cod_ibge":"270570","name":"Olho d'Água das Flores","uf":"AL"}},
{"type":"Feature","geometry":{"type":"Polygon","coordinates":[[[-37.14464,-9.60088],[-37.04613,-9.61998],[-36.88717,-9.59906],[-36.83149,-9.55177],[-36.8372,-9.53176],[-37.03994,-9.41762],[-37.10466,-9.46037],[-37.11989,-9.53813],[-37.14464,-9.60088]]]},"properties":{"cod_ibge":"270440","name":"Major Isidoro","uf":"AL"}},
{"type":"Feature","geometry":{"type":"Polygon","coordinates":[[[-37.04041,-9.80733],[-37.21888,-9.71002],[-37.2403,-9.73594],[-37.29645,-9.83052],[-37.22602,-9.89783],[-37.13369,-9.91374],[-37.04041,-9.80733]]]},"properties":{"cod_ibge":"270090","name":"Belo Monte","uf":"AL"}},
{"type":"Feature","geometry":{"type":"Polygon","coordinates":[[[-36.39318,-10.30982],[-36.30133,-10.34438],[-36.25945,-10.26389],[-36.37129,-10.23024],[-36.39318,-10.30982]]]},"properties":{"cod_ibge":"270270","name":"Feliz Deserto","uf":"AL"}},
{"type":"Feature","geometry":{"type":"Polygon","coordinates":[[[-36.7206,-10.2648],[-36.7306,-10.16112],[-36.64827,-10.02606],[-36.64589,-9.98514],[-36.68681,-9.96558],[-36.71394,-10.04562],[-36.7701,-10.12429],[-36.85053,-10.1784],[-36.84482,-10.18886],[-36.7206,-10.2648]]]},"properties":{"cod_ibge":"270750","name":"Porto Real do Colégio","uf":"AL"}},
{"type":"Feature","geometry":{"type":"Polygon","coordinates":[[[-37.30312,-9.6359],[-37.34975,-9.68865],[-37.2403,-9.73594],[-37.30312,-9.6359]]]},"properties":{"cod_ibge":"270620","name":"Palestina","uf":"AL"}}
]}