{"type":"FeatureCollection", "features": [
{"type":"Feature","geometry":{"type":"Polygon","coordinates":[[[-35.796864,-5.853366],[-35.832557,-5.908844],[-35.84969,-5.91521],[-35.834937,-5.947042],[-35.778303,-6.015708],[-35.709297,-6.000702],[-35.668368,-5.983876],[-35.687405,-5.919303],[-35.683122,-5.868827],[-35.704062,-5.861551],[-35.742134,-5.872465],[-35.796864,-5.853366]]]},"properties":{"cod_ibge":"241260","name":"São Paulo do Potengi","uf":"RN"}},
{"type":"Feature","geometry":{"type":"Polygon","coordinates":[[[-37.578667,-5.571427],[-37.493004,-5.566879],[-37.442081,-5.586888],[-37.382117,-5.478205],[-37.29455,-5.47775],[-37.302164,-5.463199],[-37.29455,-5.429548],[-37.295977,-5.39135],[-37.4259,-5.311315],[-37.58295,-5.278119],[-37.788067,-5.219003],[-37.786639,-5.22355],[-37.791874,-5.26857],[-37.786639,-5.296764],[-37.812814,-5.316772],[-37.642915,-5.41636],[-37.562486,-5.492302],[-37.578667,-5.571427]]]},"properties":{"cod_ibge":"240430","name":"Governador Dix-Sept Rosado","uf":"RN"}},
{"type":"Feature","geometry":{"type":"Polygon","coordinates":[[[-36.774381,-6.473177],[-36.761056,-6.478634],[-36.742495,-6.393142],[-36.752489,-6.354035],[-36.739164,-6.3363],[-36.753917,-6.320384],[-36.772953,-6.298556],[-36.814357,-6.303559],[-36.837677,-6.269908],[-36.860996,-6.263087],[-36.895262,-6.23944],[-36.909539,-6.243078],[-36.923816,-6.294464],[-36.901925,-6.318565],[-36.902876,-6.341757],[-36.88622,-6.342666],[-36.87337,-6.3795],[-36.860996,-6.388595],[-36.874322,-6.418608],[-36.820068,-6.438616],[-36.802935,-6.463627],[-36.774381,-6.473177]]]},"properties":{"cod_ibge":"240300","name":"Cruzeta","uf":"RN"}},
{"type":"Feature","geometry":{"type":"Polygon","coordinates":[[[-36.262303,-5.68011],[-36.273725,-5.709213],[-36.284671,-5.859277],[-36.263731,-5.833357],[-36.25802,-5.864734],[-36.22423,-5.899749],[-36.212808,-5.873829],[-36.196627,-5.882924],[-36.185681,-5.858368],[-36.159031,-5.850183],[-36.136187,-5.863825],[-36.117626,-5.859277],[-36.112391,-5.841997],[-36.115723,-5.809256],[-36.091927,-5.74923],[-36.062421,-5.655099],[-36.143326,-5.591435],[-36.143801,-5.566879],[-36.17188,-5.544597],[-36.140946,-5.500033],[-36.128572,-5.456832],[-36.159982,-5.434095],[-36.223278,-5.434095],[-36.179495,-5.47775],[-36.262303,-5.68011]]]},"properties":{"cod_ibge":"240670","name":"Lajes","uf":"RN"}},
{"type":"Feature","geometry":{"type":"Polygon","coordinates":[[[-35.468487,-6.2308],[-35.567952,-6.205789],[-35.591747,-6.211701],[-35.621729,-6.205335],[-35.659802,-6.22216],[-35.666465,-6.238986],[-35.66123,-6.267634],[-35.643145,-6.325841],[-35.632199,-6.309016],[-35.609356,-6.315837],[-35.593651,-6.300375],[-35.564144,-6.296283],[-35.553198,-6.28446],[-35.525596,-6.284005],[-35.503228,-6.297647],[-35.468962,-6.273546],[-35.468487,-6.2308]]]},"properties":{"cod_ibge":"241350","name":"Serrinha","uf":"RN"}},
{"type":"Feature","geometry":{"type":"Polygon","coordinates":[[[-35.87063,-6.362675],[-35.907275,-6.352671],[-35.927263,-6.372679],[-35.96486,-6.387686],[-35.965336,-6.470903],[-35.965336,-6.484545],[-35.944396,-6.493185],[-35.870154,-6.488638],[-35.779731,-6.483181],[-35.838744,-6.452713],[-35.854449,-6.434524],[-35.844931,-6.402692],[-35.843503,-6.377681],[-35.86825,-6.384048],[-35.87063,-6.362675]]]},"properties":{"cod_ibge":"240540","name":"Japi","uf":"RN"}},
{"type":"Feature","geometry":{"type":"Polygon","coordinates":[[[-36.469799,-5.598256],[-36.572596,-5.585978],[-36.578782,-5.578703],[-36.58021,-5.528681],[-36.699187,-5.525953],[-36.725362,-5.5737],[-36.743923,-5.591435],[-36.77105,-5.605987],[-36.755821,-5.622358],[-36.751061,-5.646914],[-36.738688,-5.656918],[-36.731549,-5.684202],[-36.702519,-5.701482],[-36.674916,-5.70603],[-36.657783,-5.742409],[-36.630181,-5.75878],[-36.567836,-5.757416],[-36.532619,-5.691023],[-36.524053,-5.699664],[-36.485504,-5.69739],[-36.479317,-5.703756],[-36.4441,-5.698754],[-36.42316,-5.705575],[-36.361768,-5.707849],[-36.356533,-5.717398],[-36.325599,-5.721491],[-36.306086,-5.707394],[-36.273725,-5.709213],[-36.262303,-5.68011],[-36.268966,-5.68011],[-36.307038,-5.650097],[-36.469799,-5.598256]]]},"properties":{"cod_ibge":"240080","name":"Angicos","uf":"RN"}},
{"type":"Feature","geometry":{"type":"Polygon","coordinates":[[[-35.365214,-6.055725],[-35.323334,-6.048449],[-35.298587,-6.072096],[-35.315244,-6.107111],[-35.32619,-6.140762],[-35.352365,-6.182143],[-35.339515,-6.185326],[-35.319051,-6.190783],[-35.285737,-6.205335],[-35.298111,-6.161225],[-35.259562,-6.17032],[-35.237671,-6.164863],[-35.220062,-6.170774],[-35.226249,-6.162589],[-35.228152,-6.07346],[-35.237671,-6.068458],[-35.22958,-6.019801],[-35.229104,-5.991152],[-35.235291,-5.95159],[-35.246237,-5.954318],[-35.25052,-5.962049],[-35.296207,-5.958411],[-35.329997,-5.974327],[-35.341419,-5.972962],[-35.373305,-5.987514],[-35.370449,-6.005249],[-35.382347,-6.02162],[-35.365214,-6.055725]]]},"properties":{"cod_ibge":"241220","name":"São José de Mipibu","uf":"RN"}},
{"type":"Feature","geometry":{"type":"Polygon","coordinates":[[[-37.947021,-6.160315],[-37.937503,-6.108475],[-37.940834,-6.09938],[-37.98081,-6.075734],[-38.008889,-6.096197],[-38.04363,-6.12621],[-38.041727,-6.168956],[-38.046486,-6.180324],[-38.022214,-6.209427],[-37.993184,-6.210337],[-37.947021,-6.160315]]]},"properties":{"cod_ibge":"241355","name":"Serrinha dos Pintos","uf":"RN"}},
{"type":"Feature","geometry":{"type":"Polygon","coordinates":[[[-38.189259,-6.046176],[-38.147854,-6.096197],[-38.103595,-6.113932],[-38.04363,-6.12621],[-38.008889,-6.096197],[-38.02507,-6.083919],[-38.03316,-6.059818],[-38.067902,-6.076188],[-38.055528,-6.043902],[-38.086938,-6.014799],[-38.114541,-5.95932],[-38.144523,-5.972053],[-38.184499,-6.017982],[-38.189259,-6.046176]]]},"properties":{"cod_ibge":"240390","name":"Francisco Dantas","uf":"RN"}},
{"type":"Feature","geometry":{"type":"Polygon","coordinates":[[[-36.936666,-6.577767],[-36.98045,-6.617329],[-36.979974,-6.641431],[-37.003769,-6.709642],[-36.977594,-6.72192],[-36.973311,-6.758299],[-36.959034,-6.78331],[-36.910015,-6.756935],[-36.834821,-6.731014],[-36.842436,-6.674627],[-36.816737,-6.679629],[-36.844815,-6.653709],[-36.870039,-6.648706],[-36.870515,-6.630517],[-36.910015,-6.60778],[-36.936666,-6.577767]]]},"properties":{"cod_ibge":"240850","name":"Ouro Branco","uf":"RN"}},
{"type":"Feature","geometry":{"type":"Polygon","coordinates":[[[-36.406979,-5.080762],[-36.449335,-5.066665],[-36.474558,-5.069394],[-36.507872,-5.062118],[-36.54071,-5.076669],[-36.542137,-5.088493],[-36.611144,-5.078488],[-36.613524,-5.094404],[-36.648265,-5.087583],[-36.688717,-5.088493],[-36.715368,-5.080762],[-36.744399,-5.089402],[-36.750586,-5.100316],[-36.730597,-5.118505],[-36.721555,-5.138514],[-36.72917,-5.174893],[-36.579258,-5.21582],[-36.564505,-5.218094],[-36.542613,-5.243104],[-36.535475,-5.263568],[-36.542137,-5.301311],[-36.515011,-5.301766],[-36.515486,-5.402263],[-36.439817,-5.369977],[-36.410311,-5.334052],[-36.38128,-5.314953],[-36.380328,-5.271298],[-36.367955,-5.250835],[-36.430775,-5.133057],[-36.406979,-5.080762]]]},"properties":{"cod_ibge":"240720","name":"Macau","uf":"RN"}},
{"type":"Feature","geometry":{"type":"Polygon","coordinates":[[[-35.314292,-6.44953],[-35.279075,-6.448621],[-35.275267,-6.480907],[-35.224345,-6.521834],[-35.193887,-6.550483],[-35.168664,-6.558213],[-35.14582,-6.552756],[-35.146296,-6.532748],[-35.172471,-6.446802],[-35.185321,-6.415425],[-35.221966,-6.421336],[-35.231484,-6.403147],[-35.256707,-6.389959],[-35.270984,-6.372224],[-35.309533,-6.403147],[-35.303346,-6.420882],[-35.314292,-6.44953]]]},"properties":{"cod_ibge":"240980","name":"Pedro Velho","uf":"RN"}},
{"type":"Feature","geometry":{"type":"Polygon","coordinates":[[[-38.33679,-6.374043],[-38.340598,-6.42452],[-38.347736,-6.448166],[-38.306808,-6.425884],[-38.28682,-6.391778],[-38.275398,-6.378136],[-38.33679,-6.374043]]]},"properties":{"cod_ibge":"240725","name":"Major Sales","uf":"RN"}},
{"type":"Feature","geometry":{"type":"Polygon","coordinates":[[[-35.721194,-6.173048],[-35.73214,-6.142581],[-35.808286,-6.139852],[-35.820659,-6.129393],[-35.823039,-6.07437],[-35.918221,-6.162589],[-35.87063,-6.362675],[-35.84969,-6.36222],[-35.804002,-6.31902],[-35.782587,-6.247626],[-35.790677,-6.229891],[-35.772117,-6.221251],[-35.76355,-6.201697],[-35.740707,-6.182598],[-35.721194,-6.173048]]]},"properties":{"cod_ibge":"241400","name":"Tangará","uf":"RN"}},
{"type":"Feature","geometry":{"type":"Polygon","coordinates":[[[-37.234585,-6.824691],[-37.192705,-6.826055],[-37.152253,-6.798316],[-37.127505,-6.765575],[-37.075631,-6.754206],[-37.09562,-6.724648],[-37.157488,-6.739655],[-37.204127,-6.761937],[-37.264091,-6.732379],[-37.269326,-6.761937],[-37.257905,-6.779672],[-37.255049,-6.811049],[-37.234585,-6.824691]]]},"properties":{"cod_ibge":"240480","name":"Ipueira","uf":"RN"}},
{"type":"Feature","geometry":{"type":"Polygon","coordinates":[[[-35.272412,-6.370405],[-35.266701,-6.324477],[-35.285737,-6.205335],[-35.319051,-6.190783],[-35.324762,-6.206244],[-35.323334,-6.271272],[-35.333328,-6.314018],[-35.342371,-6.315382],[-35.345702,-6.334481],[-35.339039,-6.381319],[-35.309533,-6.403147],[-35.270984,-6.372224],[-35.272412,-6.370405]]]},"properties":{"cod_ibge":"240350","name":"Espírito Santo","uf":"RN"}},
{"type":"Feature","geometry":{"type":"Polygon","coordinates":[[[-36.897641,-5.603259],[-36.883364,-5.640547],[-36.88384,-5.682383],[-36.893358,-5.711032],[-36.849099,-5.72422],[-36.837677,-5.736497],[-36.78961,-5.755142],[-36.776285,-5.763782],[-36.754869,-5.75878],[-36.744875,-5.739681],[-36.702519,-5.701482],[-36.731549,-5.684202],[-36.738688,-5.656918],[-36.751061,-5.646914],[-36.815785,-5.642821],[-36.897641,-5.603259]]]},"properties":{"cod_ibge":"240485","name":"Itajá","uf":"RN"}},
{"type":"Feature","geometry":{"type":"Polygon","coordinates":[[[-37.140831,-6.180779],[-37.163199,-6.201242],[-37.193181,-6.212156],[-37.22126,-6.233983],[-37.2165,-6.245352],[-37.219356,-6.368132],[-37.26076,-6.404511],[-37.220308,-6.430431],[-37.188422,-6.439071],[-37.140355,-6.448621],[-37.140831,-6.428157],[-37.101806,-6.417698],[-37.072776,-6.392688],[-37.081818,-6.354035],[-37.075155,-6.307651],[-37.080866,-6.290371],[-37.048505,-6.236257],[-37.045649,-6.223979],[-37.062782,-6.218067],[-37.06992,-6.237621],[-37.097047,-6.231255],[-37.116084,-6.207608],[-37.130361,-6.209427],[-37.140831,-6.180779]]]},"properties":{"cod_ibge":"241180","name":"São Fernando","uf":"RN"}},
{"type":"Feature","geometry":{"type":"Polygon","coordinates":[[[-37.776645,-6.245807],[-37.794254,-6.256266],[-37.849935,-6.255811],[-37.881821,-6.273091],[-37.907996,-6.285369],[-37.900858,-6.31811],[-37.862309,-6.332662],[-37.843273,-6.333117],[-37.812339,-6.292645],[-37.764748,-6.29219],[-37.77141,-6.273091],[-37.761892,-6.253082],[-37.776645,-6.245807]]]},"properties":{"cod_ibge":"240590","name":"João Dias","uf":"RN"}},
{"type":"Feature","geometry":{"type":"Polygon","coordinates":[[[-35.224345,-6.521834],[-35.275267,-6.480907],[-35.279075,-6.448621],[-35.314292,-6.44953],[-35.341419,-6.538659],[-35.330949,-6.544116],[-35.274792,-6.543661],[-35.22958,-6.530474],[-35.224345,-6.521834]]]},"properties":{"cod_ibge":"240770","name":"Montanhas","uf":"RN"}},
{"type":"Feature","geometry":{"type":"Polygon","coordinates":[[[-35.044452,-6.284005],[-35.063488,-6.297647],[-35.055397,-6.32675],[-35.084428,-6.339938],[-35.117266,-6.334026],[-35.11679,-6.281731],[-35.145344,-6.299011],[-35.167236,-6.322203],[-35.167236,-6.354035],[-35.198646,-6.359492],[-35.236243,-6.349487],[-35.272412,-6.370405],[-35.270984,-6.372224],[-35.256707,-6.389959],[-35.231484,-6.403147],[-35.221966,-6.421336],[-35.185321,-6.415425],[-35.172471,-6.446802],[-35.146296,-6.532748],[-35.14582,-6.552756],[-35.123452,-6.530019],[-35.112507,-6.505009],[-35.110127,-6.445892],[-35.12726,-6.411787],[-35.096326,-6.391323],[-35.063012,-6.361765],[-35.067771,-6.346304],[-35.032078,-6.310834],[-35.033506,-6.286278],[-35.044452,-6.284005]]]},"properties":{"cod_ibge":"240220","name":"Canguaretama","uf":"RN"}},
{"type":"Feature","geometry":{"type":"Polygon","coordinates":[[[-38.272067,-6.222615],[-38.249223,-6.249445],[-38.194018,-6.220796],[-38.169746,-6.193966],[-38.173554,-6.169865],[-38.207343,-6.155768],[-38.249223,-6.163953],[-38.277778,-6.181233],[-38.265404,-6.209427],[-38.272067,-6.222615]]]},"properties":{"cod_ibge":"241050","name":"Rafael Fernandes","uf":"RN"}},
{"type":"Feature","geometry":{"type":"Polygon","coordinates":[[[-37.797585,-6.217158],[-37.798537,-6.189419],[-37.810911,-6.168046],[-37.800917,-6.153494],[-37.837562,-6.120298],[-37.863737,-6.103928],[-37.858502,-6.123481],[-37.879918,-6.125755],[-37.870399,-6.146218],[-37.889436,-6.166682],[-37.797585,-6.217158]]]},"properties":{"cod_ibge":"240400","name":"Frutuoso Gomes","uf":"RN"}},
{"type":"Feature","geometry":{"type":"Polygon","coordinates":[[[-35.659802,-6.22216],[-35.663133,-6.198059],[-35.689308,-6.195785],[-35.740707,-6.182598],[-35.76355,-6.201697],[-35.772117,-6.221251],[-35.790677,-6.229891],[-35.782587,-6.247626],[-35.804002,-6.31902],[-35.84969,-6.36222],[-35.87063,-6.362675],[-35.86825,-6.384048],[-35.843503,-6.377681],[-35.773544,-6.407694],[-35.764502,-6.418608],[-35.683122,-6.358127],[-35.669796,-6.348578],[-35.671224,-6.314472],[-35.643145,-6.325841],[-35.66123,-6.267634],[-35.666465,-6.238986],[-35.659802,-6.22216]]]},"properties":{"cod_ibge":"241230","name":"São José do Campestre","uf":"RN"}},
{"type":"Feature","geometry":{"type":"Polygon","coordinates":[[[-38.014124,-5.854275],[-38.006985,-5.840633],[-37.975099,-5.816077],[-37.9099,-5.784245],[-37.901809,-5.749685],[-37.881345,-5.696935],[-38.058384,-5.754687],[-38.014124,-5.854275]]]},"properties":{"cod_ibge":"241360","name":"Severiano Melo","uf":"RN"}},
{"type":"Feature","geometry":{"type":"Polygon","coordinates":[[[-35.349985,-6.224889],[-35.339515,-6.185326],[-35.352365,-6.182143],[-35.381395,-6.158496],[-35.402811,-6.210337],[-35.436601,-6.253537],[-35.420896,-6.273091],[-35.405191,-6.263541],[-35.401383,-6.245352],[-35.358076,-6.249899],[-35.349985,-6.224889]]]},"properties":{"cod_ibge":"240180","name":"Brejinho","uf":"RN"}},
{"type":"Feature","geometry":{"type":"Polygon","coordinates":[[[-38.014124,-5.854275],[-38.058384,-5.754687],[-38.073613,-5.777879],[-38.100264,-5.804709],[-38.118824,-5.832902],[-38.122631,-5.88156],[-38.159276,-5.92476],[-38.163559,-5.938857],[-38.137384,-5.936583],[-38.121679,-5.945678],[-38.102167,-5.923396],[-38.060287,-5.903842],[-38.00413,-5.857004],[-38.014124,-5.854275]]]},"properties":{"cod_ibge":"241100","name":"Rodolfo Fernandes","uf":"RN"}},
{"type":"Feature","geometry":{"type":"Polygon","coordinates":[[[-35.924883,-6.010706],[-35.822563,-6.073005],[-35.798767,-6.042538],[-35.778303,-6.015708],[-35.834937,-5.947042],[-35.924883,-6.010706]]]},"properties":{"cod_ibge":"240640","name":"Lagoa de Velhos","uf":"RN"}},
{"type":"Feature","geometry":{"type":"Polygon","coordinates":[[[-37.921322,-5.959775],[-37.97034,-5.956592],[-37.982714,-5.968415],[-37.977003,-5.994335],[-37.954635,-6.02935],[-37.933695,-6.00434],[-37.921322,-5.959775]]]},"properties":{"cod_ibge":"241490","name":"Viçosa","uf":"RN"}},
{"type":"Feature","geometry":{"type":"Polygon","coordinates":[[[-36.223278,-5.434095],[-36.159982,-5.434095],[-36.128572,-5.456832],[-36.063373,-5.405447],[-36.02768,-5.445464],[-35.992462,-5.463653],[-35.999601,-5.415906],[-36.012451,-5.39908],[-36.036722,-5.301311],[-36.050999,-5.298583],[-36.103349,-5.286305],[-36.151892,-5.257201],[-36.275628,-5.289488],[-36.223278,-5.434095]]]},"properties":{"cod_ibge":"240510","name":"Jandaíra","uf":"RN"}},
{"type":"Feature","geometry":{"type":"Polygon","coordinates":[[[-35.097753,-6.139852],[-35.100133,-6.110749],[-35.096326,-6.057089],[-35.109651,-6.042992],[-35.10632,-6.012525],[-35.121073,-5.981603],[-35.129639,-5.982057],[-35.182941,-5.937947],[-35.211972,-5.934764],[-35.246237,-5.954318],[-35.235291,-5.95159],[-35.229104,-5.991152],[-35.22958,-6.019801],[-35.237671,-6.068458],[-35.228152,-6.07346],[-35.226249,-6.162589],[-35.220062,-6.170774],[-35.175327,-6.164863],[-35.157242,-6.148037],[-35.162477,-6.136214],[-35.111079,-6.134395],[-35.097753,-6.139852]]]},"properties":{"cod_ibge":"240820","name":"Nísia Floresta","uf":"RN"}},
{"type":"Feature","geometry":{"type":"Polygon","coordinates":[[[-37.963202,-6.256266],[-37.984142,-6.310834],[-38.031257,-6.321293],[-38.05648,-6.311289],[-38.089318,-6.317201],[-38.099788,-6.330388],[-38.103595,-6.356308],[-38.125487,-6.367222],[-38.10645,-6.378591],[-38.110258,-6.402237],[-38.091697,-6.415425],[-38.097884,-6.429522],[-38.089794,-6.455897],[-38.070757,-6.464082],[-38.0541,-6.453623],[-38.036968,-6.457261],[-38.026974,-6.474541],[-38.012696,-6.468175],[-38.019835,-6.446802],[-38.008413,-6.43225],[-37.971292,-6.422246],[-37.955111,-6.408149],[-37.942262,-6.424065],[-37.919418,-6.411787],[-37.890388,-6.399964],[-37.88896,-6.370405],[-37.858978,-6.374498],[-37.83423,-6.341757],[-37.843273,-6.333117],[-37.862309,-6.332662],[-37.900858,-6.31811],[-37.907996,-6.285369],[-37.881821,-6.273091],[-37.963202,-6.256266]]]},"properties":{"cod_ibge":"240050","name":"Alexandria","uf":"RN"}},
{"type":"Feature","geometry":{"type":"Polygon","coordinates":[[[-36.151892,-5.257201],[-36.103349,-5.286305],[-36.050999,-5.298583],[-36.001981,-5.256292],[-36.060993,-5.228553],[-36.042433,-5.108501],[-36.043385,-5.064391],[-36.037674,-5.051659],[-36.054806,-5.063027],[-36.08003,-5.06621],[-36.099542,-5.077124],[-36.151892,-5.257201]]]},"properties":{"cod_ibge":"240185","name":"Caiçara do Norte","uf":"RN"}},
{"type":"Feature","geometry":{"type":"Polygon","coordinates":[[[-37.220784,-4.881586],[-37.25267,-4.831564],[-37.356894,-4.857939],[-37.446365,-4.881131],[-37.427328,-4.911599],[-37.364984,-4.907506],[-37.345472,-4.93479],[-37.307875,-4.945704],[-37.270278,-4.945704],[-37.26885,-4.911599],[-37.220784,-4.881586]]]},"properties":{"cod_ibge":"241105","name":"Tibau","uf":"RN"}},
{"type":"Feature","geometry":{"type":"Polygon","coordinates":[[[-38.252554,-6.418153],[-38.251127,-6.434069],[-38.229235,-6.483181],[-38.20068,-6.488183],[-38.191638,-6.498642],[-38.144999,-6.494095],[-38.133101,-6.520015],[-38.120252,-6.522289],[-38.096932,-6.508192],[-38.095504,-6.49364],[-38.070757,-6.464082],[-38.089794,-6.455897],[-38.097884,-6.429522],[-38.091697,-6.415425],[-38.110258,-6.402237],[-38.10645,-6.378591],[-38.125487,-6.367222],[-38.164511,-6.386776],[-38.188307,-6.361765],[-38.20306,-6.380864],[-38.238277,-6.385412],[-38.252554,-6.418153]]]},"properties":{"cod_ibge":"241410","name":"Tenente Ananias","uf":"RN"}},
{"type":"Feature","geometry":{"type":"Polygon","coordinates":[[[-37.950828,-5.86337],[-37.917039,-5.852456],[-37.913231,-5.903387],[-37.872303,-5.878831],[-37.879918,-5.754232],[-37.856122,-5.747411],[-37.881345,-5.696935],[-37.901809,-5.749685],[-37.9099,-5.784245],[-37.975099,-5.816077],[-38.006985,-5.840633],[-38.014124,-5.854275],[-38.00413,-5.857004],[-37.950828,-5.86337]]]},"properties":{"cod_ibge":"240490","name":"Itaú","uf":"RN"}},
{"type":"Feature","geometry":{"type":"Polygon","coordinates":[[[-35.360931,-5.728312],[-35.340467,-5.737862],[-35.31334,-5.737862],[-35.265749,-5.704211],[-35.237671,-5.714215],[-35.203405,-5.743319],[-35.191983,-5.700573],[-35.217682,-5.671015],[-35.217207,-5.631452],[-35.227201,-5.612353],[-35.284786,-5.624177],[-35.360931,-5.728312]]]},"properties":{"cod_ibge":"240360","name":"Extremoz","uf":"RN"}},
{"type":"Feature","geometry":{"type":"Polygon","coordinates":[[[-36.703471,-6.220796],[-36.713465,-6.205335],[-36.700615,-6.145309],[-36.683006,-6.127574],[-36.6535,-6.111658],[-36.668729,-6.112113],[-36.719651,-6.095288],[-36.732025,-6.106656],[-36.729646,-6.149856],[-36.753917,-6.163499],[-36.762959,-6.180779],[-36.785327,-6.196695],[-36.703471,-6.220796]]]},"properties":{"cod_ibge":"241415","name":"Tenente Laurentino Cruz","uf":"RN"}},
{"type":"Feature","geometry":{"type":"Polygon","coordinates":[[[-35.791153,-5.077579],[-35.885859,-5.066665],[-35.908226,-5.059389],[-35.95201,-5.237193],[-35.832081,-5.209908],[-35.791153,-5.077579]]]},"properties":{"cod_ibge":"240950","name":"Pedra Grande","uf":"RN"}},
{"type":"Feature","geometry":{"type":"Polygon","coordinates":[[[-37.442081,-5.586888],[-37.493004,-5.566879],[-37.578667,-5.571427],[-37.676229,-5.634636],[-37.691458,-5.65328],[-37.707639,-5.721491],[-37.720964,-5.74059],[-37.733814,-5.912027],[-37.712874,-5.918848],[-37.648626,-5.941131],[-37.592945,-5.982057],[-37.554396,-5.958865],[-37.533932,-5.922941],[-37.502998,-5.906116],[-37.493004,-5.893838],[-37.447316,-5.902932],[-37.467305,-5.752413],[-37.442081,-5.586888]]]},"properties":{"cod_ibge":"240230","name":"Caraúbas","uf":"RN"}},
{"type":"Feature","geometry":{"type":"Polygon","coordinates":[[[-37.777121,-6.068003],[-37.757133,-6.088012],[-37.74238,-6.121663],[-37.71097,-6.130757],[-37.68765,-6.109385],[-37.672421,-6.047995],[-37.700976,-6.050723],[-37.72144,-6.041173],[-37.740952,-6.01298],[-37.772362,-6.002066],[-37.782832,-6.040719],[-37.777121,-6.068003]]]},"properties":{"cod_ibge":"241060","name":"Rafael Godeiro","uf":"RN"}},
{"type":"Feature","geometry":{"type":"Polygon","coordinates":[[[-37.733814,-5.912027],[-37.720964,-5.74059],[-37.707639,-5.721491],[-37.691458,-5.65328],[-37.676229,-5.634636],[-37.761416,-5.577793],[-37.642915,-5.41636],[-37.812814,-5.316772],[-37.847556,-5.339964],[-37.863737,-5.374069],[-37.860405,-5.406811],[-37.889436,-5.452285],[-37.892291,-5.480933],[-37.902285,-5.500487],[-37.934647,-5.505489],[-37.950828,-5.536412],[-37.989853,-5.555966],[-37.998419,-5.585524],[-38.014124,-5.594619],[-38.027925,-5.622812],[-38.036492,-5.639638],[-38.053149,-5.646004],[-38.082655,-5.672379],[-38.089794,-5.71467],[-38.046962,-5.73286],[-38.058384,-5.754687],[-37.881345,-5.696935],[-37.856122,-5.747411],[-37.879918,-5.754232],[-37.872303,-5.878831],[-37.913231,-5.903387],[-37.89705,-5.939766],[-37.825664,-5.912482],[-37.764272,-5.895657],[-37.733814,-5.912027]]]},"properties":{"cod_ibge":"240100","name":"Apodi","uf":"RN"}},
{"type":"Feature","geometry":{"type":"Polygon","coordinates":[[[-38.189259,-6.046176],[-38.184499,-6.017982],[-38.144523,-5.972053],[-38.114541,-5.95932],[-38.121679,-5.945678],[-38.137384,-5.936583],[-38.163559,-5.938857],[-38.164987,-5.946588],[-38.202108,-5.962049],[-38.252079,-6.010251],[-38.215434,-6.023893],[-38.189259,-6.046176]]]},"properties":{"cod_ibge":"241190","name":"São Francisco do Oeste","uf":"RN"}},
{"type":"Feature","geometry":{"type":"Polygon","coordinates":[[[-36.031963,-6.069367],[-35.986276,-6.098471],[-35.981041,-6.124391],[-35.987227,-6.143035],[-35.966763,-6.171684],[-35.918221,-6.162589],[-35.823039,-6.07437],[-35.822563,-6.073005],[-35.924883,-6.010706],[-36.031963,-6.069367]]]},"properties":{"cod_ibge":"241370","name":"Sítio Novo","uf":"RN"}},
{"type":"Feature","geometry":{"type":"Polygon","coordinates":[[[-35.352365,-6.182143],[-35.32619,-6.140762],[-35.315244,-6.107111],[-35.298587,-6.072096],[-35.323334,-6.048449],[-35.365214,-6.055725],[-35.429462,-6.050268],[-35.432317,-6.065275],[-35.456589,-6.078462],[-35.512746,-6.051178],[-35.545584,-6.055725],[-35.531782,-6.09165],[-35.500372,-6.112113],[-35.465631,-6.121663],[-35.443739,-6.140762],[-35.413281,-6.132576],[-35.381395,-6.158496],[-35.352365,-6.182143]]]},"properties":{"cod_ibge":"240780","name":"Monte Alegre","uf":"RN"}},
{"type":"Feature","geometry":{"type":"Polygon","coordinates":[[[-36.099542,-5.077124],[-36.129048,-5.092585],[-36.160458,-5.096678],[-36.242315,-5.096223],[-36.289906,-5.087583],[-36.308466,-5.102135],[-36.288002,-5.124417],[-36.286574,-5.156704],[-36.276104,-5.20718],[-36.275628,-5.289488],[-36.151892,-5.257201],[-36.099542,-5.077124]]]},"properties":{"cod_ibge":"240410","name":"Galinhos","uf":"RN"}},
{"type":"Feature","geometry":{"type":"Polygon","coordinates":[[[-36.411738,-6.104382],[-36.426967,-6.092559],[-36.4441,-6.041628],[-36.521673,-6.04663],[-36.547372,-6.05618],[-36.638747,-6.088921],[-36.62209,-6.131667],[-36.605909,-6.124391],[-36.560222,-6.134395],[-36.550704,-6.141216],[-36.5093,-6.123027],[-36.492167,-6.136669],[-36.459805,-6.115296],[-36.428871,-6.112568],[-36.411738,-6.104382]]]},"properties":{"cod_ibge":"240650","name":"Lagoa Nova","uf":"RN"}},
{"type":"Feature","geometry":{"type":"Polygon","coordinates":[[[-35.664561,-6.449985],[-35.669796,-6.415425],[-35.681218,-6.390869],[-35.683122,-6.358127],[-35.764502,-6.418608],[-35.773068,-6.450894],[-35.773544,-6.482726],[-35.726429,-6.469539],[-35.707393,-6.469539],[-35.68217,-6.447711],[-35.664561,-6.449985]]]},"properties":{"cod_ibge":"241330","name":"Serra de São Bento","uf":"RN"}},
{"type":"Feature","geometry":{"type":"Polygon","coordinates":[[[-37.359273,-6.006158],[-37.37593,-5.987969],[-37.374978,-5.960684],[-37.400677,-5.962503],[-37.43637,-5.98524],[-37.447316,-5.902932],[-37.493004,-5.893838],[-37.502998,-5.906116],[-37.533932,-5.922941],[-37.554396,-5.958865],[-37.592945,-5.982057],[-37.557251,-6.016163],[-37.514895,-6.064365],[-37.456359,-6.096652],[-37.425425,-6.07437],[-37.359273,-6.006158]]]},"properties":{"cod_ibge":"240520","name":"Janduís","uf":"RN"}},
{"type":"Feature","geometry":{"type":"Polygon","coordinates":[[[-37.800917,-6.153494],[-37.810911,-6.168046],[-37.798537,-6.189419],[-37.797585,-6.217158],[-37.776645,-6.245807],[-37.775694,-6.231255],[-37.756181,-6.217158],[-37.74238,-6.188964],[-37.709066,-6.177141],[-37.68765,-6.109385],[-37.71097,-6.130757],[-37.74238,-6.121663],[-37.757133,-6.088012],[-37.777121,-6.068003],[-37.789019,-6.09074],[-37.809959,-6.113932],[-37.800917,-6.153494]]]},"properties":{"cod_ibge":"240060","name":"Almino Afonso","uf":"RN"}},
{"type":"Feature","geometry":{"type":"Polygon","coordinates":[[[-36.930003,-5.131238],[-36.902876,-5.149883],[-36.827207,-5.170346],[-36.797225,-5.174439],[-36.748682,-5.152156],[-36.72917,-5.174893],[-36.721555,-5.138514],[-36.730597,-5.118505],[-36.750586,-5.100316],[-36.744399,-5.089402],[-36.715368,-5.080762],[-36.76867,-5.04893],[-36.78961,-5.043473],[-36.811978,-5.026193],[-36.855761,-4.972534],[-36.899069,-4.977081],[-36.908111,-4.989814],[-36.908587,-5.080762],[-36.952371,-5.081217],[-36.975215,-5.103954],[-36.975215,-5.130783],[-36.930003,-5.131238]]]},"properties":{"cod_ibge":"241025","name":"Porto do Mangue","uf":"RN"}},
{"type":"Feature","geometry":{"type":"Polygon","coordinates":[[[-35.471818,-5.834721],[-35.431842,-5.84518],[-35.379016,-5.843361],[-35.308581,-5.83654],[-35.28193,-5.829265],[-35.279551,-5.818805],[-35.252424,-5.798342],[-35.251472,-5.776515],[-35.286689,-5.763327],[-35.291448,-5.732405],[-35.265749,-5.704211],[-35.31334,-5.737862],[-35.340467,-5.737862],[-35.360931,-5.728312],[-35.413281,-5.737407],[-35.447071,-5.733314],[-35.471818,-5.834721]]]},"properties":{"cod_ibge":"241200","name":"São Gonçalo do Amarante","uf":"RN"}},
{"type":"Feature","geometry":{"type":"Polygon","coordinates":[[[-36.908111,-4.989814],[-36.966172,-4.985721],[-36.965696,-5.021646],[-37.011384,-5.022101],[-37.011384,-5.042564],[-37.028516,-5.059844],[-37.050884,-5.059844],[-37.050884,-5.096678],[-37.1118,-5.096678],[-37.111325,-5.124872],[-37.105614,-5.132602],[-37.111325,-5.166708],[-37.156536,-5.166708],[-37.15606,-5.294035],[-37.126078,-5.29358],[-37.05136,-5.294035],[-36.9281,-5.29358],[-36.930003,-5.131238],[-36.975215,-5.130783],[-36.975215,-5.103954],[-36.952371,-5.081217],[-36.908587,-5.080762],[-36.908111,-4.989814]]]},"properties":{"cod_ibge":"241335","name":"Serra do Mel","uf":"RN"}},
{"type":"Feature","geometry":{"type":"Polygon","coordinates":[[[-35.925359,-5.800161],[-35.938685,-5.79334],[-35.923931,-5.763782],[-35.939636,-5.73286],[-35.934401,-5.71467],[-35.970571,-5.714215],[-36.023872,-5.697845],[-36.062421,-5.655099],[-36.091927,-5.74923],[-36.115723,-5.809256],[-36.112391,-5.841997],[-36.099542,-5.829719],[-36.065276,-5.849728],[-36.013878,-5.835176],[-36.001029,-5.816987],[-35.981041,-5.803799],[-35.925359,-5.800161]]]},"properties":{"cod_ibge":"240190","name":"Caiçara do Rio do Vento","uf":"RN"}},
{"type":"Feature","geometry":{"type":"Polygon","coordinates":[[[-37.220784,-5.717398],[-37.203651,-5.725129],[-37.177,-5.723765],[-37.142735,-5.687386],[-37.104662,-5.656008],[-37.172717,-5.490483],[-37.29455,-5.47775],[-37.382117,-5.478205],[-37.442081,-5.586888],[-37.467305,-5.752413],[-37.434943,-5.745138],[-37.371647,-5.722401],[-37.338333,-5.720127],[-37.31311,-5.710123],[-37.251242,-5.717398],[-37.244103,-5.707849],[-37.220784,-5.717398]]]},"properties":{"cod_ibge":"241460","name":"Upanema","uf":"RN"}},
{"type":"Feature","geometry":{"type":"Polygon","coordinates":[[[-35.442312,-6.486819],[-35.40757,-6.489547],[-35.364738,-6.51183],[-35.341419,-6.538659],[-35.314292,-6.44953],[-35.303346,-6.420882],[-35.309533,-6.403147],[-35.337136,-6.395871],[-35.349985,-6.408604],[-35.372829,-6.40542],[-35.386154,-6.390414],[-35.408998,-6.381319],[-35.447071,-6.405875],[-35.517505,-6.40633],[-35.544156,-6.417244],[-35.558909,-6.430431],[-35.580325,-6.470448],[-35.581277,-6.484091],[-35.56462,-6.491821],[-35.547963,-6.482272],[-35.51227,-6.476815],[-35.48324,-6.486364],[-35.442312,-6.486819]]]},"properties":{"cod_ibge":"240830","name":"Nova Cruz","uf":"RN"}},
{"type":"Feature","geometry":{"type":"Polygon","coordinates":[[[-38.448153,-6.403147],[-38.427213,-6.413606],[-38.401514,-6.409513],[-38.384381,-6.422246],[-38.372484,-6.456351],[-38.343929,-6.456806],[-38.347736,-6.448166],[-38.340598,-6.42452],[-38.33679,-6.374043],[-38.331079,-6.328569],[-38.394375,-6.34494],[-38.396279,-6.318565],[-38.408653,-6.293554],[-38.457671,-6.329934],[-38.458623,-6.330388],[-38.488605,-6.361765],[-38.48337,-6.389505],[-38.451009,-6.392688],[-38.448153,-6.403147]]]},"properties":{"cod_ibge":"240700","name":"Luís Gomes","uf":"RN"}},
{"type":"Feature","geometry":{"type":"Polygon","coordinates":[[[-36.838629,-5.403628],[-36.856237,-5.400899],[-36.928575,-5.353606],[-37.029468,-5.325867],[-37.05136,-5.294035],[-37.126078,-5.29358],[-37.139403,-5.335417],[-37.142735,-5.374069],[-37.172717,-5.490483],[-37.104662,-5.656008],[-37.054691,-5.745592],[-37.021378,-5.755142],[-36.994251,-5.771512],[-37.035655,-5.891109],[-37.015191,-5.870646],[-37.00948,-5.836995],[-36.977594,-5.813803],[-36.979974,-5.785155],[-36.96522,-5.773331],[-36.961413,-5.752413],[-36.893358,-5.711032],[-36.88384,-5.682383],[-36.883364,-5.640547],[-36.897641,-5.603259],[-36.882412,-5.573246],[-36.900021,-5.550509],[-36.903828,-5.529591],[-36.88622,-5.493211],[-36.869563,-5.478205],[-36.873846,-5.457742],[-36.86052,-5.442281],[-36.838629,-5.403628]]]},"properties":{"cod_ibge":"240020","name":"Açu","uf":"RN"}},
{"type":"Feature","geometry":{"type":"Polygon","coordinates":[[[-36.128572,-5.456832],[-36.140946,-5.500033],[-36.17188,-5.544597],[-36.143801,-5.566879],[-36.143326,-5.591435],[-36.062421,-5.655099],[-35.992462,-5.463653],[-36.02768,-5.445464],[-36.063373,-5.405447],[-36.128572,-5.456832]]]},"properties":{"cod_ibge":"240960","name":"Pedra Preta","uf":"RN"}},
{"type":"Feature","geometry":{"type":"Polygon","coordinates":[[[-36.013878,-5.835176],[-36.065276,-5.849728],[-36.099542,-5.829719],[-36.112391,-5.841997],[-36.117626,-5.859277],[-36.136187,-5.863825],[-36.159031,-5.850183],[-36.185681,-5.858368],[-36.196627,-5.882924],[-36.212808,-5.873829],[-36.22423,-5.899749],[-36.252785,-5.982057],[-36.281339,-6.043902],[-36.302279,-6.115296],[-36.295616,-6.122117],[-36.257068,-6.158042],[-36.226134,-6.163953],[-36.225182,-6.14349],[-36.173784,-6.121663],[-36.162838,-6.106656],[-36.120958,-6.088921],[-36.107156,-6.098471],[-36.080506,-6.102109],[-36.031963,-6.069367],[-35.976757,-6.014344],[-35.977233,-5.979784],[-35.96248,-5.963868],[-35.966763,-5.901113],[-36.013878,-5.835176]]]},"properties":{"cod_ibge":"241290","name":"São Tomé","uf":"RN"}},
{"type":"Feature","geometry":{"type":"Polygon","coordinates":[[[-35.924883,-6.010706],[-35.834937,-5.947042],[-35.84969,-5.91521],[-35.851117,-5.913391],[-35.886811,-5.909299],[-35.904419,-5.896566],[-35.919172,-5.908389],[-35.966763,-5.901113],[-35.96248,-5.963868],[-35.977233,-5.979784],[-35.976757,-6.014344],[-36.031963,-6.069367],[-35.924883,-6.010706]]]},"properties":{"cod_ibge":"240150","name":"Barcelona","uf":"RN"}},
{"type":"Feature","geometry":{"type":"Polygon","coordinates":[[[-35.447071,-5.733314],[-35.458017,-5.717853],[-35.499897,-5.716944],[-35.547487,-5.709668],[-35.551771,-5.703301],[-35.557482,-5.721036],[-35.631723,-5.714215],[-35.632199,-5.714215],[-35.656471,-5.717853],[-35.638862,-5.790157],[-35.635531,-5.803344],[-35.594602,-5.867463],[-35.528927,-5.882014],[-35.488951,-5.831083],[-35.471818,-5.834721],[-35.447071,-5.733314]]]},"properties":{"cod_ibge":"240460","name":"Ielmo Marinho","uf":"RN"}},
{"type":"Feature","geometry":{"type":"Polygon","coordinates":[[[-38.339646,-6.077553],[-38.349164,-6.123481],[-38.364869,-6.173048],[-38.35773,-6.201242],[-38.311091,-6.176231],[-38.288724,-6.188055],[-38.277778,-6.181233],[-38.249223,-6.163953],[-38.249699,-6.135759],[-38.266832,-6.112113],[-38.261121,-6.074824],[-38.274922,-6.065729],[-38.306332,-6.087102],[-38.339646,-6.077553]]]},"properties":{"cod_ibge":"240330","name":"Encanto","uf":"RN"}},
{"type":"Feature","geometry":{"type":"Polygon","coordinates":[[[-35.95201,-5.237193],[-35.908226,-5.059389],[-35.948203,-5.044383],[-35.981041,-5.041654],[-36.037674,-5.051659],[-36.043385,-5.064391],[-36.042433,-5.108501],[-36.060993,-5.228553],[-36.001981,-5.256292],[-35.95201,-5.237193]]]},"properties":{"cod_ibge":"241160","name":"São Bento do Norte","uf":"RN"}},
{"type":"Feature","geometry":{"type":"Polygon","coordinates":[[[-36.722031,-6.646888],[-36.69776,-6.619603],[-36.669205,-6.610508],[-36.679675,-6.579131],[-36.703471,-6.538205],[-36.761056,-6.515468],[-36.791038,-6.520924],[-36.808646,-6.533657],[-36.836249,-6.538659],[-36.880985,-6.527746],[-36.905256,-6.517287],[-36.934286,-6.514558],[-36.951419,-6.522289],[-36.950943,-6.540478],[-36.936666,-6.577767],[-36.910015,-6.60778],[-36.870515,-6.630517],[-36.870039,-6.648706],[-36.844815,-6.653709],[-36.816737,-6.679629],[-36.764863,-6.66917],[-36.744399,-6.65189],[-36.722031,-6.646888]]]},"properties":{"cod_ibge":"240570","name":"Jardim do Seridó","uf":"RN"}},
{"type":"Feature","geometry":{"type":"Polygon","coordinates":[[[-35.832081,-5.305858],[-35.840172,-5.234464],[-35.832081,-5.209908],[-35.95201,-5.237193],[-36.001981,-5.256292],[-36.050999,-5.298583],[-36.036722,-5.301311],[-36.012451,-5.39908],[-35.989607,-5.34724],[-35.97533,-5.332233],[-35.832081,-5.305858]]]},"properties":{"cod_ibge":"240880","name":"Parazinho","uf":"RN"}},
{"type":"Feature","geometry":{"type":"Polygon","coordinates":[[[-35.5018,-5.492302],[-35.472294,-5.485936],[-35.454209,-5.47002],[-35.418516,-5.457742],[-35.382347,-5.46911],[-35.3576,-5.47002],[-35.331425,-5.488664],[-35.297635,-5.486845],[-35.279551,-5.496395],[-35.269557,-5.517767],[-35.255755,-5.516858],[-35.260514,-5.480479],[-35.288117,-5.46047],[-35.292876,-5.432731],[-35.310485,-5.409084],[-35.309533,-5.391804],[-35.32619,-5.381345],[-35.361883,-5.413632],[-35.375684,-5.419544],[-35.389962,-5.451375],[-35.401383,-5.437278],[-35.45992,-5.446373],[-35.481812,-5.453194],[-35.5018,-5.492302]]]},"properties":{"cod_ibge":"240750","name":"Maxaranguape","uf":"RN"}},
{"type":"Feature","geometry":{"type":"Polygon","coordinates":[[[-35.721194,-6.173048],[-35.68217,-6.168046],[-35.653615,-6.177141],[-35.638386,-6.137578],[-35.588892,-6.096652],[-35.690736,-6.071641],[-35.781635,-6.040719],[-35.798767,-6.042538],[-35.822563,-6.073005],[-35.823039,-6.07437],[-35.820659,-6.129393],[-35.808286,-6.139852],[-35.73214,-6.142581],[-35.721194,-6.173048]]]},"properties":{"cod_ibge":"241030","name":"Serra Caiada","uf":"RN"}},
{"type":"Feature","geometry":{"type":"Polygon","coordinates":[[[-37.218404,-6.619603],[-37.17938,-6.613691],[-37.150349,-6.625969],[-37.134644,-6.650071],[-37.109421,-6.656892],[-37.102758,-6.684631],[-37.065161,-6.707368],[-37.059926,-6.720555],[-37.035179,-6.734198],[-37.003769,-6.709642],[-36.979974,-6.641431],[-36.98045,-6.617329],[-36.936666,-6.577767],[-36.950943,-6.540478],[-36.951419,-6.522289],[-36.962841,-6.510011],[-36.957606,-6.491821],[-36.90478,-6.447711],[-36.874322,-6.418608],[-36.860996,-6.388595],[-36.87337,-6.3795],[-36.88622,-6.342666],[-36.902876,-6.341757],[-36.901925,-6.318565],[-36.923816,-6.294464],[-36.909539,-6.243078],[-36.895262,-6.23944],[-36.923816,-6.238986],[-36.927148,-6.215794],[-36.95713,-6.190783],[-36.973787,-6.192602],[-37.003293,-6.221705],[-37.045649,-6.223979],[-37.048505,-6.236257],[-37.080866,-6.290371],[-37.075155,-6.307651],[-37.081818,-6.354035],[-37.072776,-6.392688],[-37.101806,-6.417698],[-37.140831,-6.428157],[-37.140355,-6.448621],[-37.188422,-6.439071],[-37.19556,-6.446802],[-37.20603,-6.499552],[-37.199844,-6.514558],[-37.213645,-6.527291],[-37.216976,-6.559577],[-37.230778,-6.569582],[-37.218404,-6.619603]]]},"properties":{"cod_ibge":"240200","name":"Caicó","uf":"RN"}},
{"type":"Feature","geometry":{"type":"Polygon","coordinates":[[[-38.481467,-6.304468],[-38.457671,-6.329934],[-38.408653,-6.293554],[-38.379146,-6.262632],[-38.35773,-6.217613],[-38.35773,-6.201242],[-38.364869,-6.173048],[-38.418171,-6.218977],[-38.430544,-6.236257],[-38.448629,-6.221705],[-38.481467,-6.252173],[-38.488129,-6.283095],[-38.481467,-6.304468]]]},"properties":{"cod_ibge":"240290","name":"Coronel João Pessoa","uf":"RN"}},
{"type":"Feature","geometry":{"type":"Polygon","coordinates":[[[-37.314062,-6.689178],[-37.283604,-6.693726],[-37.290266,-6.712825],[-37.264091,-6.732379],[-37.204127,-6.761937],[-37.157488,-6.739655],[-37.09562,-6.724648],[-37.075631,-6.754206],[-37.035179,-6.734198],[-37.059926,-6.720555],[-37.065161,-6.707368],[-37.102758,-6.684631],[-37.109421,-6.656892],[-37.134644,-6.650071],[-37.150349,-6.625969],[-37.17938,-6.613691],[-37.218404,-6.619603],[-37.251242,-6.646888],[-37.301688,-6.652344],[-37.314062,-6.689178]]]},"properties":{"cod_ibge":"241210","name":"São João do Sabugi","uf":"RN"}},
{"type":"Feature","geometry":{"type":"Polygon","coordinates":[[[-37.318345,-6.454532],[-37.381165,-6.437252],[-37.391159,-6.452713],[-37.395918,-6.510011],[-37.421141,-6.533202],[-37.464925,-6.532748],[-37.482534,-6.547754],[-37.474919,-6.56458],[-37.480154,-6.605051],[-37.476347,-6.644614],[-37.466353,-6.660075],[-37.484913,-6.710096],[-37.40734,-6.697364],[-37.342616,-6.701456],[-37.314062,-6.689178],[-37.301688,-6.652344],[-37.251242,-6.646888],[-37.218404,-6.619603],[-37.230778,-6.569582],[-37.254097,-6.545026],[-37.260284,-6.523653],[-37.318345,-6.454532]]]},"properties":{"cod_ibge":"241340","name":"Serra Negra do Norte","uf":"RN"}},
{"type":"Feature","geometry":{"type":"Polygon","coordinates":[[[-35.746893,-5.619629],[-35.764026,-5.638274],[-35.803051,-5.620084],[-35.854925,-5.608715],[-35.885383,-5.631907],[-35.911082,-5.629634],[-35.924407,-5.636455],[-35.94154,-5.668741],[-35.934401,-5.71467],[-35.939636,-5.73286],[-35.776876,-5.716489],[-35.656471,-5.717853],[-35.632199,-5.714215],[-35.697399,-5.665558],[-35.707869,-5.637819],[-35.746893,-5.619629]]]},"properties":{"cod_ibge":"240160","name":"Bento Fernandes","uf":"RN"}},
{"type":"Feature","geometry":{"type":"Polygon","coordinates":[[[-35.669796,-6.415425],[-35.616494,-6.425429],[-35.558909,-6.430431],[-35.544156,-6.417244],[-35.555102,-6.390869],[-35.596982,-6.385867],[-35.615542,-6.349942],[-35.643145,-6.325841],[-35.671224,-6.314472],[-35.669796,-6.348578],[-35.683122,-6.358127],[-35.681218,-6.390869],[-35.669796,-6.415425]]]},"properties":{"cod_ibge":"240620","name":"Lagoa d'Anta","uf":"RN"}},
{"type":"Feature","geometry":{"type":"Polygon","coordinates":[[[-35.309533,-6.403147],[-35.339039,-6.381319],[-35.345702,-6.334481],[-35.342371,-6.315382],[-35.360455,-6.308106],[-35.36569,-6.290826],[-35.3576,-6.274001],[-35.349985,-6.224889],[-35.358076,-6.249899],[-35.388534,-6.322658],[-35.400432,-6.341302],[-35.408998,-6.381319],[-35.386154,-6.390414],[-35.372829,-6.40542],[-35.349985,-6.408604],[-35.337136,-6.395871],[-35.309533,-6.403147]]]},"properties":{"cod_ibge":"241470","name":"Várzea","uf":"RN"}},
{"type":"Feature","geometry":{"type":"Polygon","coordinates":[[[-37.58295,-5.278119],[-37.4259,-5.311315],[-37.295977,-5.39135],[-37.29455,-5.429548],[-37.302164,-5.463199],[-37.29455,-5.47775],[-37.172717,-5.490483],[-37.142735,-5.374069],[-37.139403,-5.335417],[-37.126078,-5.29358],[-37.15606,-5.294035],[-37.156536,-5.166708],[-37.111325,-5.166708],[-37.105614,-5.132602],[-37.111325,-5.124872],[-37.1375,-5.105318],[-37.152729,-5.076669],[-37.152729,-5.053932],[-37.131789,-5.030286],[-37.136548,-5.005275],[-37.16653,-5.014825],[-37.176524,-4.97026],[-37.208886,-4.991633],[-37.307875,-4.945704],[-37.345472,-4.93479],[-37.364984,-4.907506],[-37.427328,-4.911599],[-37.446365,-4.881131],[-37.467305,-4.886133],[-37.492528,-4.924331],[-37.498239,-4.996635],[-37.48872,-5.017098],[-37.58295,-5.278119]]]},"properties":{"cod_ibge":"240800","name":"Mossoró","uf":"RN"}},
{"type":"Feature","geometry":{"type":"Polygon","coordinates":[[[-38.562371,-6.355854],[-38.532389,-6.341757],[-38.50431,-6.356308],[-38.476708,-6.334026],[-38.458623,-6.330388],[-38.457671,-6.329934],[-38.481467,-6.304468],[-38.492413,-6.295373],[-38.542383,-6.286278],[-38.570462,-6.2931],[-38.581884,-6.319475],[-38.577124,-6.347214],[-38.562371,-6.355854]]]},"properties":{"cod_ibge":"241475","name":"Venha-Ver","uf":"RN"}},
{"type":"Feature","geometry":{"type":"Polygon","coordinates":[[[-36.699187,-5.525953],[-36.58021,-5.528681],[-36.578782,-5.578703],[-36.572596,-5.585978],[-36.469799,-5.598256],[-36.439817,-5.369977],[-36.515486,-5.402263],[-36.537378,-5.412722],[-36.838153,-5.392259],[-36.838629,-5.403628],[-36.86052,-5.442281],[-36.699663,-5.463653],[-36.699187,-5.525953]]]},"properties":{"cod_ibge":"240030","name":"Afonso Bezerra","uf":"RN"}},
{"type":"Feature","geometry":{"type":"Polygon","coordinates":[[[-36.334165,-5.889745],[-36.331786,-5.87292],[-36.368431,-5.874739],[-36.388419,-5.852002],[-36.414594,-5.858368],[-36.424588,-5.897476],[-36.435534,-5.910663],[-36.475034,-5.926579],[-36.540234,-5.989788],[-36.547372,-6.05618],[-36.521673,-6.04663],[-36.4441,-6.041628],[-36.448859,-6.011615],[-36.410786,-6.021165],[-36.394606,-6.01298],[-36.392226,-5.989788],[-36.363196,-5.96887],[-36.373666,-5.911573],[-36.372238,-5.895657],[-36.338448,-5.90748],[-36.334165,-5.889745]]]},"properties":{"cod_ibge":"240165","name":"Bodó","uf":"RN"}},
{"type":"Feature","geometry":{"type":"Polygon","coordinates":[[[-36.86052,-5.442281],[-36.873846,-5.457742],[-36.869563,-5.478205],[-36.88622,-5.493211],[-36.903828,-5.529591],[-36.900021,-5.550509],[-36.882412,-5.573246],[-36.897641,-5.603259],[-36.815785,-5.642821],[-36.751061,-5.646914],[-36.755821,-5.622358],[-36.77105,-5.605987],[-36.743923,-5.591435],[-36.725362,-5.5737],[-36.699187,-5.525953],[-36.699663,-5.463653],[-36.86052,-5.442281]]]},"properties":{"cod_ibge":"240470","name":"Ipanguaçu","uf":"RN"}},
{"type":"Feature","geometry":{"type":"Polygon","coordinates":[[[-36.560222,-6.840607],[-36.574975,-6.806047],[-36.61162,-6.79968],[-36.634464,-6.81787],[-36.676344,-6.817415],[-36.692525,-6.833331],[-36.711085,-6.816051],[-36.725838,-6.816506],[-36.730121,-6.836514],[-36.760104,-6.91473],[-36.766766,-6.935648],[-36.73726,-6.972936],[-36.709181,-6.974755],[-36.68729,-6.926098],[-36.654928,-6.928372],[-36.637319,-6.933829],[-36.60353,-6.930645],[-36.567836,-6.874712],[-36.574023,-6.857432],[-36.560222,-6.840607]]]},"properties":{"cod_ibge":"240340","name":"Equador","uf":"RN"}},
{"type":"Feature","geometry":{"type":"Polygon","coordinates":[[[-35.911082,-5.629634],[-35.885383,-5.631907],[-35.854925,-5.608715],[-35.803051,-5.620084],[-35.764026,-5.638274],[-35.746893,-5.619629],[-35.74499,-5.458196],[-35.764502,-5.45183],[-35.777352,-5.442735],[-35.802575,-5.463653],[-35.813997,-5.464563],[-35.832081,-5.305858],[-35.97533,-5.332233],[-35.989607,-5.34724],[-36.012451,-5.39908],[-35.999601,-5.415906],[-35.992462,-5.463653],[-35.911082,-5.629634]]]},"properties":{"cod_ibge":"240580","name":"João Câmara","uf":"RN"}},
{"type":"Feature","geometry":{"type":"Polygon","coordinates":[[[-35.638862,-5.790157],[-35.656471,-5.717853],[-35.776876,-5.716489],[-35.779731,-5.815168],[-35.796864,-5.853366],[-35.742134,-5.872465],[-35.704062,-5.861551],[-35.683122,-5.868827],[-35.667892,-5.79425],[-35.638862,-5.790157]]]},"properties":{"cod_ibge":"240933","name":"Santa Maria","uf":"RN"}},
{"type":"Feature","geometry":{"type":"Polygon","coordinates":[[[-37.709066,-6.177141],[-37.673373,-6.190783],[-37.646722,-6.189419],[-37.616264,-6.176231],[-37.604366,-6.175322],[-37.569625,-6.155313],[-37.540119,-6.165772],[-37.522034,-6.151675],[-37.57724,-6.033898],[-37.557251,-6.016163],[-37.592945,-5.982057],[-37.648626,-5.941131],[-37.657192,-5.992062],[-37.674325,-6.017527],[-37.672421,-6.047995],[-37.68765,-6.109385],[-37.709066,-6.177141]]]},"properties":{"cod_ibge":"240930","name":"Patu","uf":"RN"}},
{"type":"Feature","geometry":{"type":"Polygon","coordinates":[[[-35.625537,-5.492302],[-35.597934,-5.487755],[-35.578422,-5.498668],[-35.565096,-5.493666],[-35.537493,-5.512311],[-35.5018,-5.492302],[-35.481812,-5.453194],[-35.418516,-5.332688],[-35.457541,-5.324048],[-35.534638,-5.3386],[-35.580801,-5.300402],[-35.586036,-5.309951],[-35.641717,-5.334507],[-35.718815,-5.389076],[-35.764502,-5.45183],[-35.74499,-5.458196],[-35.681218,-5.464108],[-35.625537,-5.492302]]]},"properties":{"cod_ibge":"241040","name":"Pureza","uf":"RN"}},
{"type":"Feature","geometry":{"type":"Polygon","coordinates":[[[-36.133807,-6.210792],[-36.157603,-6.166227],[-36.226134,-6.163953],[-36.257068,-6.158042],[-36.257544,-6.198968],[-36.267062,-6.229436],[-36.25802,-6.243078],[-36.288954,-6.275819],[-36.295141,-6.29219],[-36.27896,-6.317656],[-36.272773,-6.307197],[-36.246122,-6.302194],[-36.239935,-6.310834],[-36.181398,-6.298102],[-36.153796,-6.299921],[-36.133807,-6.210792]]]},"properties":{"cod_ibge":"240210","name":"Campo Redondo","uf":"RN"}},
{"type":"Feature","geometry":{"type":"Polygon","coordinates":[[[-36.096211,-6.419972],[-36.076698,-6.40542],[-36.036722,-6.444073],[-36.016734,-6.451804],[-36.005312,-6.480907],[-35.965336,-6.484545],[-35.965336,-6.470903],[-36.033866,-6.299466],[-36.054806,-6.309016],[-36.070511,-6.302194],[-36.139518,-6.329934],[-36.096211,-6.419972]]]},"properties":{"cod_ibge":"241170","name":"São Bento do Trairí","uf":"RN"}},
{"type":"Feature","geometry":{"type":"Polygon","coordinates":[[[-36.725838,-6.816506],[-36.711085,-6.816051],[-36.692525,-6.833331],[-36.676344,-6.817415],[-36.634464,-6.81787],[-36.61162,-6.79968],[-36.574975,-6.806047],[-36.560222,-6.840607],[-36.543565,-6.841971],[-36.529288,-6.8256],[-36.509776,-6.81787],[-36.501209,-6.777398],[-36.504541,-6.753751],[-36.533571,-6.733288],[-36.558794,-6.707823],[-36.547372,-6.69509],[-36.541661,-6.665987],[-36.520721,-6.610508],[-36.550228,-6.608235],[-36.575451,-6.597776],[-36.587349,-6.584588],[-36.636367,-6.592319],[-36.679675,-6.579131],[-36.669205,-6.610508],[-36.69776,-6.619603],[-36.722031,-6.646888],[-36.727742,-6.658711],[-36.706802,-6.680084],[-36.712037,-6.753297],[-36.731073,-6.79195],[-36.725838,-6.816506]]]},"properties":{"cod_ibge":"240890","name":"Parelhas","uf":"RN"}},
{"type":"Feature","geometry":{"type":"Polygon","coordinates":[[[-35.32619,-5.381345],[-35.338087,-5.377707],[-35.354744,-5.35497],[-35.370925,-5.284486],[-35.382347,-5.269934],[-35.418516,-5.332688],[-35.481812,-5.453194],[-35.45992,-5.446373],[-35.401383,-5.437278],[-35.389962,-5.451375],[-35.375684,-5.419544],[-35.361883,-5.413632],[-35.32619,-5.381345]]]},"properties":{"cod_ibge":"240895","name":"Rio do Fogo","uf":"RN"}},
{"type":"Feature","geometry":{"type":"Polygon","coordinates":[[[-37.359273,-6.006158],[-37.425425,-6.07437],[-37.456359,-6.096652],[-37.514895,-6.064365],[-37.557251,-6.016163],[-37.57724,-6.033898],[-37.522034,-6.151675],[-37.48301,-6.151675],[-37.458738,-6.144854],[-37.445889,-6.112113],[-37.393539,-6.109385],[-37.378785,-6.085283],[-37.382593,-6.067094],[-37.359273,-6.006158]]]},"properties":{"cod_ibge":"240760","name":"Messias Targino","uf":"RN"}},
{"type":"Feature","geometry":{"type":"Polygon","coordinates":[[[-37.963202,-6.256266],[-38.063619,-6.253537],[-38.097408,-6.314472],[-38.099788,-6.330388],[-38.089318,-6.317201],[-38.05648,-6.311289],[-38.031257,-6.321293],[-37.984142,-6.310834],[-37.963202,-6.256266]]]},"properties":{"cod_ibge":"241000","name":"Pilões","uf":"RN"}},
{"type":"Feature","geometry":{"type":"Polygon","coordinates":[[[-35.418516,-5.332688],[-35.382347,-5.269934],[-35.416612,-5.220822],[-35.458968,-5.197176],[-35.489427,-5.157158],[-35.572235,-5.134421],[-35.61697,-5.113958],[-35.62982,-5.198994],[-35.653139,-5.225369],[-35.683122,-5.27721],[-35.695971,-5.271298],[-35.705489,-5.294035],[-35.762122,-5.29358],[-35.832081,-5.305858],[-35.813997,-5.464563],[-35.802575,-5.463653],[-35.777352,-5.442735],[-35.764502,-5.45183],[-35.718815,-5.389076],[-35.641717,-5.334507],[-35.586036,-5.309951],[-35.580801,-5.300402],[-35.534638,-5.3386],[-35.457541,-5.324048],[-35.418516,-5.332688]]]},"properties":{"cod_ibge":"241440","name":"Touros","uf":"RN"}},
{"type":"Feature","geometry":{"type":"Polygon","coordinates":[[[-35.567952,-6.205789],[-35.468487,-6.2308],[-35.436601,-6.253537],[-35.402811,-6.210337],[-35.381395,-6.158496],[-35.413281,-6.132576],[-35.443739,-6.140762],[-35.445643,-6.153949],[-35.499897,-6.179869],[-35.527023,-6.201242],[-35.550343,-6.199878],[-35.567952,-6.205789]]]},"properties":{"cod_ibge":"240630","name":"Lagoa de Pedras","uf":"RN"}},
{"type":"Feature","geometry":{"type":"Polygon","coordinates":[[[-35.545584,-6.055725],[-35.512746,-6.051178],[-35.456589,-6.078462],[-35.432317,-6.065275],[-35.429462,-6.050268],[-35.365214,-6.055725],[-35.382347,-6.02162],[-35.370449,-6.005249],[-35.373305,-5.987514],[-35.546536,-6.053906],[-35.545584,-6.055725]]]},"properties":{"cod_ibge":"241480","name":"Vera Cruz","uf":"RN"}},
{"type":"Feature","geometry":{"type":"Polygon","coordinates":[[[-35.798767,-6.042538],[-35.781635,-6.040719],[-35.690736,-6.071641],[-35.588892,-6.096652],[-35.570807,-6.079372],[-35.647428,-6.016163],[-35.650284,-5.9766],[-35.668368,-5.983876],[-35.709297,-6.000702],[-35.778303,-6.015708],[-35.798767,-6.042538]]]},"properties":{"cod_ibge":"241310","name":"Senador Elói de Souza","uf":"RN"}},
{"type":"Feature","geometry":{"type":"Polygon","coordinates":[[[-36.096686,-6.420427],[-36.177115,-6.407239],[-36.221375,-6.402692],[-36.265634,-6.379955],[-36.296568,-6.370405],[-36.291809,-6.395871],[-36.251357,-6.404511],[-36.249929,-6.437252],[-36.22661,-6.434069],[-36.17426,-6.430886],[-36.143801,-6.425429],[-36.110012,-6.429067],[-36.096686,-6.420427]]]},"properties":{"cod_ibge":"240500","name":"Jaçanã","uf":"RN"}},
{"type":"Feature","geometry":{"type":"Polygon","coordinates":[[[-38.277778,-6.181233],[-38.288724,-6.188055],[-38.311091,-6.176231],[-38.35773,-6.201242],[-38.35773,-6.217613],[-38.301573,-6.241259],[-38.279681,-6.237621],[-38.272067,-6.222615],[-38.265404,-6.209427],[-38.277778,-6.181233]]]},"properties":{"cod_ibge":"240040","name":"Água Nova","uf":"RN"}},
{"type":"Feature","geometry":{"type":"Polygon","coordinates":[[[-35.551771,-5.703301],[-35.547487,-5.709668],[-35.499897,-5.716944],[-35.458017,-5.717853],[-35.447071,-5.733314],[-35.413281,-5.737407],[-35.360931,-5.728312],[-35.284786,-5.624177],[-35.227201,-5.612353],[-35.228152,-5.575065],[-35.244809,-5.555966],[-35.255755,-5.516858],[-35.269557,-5.517767],[-35.279551,-5.496395],[-35.297635,-5.486845],[-35.331425,-5.488664],[-35.3576,-5.47002],[-35.382347,-5.46911],[-35.418516,-5.457742],[-35.454209,-5.47002],[-35.472294,-5.485936],[-35.5018,-5.492302],[-35.521312,-5.577793],[-35.51227,-5.650097],[-35.494662,-5.666013],[-35.547963,-5.688295],[-35.551771,-5.703301]]]},"properties":{"cod_ibge":"240260","name":"Ceará-Mirim","uf":"RN"}},
{"type":"Feature","geometry":{"type":"Polygon","coordinates":[[[-35.557957,-6.04663],[-35.537493,-5.995699],[-35.555578,-5.948406],[-35.572235,-5.932491],[-35.650284,-5.9766],[-35.647428,-6.016163],[-35.570807,-6.079372],[-35.557957,-6.04663]]]},"properties":{"cod_ibge":"240170","name":"Bom Jesus","uf":"RN"}},
{"type":"Feature","geometry":{"type":"Polygon","coordinates":[[[-37.195085,-5.823808],[-37.260284,-5.908389],[-37.162247,-6.021165],[-37.154632,-5.992516],[-37.12227,-5.954773],[-37.067065,-5.984786],[-37.035655,-5.891109],[-37.10133,-5.872465],[-37.130837,-5.87292],[-37.148921,-5.866553],[-37.195085,-5.823808]]]},"properties":{"cod_ibge":"241445","name":"Triunfo Potiguar","uf":"RN"}},
{"type":"Feature","geometry":{"type":"Polygon","coordinates":[[[-35.282406,-5.849728],[-35.253852,-5.865644],[-35.218158,-5.868372],[-35.176278,-5.899749],[-35.153911,-5.89793],[-35.179134,-5.86428],[-35.179134,-5.798797],[-35.192459,-5.781517],[-35.194363,-5.755142],[-35.203405,-5.743319],[-35.237671,-5.714215],[-35.265749,-5.704211],[-35.291448,-5.732405],[-35.286689,-5.763327],[-35.251472,-5.776515],[-35.252424,-5.798342],[-35.279551,-5.818805],[-35.28193,-5.829265],[-35.282406,-5.849728]]]},"properties":{"cod_ibge":"240810","name":"Natal","uf":"RN"}},
{"type":"Feature","geometry":{"type":"Polygon","coordinates":[[[-38.249223,-6.163953],[-38.207343,-6.155768],[-38.173554,-6.169865],[-38.169746,-6.193966],[-38.129294,-6.175777],[-38.057432,-6.195785],[-38.041727,-6.168956],[-38.04363,-6.12621],[-38.103595,-6.113932],[-38.147854,-6.096197],[-38.189259,-6.046176],[-38.215434,-6.023893],[-38.252079,-6.010251],[-38.252554,-6.042992],[-38.274922,-6.065729],[-38.261121,-6.074824],[-38.266832,-6.112113],[-38.249699,-6.135759],[-38.249223,-6.163953]]]},"properties":{"cod_ibge":"240940","name":"Pau dos Ferros","uf":"RN"}},
{"type":"Feature","geometry":{"type":"Polygon","coordinates":[[[-35.939636,-5.73286],[-35.923931,-5.763782],[-35.938685,-5.79334],[-35.925359,-5.800161],[-35.851117,-5.913391],[-35.84969,-5.91521],[-35.832557,-5.908844],[-35.796864,-5.853366],[-35.779731,-5.815168],[-35.776876,-5.716489],[-35.939636,-5.73286]]]},"properties":{"cod_ibge":"241090","name":"Riachuelo","uf":"RN"}},
{"type":"Feature","geometry":{"type":"Polygon","coordinates":[[[-35.528927,-5.882014],[-35.594602,-5.867463],[-35.635531,-5.803344],[-35.638862,-5.790157],[-35.667892,-5.79425],[-35.683122,-5.868827],[-35.687405,-5.919303],[-35.668368,-5.983876],[-35.650284,-5.9766],[-35.572235,-5.932491],[-35.528927,-5.882014]]]},"properties":{"cod_ibge":"241270","name":"São Pedro","uf":"RN"}},
{"type":"Feature","geometry":{"type":"Polygon","coordinates":[[[-37.447316,-5.902932],[-37.43637,-5.98524],[-37.400677,-5.962503],[-37.374978,-5.960684],[-37.37593,-5.987969],[-37.359273,-6.006158],[-37.382593,-6.067094],[-37.378785,-6.085283],[-37.354514,-6.086648],[-37.335954,-6.067548],[-37.295501,-6.050268],[-37.272658,-6.055725],[-37.256477,-6.028441],[-37.23173,-6.027531],[-37.222687,-6.042083],[-37.202223,-6.0389],[-37.174145,-6.047995],[-37.162247,-6.021165],[-37.260284,-5.908389],[-37.195085,-5.823808],[-37.17938,-5.81926],[-37.225543,-5.789702],[-37.220784,-5.717398],[-37.244103,-5.707849],[-37.251242,-5.717398],[-37.31311,-5.710123],[-37.338333,-5.720127],[-37.371647,-5.722401],[-37.434943,-5.745138],[-37.467305,-5.752413],[-37.447316,-5.902932]]]},"properties":{"cod_ibge":"240130","name":"Campo Grande","uf":"RN"}},
{"type":"Feature","geometry":{"type":"Polygon","coordinates":[[[-37.138451,-4.947978],[-37.157488,-4.945249],[-37.180331,-4.917056],[-37.220784,-4.881586],[-37.26885,-4.911599],[-37.270278,-4.945704],[-37.307875,-4.945704],[-37.208886,-4.991633],[-37.176524,-4.97026],[-37.16653,-5.014825],[-37.136548,-5.005275],[-37.133692,-4.988904],[-37.147494,-4.975262],[-37.138451,-4.947978]]]},"properties":{"cod_ibge":"240440","name":"Grossos","uf":"RN"}},
{"type":"Feature","geometry":{"type":"Polygon","coordinates":[[[-36.62209,-6.131667],[-36.627801,-6.155313],[-36.615427,-6.174867],[-36.618759,-6.192147],[-36.599246,-6.216248],[-36.591632,-6.247626],[-36.606861,-6.278548],[-36.604481,-6.290371],[-36.564981,-6.312199],[-36.547848,-6.344485],[-36.550704,-6.361765],[-36.504541,-6.386321],[-36.499781,-6.358127],[-36.432678,-6.36313],[-36.394606,-6.294009],[-36.36272,-6.309925],[-36.344159,-6.302649],[-36.313701,-6.28355],[-36.295141,-6.29219],[-36.288954,-6.275819],[-36.25802,-6.243078],[-36.267062,-6.229436],[-36.257544,-6.198968],[-36.257068,-6.158042],[-36.295616,-6.122117],[-36.343207,-6.098016],[-36.411738,-6.104382],[-36.428871,-6.112568],[-36.459805,-6.115296],[-36.492167,-6.136669],[-36.5093,-6.123027],[-36.550704,-6.141216],[-36.560222,-6.134395],[-36.605909,-6.124391],[-36.62209,-6.131667]]]},"properties":{"cod_ibge":"240310","name":"Currais Novos","uf":"RN"}},
{"type":"Feature","geometry":{"type":"Polygon","coordinates":[[[-36.284671,-5.859277],[-36.356533,-5.848818],[-36.389371,-5.795159],[-36.5093,-5.756051],[-36.550228,-5.769239],[-36.567836,-5.757416],[-36.630181,-5.75878],[-36.657783,-5.742409],[-36.674916,-5.70603],[-36.702519,-5.701482],[-36.744875,-5.739681],[-36.754869,-5.75878],[-36.776285,-5.763782],[-36.78961,-5.755142],[-36.76867,-5.792885],[-36.775809,-5.80198],[-36.773429,-5.861096],[-36.818165,-5.912937],[-36.876225,-5.963868],[-36.893834,-5.974781],[-36.858617,-5.984786],[-36.849099,-6.010251],[-36.855285,-6.044357],[-36.812454,-6.053451],[-36.793417,-6.040264],[-36.766766,-6.05618],[-36.731073,-6.056635],[-36.719651,-6.072096],[-36.719651,-6.095288],[-36.668729,-6.112113],[-36.6535,-6.111658],[-36.638747,-6.088921],[-36.547372,-6.05618],[-36.540234,-5.989788],[-36.475034,-5.926579],[-36.435534,-5.910663],[-36.424588,-5.897476],[-36.414594,-5.858368],[-36.388419,-5.852002],[-36.368431,-5.874739],[-36.331786,-5.87292],[-36.334165,-5.889745],[-36.32084,-5.865644],[-36.284671,-5.859277]]]},"properties":{"cod_ibge":"241140","name":"Santana do Matos","uf":"RN"}},
{"type":"Feature","geometry":{"type":"Polygon","coordinates":[[[-36.226134,-6.163953],[-36.157603,-6.166227],[-36.133807,-6.210792],[-36.07765,-6.19624],[-36.080506,-6.102109],[-36.107156,-6.098471],[-36.120958,-6.088921],[-36.162838,-6.106656],[-36.173784,-6.121663],[-36.225182,-6.14349],[-36.226134,-6.163953]]]},"properties":{"cod_ibge":"240680","name":"Lajes Pintadas","uf":"RN"}},
{"type":"Feature","geometry":{"type":"Polygon","coordinates":[[[-35.934401,-5.71467],[-35.94154,-5.668741],[-35.924407,-5.636455],[-35.911082,-5.629634],[-35.992462,-5.463653],[-36.062421,-5.655099],[-36.023872,-5.697845],[-35.970571,-5.714215],[-35.934401,-5.71467]]]},"properties":{"cod_ibge":"240550","name":"Jardim de Angicos","uf":"RN"}},
{"type":"Feature","geometry":{"type":"Polygon","coordinates":[[[-38.252554,-6.418153],[-38.258265,-6.40542],[-38.28682,-6.391778],[-38.306808,-6.425884],[-38.347736,-6.448166],[-38.343929,-6.456806],[-38.328224,-6.460444],[-38.313947,-6.487274],[-38.29729,-6.487274],[-38.288724,-6.505463],[-38.256362,-6.483181],[-38.229235,-6.483181],[-38.251127,-6.434069],[-38.252554,-6.418153]]]},"properties":{"cod_ibge":"240860","name":"Paraná","uf":"RN"}},
{"type":"Feature","geometry":{"type":"Polygon","coordinates":[[[-38.057432,-6.195785],[-38.129294,-6.175777],[-38.169746,-6.193966],[-38.194018,-6.220796],[-38.249223,-6.249445],[-38.258741,-6.275819],[-38.247795,-6.289916],[-38.247319,-6.333571],[-38.225428,-6.357218],[-38.238277,-6.385412],[-38.20306,-6.380864],[-38.188307,-6.361765],[-38.164511,-6.386776],[-38.125487,-6.367222],[-38.103595,-6.356308],[-38.099788,-6.330388],[-38.097408,-6.314472],[-38.063619,-6.253537],[-38.057432,-6.195785]]]},"properties":{"cod_ibge":"240730","name":"Marcelino Vieira","uf":"RN"}},
{"type":"Feature","geometry":{"type":"Polygon","coordinates":[[[-35.746893,-5.619629],[-35.707869,-5.637819],[-35.697399,-5.665558],[-35.632199,-5.714215],[-35.631723,-5.714215],[-35.641242,-5.629179],[-35.658374,-5.586433],[-35.668368,-5.496395],[-35.625537,-5.492302],[-35.681218,-5.464108],[-35.74499,-5.458196],[-35.746893,-5.619629]]]},"properties":{"cod_ibge":"241010","name":"Poço Branco","uf":"RN"}},
{"type":"Feature","geometry":{"type":"Polygon","coordinates":[[[-37.963202,-6.256266],[-37.881821,-6.273091],[-37.849935,-6.255811],[-37.794254,-6.256266],[-37.776645,-6.245807],[-37.797585,-6.217158],[-37.889436,-6.166682],[-37.895147,-6.153494],[-37.947021,-6.160315],[-37.993184,-6.210337],[-38.022214,-6.209427],[-38.046486,-6.180324],[-38.041727,-6.168956],[-38.057432,-6.195785],[-38.063619,-6.253537],[-37.963202,-6.256266]]]},"properties":{"cod_ibge":"240090","name":"Antônio Martins","uf":"RN"}},
{"type":"Feature","geometry":{"type":"Polygon","coordinates":[[[-36.722031,-6.646888],[-36.744399,-6.65189],[-36.764863,-6.66917],[-36.816737,-6.679629],[-36.842436,-6.674627],[-36.834821,-6.731014],[-36.772953,-6.786948],[-36.769622,-6.838788],[-36.730121,-6.836514],[-36.725838,-6.816506],[-36.731073,-6.79195],[-36.712037,-6.753297],[-36.706802,-6.680084],[-36.727742,-6.658711],[-36.722031,-6.646888]]]},"properties":{"cod_ibge":"241142","name":"Santana do Seridó","uf":"RN"}},
{"type":"Feature","geometry":{"type":"Polygon","coordinates":[[[-36.411738,-6.104382],[-36.343207,-6.098016],[-36.295616,-6.122117],[-36.302279,-6.115296],[-36.281339,-6.043902],[-36.252785,-5.982057],[-36.22423,-5.899749],[-36.25802,-5.864734],[-36.263731,-5.833357],[-36.284671,-5.859277],[-36.32084,-5.865644],[-36.334165,-5.889745],[-36.338448,-5.90748],[-36.372238,-5.895657],[-36.373666,-5.911573],[-36.363196,-5.96887],[-36.392226,-5.989788],[-36.394606,-6.01298],[-36.410786,-6.021165],[-36.448859,-6.011615],[-36.4441,-6.041628],[-36.426967,-6.092559],[-36.411738,-6.104382]]]},"properties":{"cod_ibge":"240270","name":"Cerro Corá","uf":"RN"}},
{"type":"Feature","geometry":{"type":"Polygon","coordinates":[[[-37.933695,-6.00434],[-37.89705,-6.007977],[-37.861357,-6.030714],[-37.845652,-6.057089],[-37.81329,-6.080736],[-37.789019,-6.09074],[-37.777121,-6.068003],[-37.782832,-6.040719],[-37.772362,-6.002066],[-37.766175,-5.99388],[-37.77379,-5.961594],[-37.756657,-5.940221],[-37.712874,-5.918848],[-37.733814,-5.912027],[-37.764272,-5.895657],[-37.825664,-5.912482],[-37.89705,-5.939766],[-37.921322,-5.959775],[-37.933695,-6.00434]]]},"properties":{"cod_ibge":"241450","name":"Umarizal","uf":"RN"}},
{"type":"Feature","geometry":{"type":"Polygon","coordinates":[[[-35.157242,-6.148037],[-35.110603,-6.187145],[-35.093946,-6.183507],[-35.097753,-6.139852],[-35.111079,-6.134395],[-35.162477,-6.136214],[-35.157242,-6.148037]]]},"properties":{"cod_ibge":"241320","name":"Senador Georgino Avelino","uf":"RN"}},
{"type":"Feature","geometry":{"type":"Polygon","coordinates":[[[-36.72917,-5.174893],[-36.715368,-5.214456],[-36.725838,-5.229462],[-36.725838,-5.262203],[-36.754393,-5.272662],[-36.664446,-5.372251],[-36.555463,-5.394988],[-36.537378,-5.412722],[-36.515486,-5.402263],[-36.515011,-5.301766],[-36.542137,-5.301311],[-36.535475,-5.263568],[-36.542613,-5.243104],[-36.564505,-5.218094],[-36.579258,-5.21582],[-36.72917,-5.174893]]]},"properties":{"cod_ibge":"240990","name":"Pendências","uf":"RN"}},
{"type":"Feature","geometry":{"type":"Polygon","coordinates":[[[-34.968306,-6.487274],[-34.974969,-6.419517],[-34.992102,-6.37086],[-35.019704,-6.365858],[-35.027319,-6.350852],[-35.032078,-6.310834],[-35.067771,-6.346304],[-35.063012,-6.361765],[-35.096326,-6.391323],[-35.12726,-6.411787],[-35.110127,-6.445892],[-35.112507,-6.505009],[-35.095374,-6.497733],[-35.057777,-6.527746],[-35.028747,-6.505463],[-34.992102,-6.501371],[-34.968306,-6.487274]]]},"properties":{"cod_ibge":"240140","name":"Baía Formosa","uf":"RN"}},
{"type":"Feature","geometry":{"type":"Polygon","coordinates":[[[-38.33679,-6.374043],[-38.275398,-6.378136],[-38.28682,-6.391778],[-38.258265,-6.40542],[-38.252554,-6.418153],[-38.238277,-6.385412],[-38.225428,-6.357218],[-38.247319,-6.333571],[-38.247795,-6.289916],[-38.297766,-6.278093],[-38.317278,-6.289916],[-38.333459,-6.311744],[-38.331079,-6.328569],[-38.33679,-6.374043]]]},"properties":{"cod_ibge":"240600","name":"José da Penha","uf":"RN"}},
{"type":"Feature","geometry":{"type":"Polygon","coordinates":[[[-36.761056,-6.515468],[-36.703471,-6.538205],[-36.679675,-6.579131],[-36.61162,-6.498642],[-36.581162,-6.474541],[-36.545469,-6.484091],[-36.528336,-6.479088],[-36.531191,-6.452259],[-36.504541,-6.386321],[-36.550704,-6.361765],[-36.547848,-6.344485],[-36.564981,-6.312199],[-36.604481,-6.290371],[-36.626373,-6.285369],[-36.632084,-6.268544],[-36.662542,-6.278548],[-36.681579,-6.269908],[-36.710133,-6.278093],[-36.71632,-6.30083],[-36.743447,-6.307651],[-36.753917,-6.320384],[-36.739164,-6.3363],[-36.752489,-6.354035],[-36.742495,-6.393142],[-36.761056,-6.478634],[-36.774381,-6.473177],[-36.761056,-6.515468]]]},"properties":{"cod_ibge":"240010","name":"Acari","uf":"RN"}},
{"type":"Feature","geometry":{"type":"Polygon","coordinates":[[[-37.788067,-5.219003],[-37.58295,-5.278119],[-37.48872,-5.017098],[-37.498239,-4.996635],[-37.492528,-4.924331],[-37.467305,-4.886133],[-37.640535,-4.926605],[-37.67718,-5.053023],[-37.725247,-5.070758],[-37.733338,-5.100771],[-37.764748,-5.139424],[-37.776169,-5.187171],[-37.788067,-5.219003]]]},"properties":{"cod_ibge":"240145","name":"Baraúna","uf":"RN"}},
{"type":"Feature","geometry":{"type":"Polygon","coordinates":[[[-35.636958,-6.454532],[-35.604121,-6.45908],[-35.581277,-6.484091],[-35.580325,-6.470448],[-35.558909,-6.430431],[-35.616494,-6.425429],[-35.669796,-6.415425],[-35.664561,-6.449985],[-35.636958,-6.454532]]]},"properties":{"cod_ibge":"240910","name":"Passa e Fica","uf":"RN"}},
{"type":"Feature","geometry":{"type":"Polygon","coordinates":[[[-36.78961,-5.755142],[-36.837677,-5.736497],[-36.849099,-5.72422],[-36.893358,-5.711032],[-36.961413,-5.752413],[-36.96522,-5.773331],[-36.979974,-5.785155],[-36.977594,-5.813803],[-36.959034,-5.85382],[-36.938094,-5.870646],[-36.955226,-5.884288],[-36.973311,-5.912937],[-36.951419,-5.929762],[-36.936666,-5.968415],[-36.919057,-5.965687],[-36.893834,-5.974781],[-36.876225,-5.963868],[-36.818165,-5.912937],[-36.773429,-5.861096],[-36.775809,-5.80198],[-36.76867,-5.792885],[-36.78961,-5.755142]]]},"properties":{"cod_ibge":"241280","name":"São Rafael","uf":"RN"}},
{"type":"Feature","geometry":{"type":"Polygon","coordinates":[[[-36.367955,-5.250835],[-36.275628,-5.289488],[-36.276104,-5.20718],[-36.286574,-5.156704],[-36.288002,-5.124417],[-36.308466,-5.102135],[-36.331786,-5.087128],[-36.372238,-5.089402],[-36.406979,-5.080762],[-36.430775,-5.133057],[-36.367955,-5.250835]]]},"properties":{"cod_ibge":"240450","name":"Guamaré","uf":"RN"}},
{"type":"Feature","geometry":{"type":"Polygon","coordinates":[[[-38.465762,-6.121663],[-38.424358,-6.168046],[-38.408653,-6.17805],[-38.388664,-6.163044],[-38.373911,-6.167137],[-38.349164,-6.123481],[-38.339646,-6.077553],[-38.367724,-6.087557],[-38.382002,-6.053451],[-38.404845,-6.057089],[-38.432924,-6.078007],[-38.440539,-6.096652],[-38.465762,-6.121663]]]},"properties":{"cod_ibge":"240320","name":"Doutor Severiano","uf":"RN"}},
{"type":"Feature","geometry":{"type":"Polygon","coordinates":[[[-37.863737,-6.103928],[-37.837562,-6.120298],[-37.800917,-6.153494],[-37.809959,-6.113932],[-37.789019,-6.09074],[-37.81329,-6.080736],[-37.845652,-6.057089],[-37.832327,-6.0821],[-37.863737,-6.103928]]]},"properties":{"cod_ibge":"240690","name":"Lucrécia","uf":"RN"}},
{"type":"Feature","geometry":{"type":"Polygon","coordinates":[[[-35.044452,-6.284005],[-35.075386,-6.265815],[-35.10394,-6.270363],[-35.11679,-6.281731],[-35.117266,-6.334026],[-35.084428,-6.339938],[-35.055397,-6.32675],[-35.063488,-6.297647],[-35.044452,-6.284005]]]},"properties":{"cod_ibge":"241500","name":"Vila Flor","uf":"RN"}},
{"type":"Feature","geometry":{"type":"Polygon","coordinates":[[[-37.38878,-6.390869],[-37.395918,-6.419972],[-37.381165,-6.437252],[-37.318345,-6.454532],[-37.26076,-6.404511],[-37.219356,-6.368132],[-37.2165,-6.245352],[-37.22126,-6.233983],[-37.193181,-6.212156],[-37.163199,-6.201242],[-37.140831,-6.180779],[-37.127981,-6.158042],[-37.157012,-6.152585],[-37.174145,-6.180324],[-37.193657,-6.184417],[-37.201747,-6.205789],[-37.233633,-6.213065],[-37.251718,-6.226253],[-37.270754,-6.251718],[-37.273134,-6.279912],[-37.315014,-6.278093],[-37.33405,-6.308561],[-37.363556,-6.322203],[-37.377358,-6.344485],[-37.377358,-6.369496],[-37.38878,-6.390869]]]},"properties":{"cod_ibge":"240560","name":"Jardim de Piranhas","uf":"RN"}},
{"type":"Feature","geometry":{"type":"Polygon","coordinates":[[[-37.98081,-6.075734],[-37.954635,-6.02935],[-37.977003,-5.994335],[-37.982714,-5.968415],[-38.026498,-5.991152],[-38.04363,-6.008432],[-38.067426,-6.004794],[-38.086938,-6.014799],[-38.055528,-6.043902],[-38.067902,-6.076188],[-38.03316,-6.059818],[-38.02507,-6.083919],[-38.008889,-6.096197],[-37.98081,-6.075734]]]},"properties":{"cod_ibge":"241020","name":"Portalegre","uf":"RN"}},
{"type":"Feature","geometry":{"type":"Polygon","coordinates":[[[-35.296207,-5.958411],[-35.25052,-5.962049],[-35.246237,-5.954318],[-35.211972,-5.934764],[-35.182941,-5.937947],[-35.129639,-5.982057],[-35.121073,-5.981603],[-35.142965,-5.964777],[-35.152959,-5.947042],[-35.153911,-5.89793],[-35.176278,-5.899749],[-35.218158,-5.868372],[-35.253852,-5.865644],[-35.282406,-5.849728],[-35.296207,-5.958411]]]},"properties":{"cod_ibge":"240325","name":"Parnamirim","uf":"RN"}},
{"type":"Feature","geometry":{"type":"Polygon","coordinates":[[[-36.951419,-6.522289],[-36.934286,-6.514558],[-36.905256,-6.517287],[-36.880985,-6.527746],[-36.836249,-6.538659],[-36.808646,-6.533657],[-36.791038,-6.520924],[-36.761056,-6.515468],[-36.774381,-6.473177],[-36.802935,-6.463627],[-36.820068,-6.438616],[-36.874322,-6.418608],[-36.90478,-6.447711],[-36.957606,-6.491821],[-36.962841,-6.510011],[-36.951419,-6.522289]]]},"properties":{"cod_ibge":"241240","name":"São José do Seridó","uf":"RN"}},
{"type":"Feature","geometry":{"type":"Polygon","coordinates":[[[-35.544156,-6.417244],[-35.517505,-6.40633],[-35.447071,-6.405875],[-35.408998,-6.381319],[-35.400432,-6.341302],[-35.388534,-6.322658],[-35.425179,-6.319475],[-35.420896,-6.273091],[-35.436601,-6.253537],[-35.468487,-6.2308],[-35.468962,-6.273546],[-35.503228,-6.297647],[-35.525596,-6.284005],[-35.553198,-6.28446],[-35.564144,-6.296283],[-35.593651,-6.300375],[-35.609356,-6.315837],[-35.632199,-6.309016],[-35.643145,-6.325841],[-35.615542,-6.349942],[-35.596982,-6.385867],[-35.555102,-6.390869],[-35.544156,-6.417244]]]},"properties":{"cod_ibge":"241150","name":"Santo Antônio","uf":"RN"}},
{"type":"Feature","geometry":{"type":"Polygon","coordinates":[[[-37.195085,-5.823808],[-37.148921,-5.866553],[-37.130837,-5.87292],[-37.10133,-5.872465],[-37.035655,-5.891109],[-36.994251,-5.771512],[-37.021378,-5.755142],[-37.054691,-5.745592],[-37.104662,-5.656008],[-37.142735,-5.687386],[-37.177,-5.723765],[-37.203651,-5.725129],[-37.220784,-5.717398],[-37.225543,-5.789702],[-37.17938,-5.81926],[-37.195085,-5.823808]]]},"properties":{"cod_ibge":"240870","name":"Paraú","uf":"RN"}},
{"type":"Feature","geometry":{"type":"Polygon","coordinates":[[[-37.947021,-6.160315],[-37.895147,-6.153494],[-37.889436,-6.166682],[-37.870399,-6.146218],[-37.879918,-6.125755],[-37.858502,-6.123481],[-37.863737,-6.103928],[-37.832327,-6.0821],[-37.845652,-6.057089],[-37.861357,-6.030714],[-37.89705,-6.007977],[-37.933695,-6.00434],[-37.954635,-6.02935],[-37.98081,-6.075734],[-37.940834,-6.09938],[-37.937503,-6.108475],[-37.947021,-6.160315]]]},"properties":{"cod_ibge":"240740","name":"Martins","uf":"RN"}},
{"type":"Feature","geometry":{"type":"Polygon","coordinates":[[[-36.296568,-6.370405],[-36.265634,-6.379955],[-36.221375,-6.402692],[-36.177115,-6.407239],[-36.096686,-6.420427],[-36.096211,-6.419972],[-36.139518,-6.329934],[-36.153796,-6.299921],[-36.181398,-6.298102],[-36.239935,-6.310834],[-36.246122,-6.302194],[-36.272773,-6.307197],[-36.27896,-6.317656],[-36.27658,-6.340393],[-36.296568,-6.370405]]]},"properties":{"cod_ibge":"240280","name":"Coronel Ezequiel","uf":"RN"}},
{"type":"Feature","geometry":{"type":"Polygon","coordinates":[[[-35.966763,-5.901113],[-35.919172,-5.908389],[-35.904419,-5.896566],[-35.886811,-5.909299],[-35.851117,-5.913391],[-35.925359,-5.800161],[-35.981041,-5.803799],[-36.001029,-5.816987],[-36.013878,-5.835176],[-35.966763,-5.901113]]]},"properties":{"cod_ibge":"241110","name":"Ruy Barbosa","uf":"RN"}},
{"type":"Feature","geometry":{"type":"Polygon","coordinates":[[[-35.033506,-6.286278],[-35.035885,-6.235348],[-35.06206,-6.225798],[-35.078241,-6.211246],[-35.093946,-6.183507],[-35.110603,-6.187145],[-35.150103,-6.218067],[-35.155338,-6.267634],[-35.145344,-6.299011],[-35.11679,-6.281731],[-35.10394,-6.270363],[-35.075386,-6.265815],[-35.044452,-6.284005],[-35.033506,-6.286278]]]},"properties":{"cod_ibge":"241420","name":"Tibau do Sul","uf":"RN"}},
{"type":"Feature","geometry":{"type":"Polygon","coordinates":[[[-36.893834,-5.974781],[-36.919057,-5.965687],[-36.936666,-5.968415],[-36.951419,-5.929762],[-36.973311,-5.912937],[-36.955226,-5.884288],[-36.938094,-5.870646],[-36.959034,-5.85382],[-36.977594,-5.813803],[-37.00948,-5.836995],[-37.015191,-5.870646],[-37.035655,-5.891109],[-37.067065,-5.984786],[-37.12227,-5.954773],[-37.154632,-5.992516],[-37.162247,-6.021165],[-37.174145,-6.047995],[-37.171765,-6.101199],[-37.167006,-6.110294],[-37.175096,-6.142126],[-37.157012,-6.152585],[-37.127981,-6.158042],[-37.140831,-6.180779],[-37.130361,-6.209427],[-37.116084,-6.207608],[-37.097047,-6.231255],[-37.06992,-6.237621],[-37.062782,-6.218067],[-37.045649,-6.223979],[-37.003293,-6.221705],[-36.973787,-6.192602],[-36.95713,-6.190783],[-36.89193,-6.176686],[-36.89431,-6.145309],[-36.901925,-6.134395],[-36.924292,-6.132122],[-36.934286,-6.088921],[-36.899545,-6.085738],[-36.855285,-6.044357],[-36.849099,-6.010251],[-36.858617,-5.984786],[-36.893834,-5.974781]]]},"properties":{"cod_ibge":"240610","name":"Jucurutu","uf":"RN"}},
{"type":"Feature","geometry":{"type":"Polygon","coordinates":[[[-37.578667,-5.571427],[-37.562486,-5.492302],[-37.642915,-5.41636],[-37.761416,-5.577793],[-37.676229,-5.634636],[-37.578667,-5.571427]]]},"properties":{"cod_ibge":"240370","name":"Felipe Guerra","uf":"RN"}},
{"type":"Feature","geometry":{"type":"Polygon","coordinates":[[[-36.273725,-5.709213],[-36.306086,-5.707394],[-36.325599,-5.721491],[-36.356533,-5.717398],[-36.361768,-5.707849],[-36.42316,-5.705575],[-36.4441,-5.698754],[-36.479317,-5.703756],[-36.485504,-5.69739],[-36.524053,-5.699664],[-36.532619,-5.691023],[-36.567836,-5.757416],[-36.550228,-5.769239],[-36.5093,-5.756051],[-36.389371,-5.795159],[-36.356533,-5.848818],[-36.284671,-5.859277],[-36.273725,-5.709213]]]},"properties":{"cod_ibge":"240375","name":"Fernando Pedroza","uf":"RN"}},
{"type":"Feature","geometry":{"type":"Polygon","coordinates":[[[-35.349985,-6.224889],[-35.3576,-6.274001],[-35.36569,-6.290826],[-35.360455,-6.308106],[-35.342371,-6.315382],[-35.333328,-6.314018],[-35.323334,-6.271272],[-35.324762,-6.206244],[-35.319051,-6.190783],[-35.339515,-6.185326],[-35.349985,-6.224889]]]},"properties":{"cod_ibge":"240615","name":"Jundiá","uf":"RN"}},
{"type":"Feature","geometry":{"type":"Polygon","coordinates":[[[-35.358076,-6.249899],[-35.401383,-6.245352],[-35.405191,-6.263541],[-35.420896,-6.273091],[-35.425179,-6.319475],[-35.388534,-6.322658],[-35.358076,-6.249899]]]},"properties":{"cod_ibge":"240920","name":"Passagem","uf":"RN"}},
{"type":"Feature","geometry":{"type":"Polygon","coordinates":[[[-35.843503,-6.377681],[-35.844931,-6.402692],[-35.854449,-6.434524],[-35.838744,-6.452713],[-35.779731,-6.483181],[-35.773544,-6.482726],[-35.773068,-6.450894],[-35.764502,-6.418608],[-35.773544,-6.407694],[-35.843503,-6.377681]]]},"properties":{"cod_ibge":"240790","name":"Monte das Gameleiras","uf":"RN"}},
{"type":"Feature","geometry":{"type":"Polygon","coordinates":[[[-37.913231,-5.903387],[-37.917039,-5.852456],[-37.950828,-5.86337],[-37.987473,-5.885652],[-38.009365,-5.915665],[-38.045058,-5.935674],[-38.026498,-5.991152],[-37.982714,-5.968415],[-37.97034,-5.956592],[-37.921322,-5.959775],[-37.89705,-5.939766],[-37.913231,-5.903387]]]},"properties":{"cod_ibge":"241070","name":"Riacho da Cruz","uf":"RN"}},
{"type":"Feature","geometry":{"type":"Polygon","coordinates":[[[-36.679675,-6.579131],[-36.636367,-6.592319],[-36.587349,-6.584588],[-36.575451,-6.597776],[-36.550228,-6.608235],[-36.520721,-6.610508],[-36.513583,-6.594592],[-36.471703,-6.61642],[-36.460281,-6.63461],[-36.438389,-6.629153],[-36.442196,-6.56458],[-36.479317,-6.540024],[-36.481697,-6.52047],[-36.525956,-6.501371],[-36.528336,-6.479088],[-36.545469,-6.484091],[-36.581162,-6.474541],[-36.61162,-6.498642],[-36.679675,-6.579131]]]},"properties":{"cod_ibge":"240240","name":"Carnaúba dos Dantas","uf":"RN"}},
{"type":"Feature","geometry":{"type":"Polygon","coordinates":[[[-37.136548,-5.005275],[-37.131789,-5.030286],[-37.152729,-5.053932],[-37.152729,-5.076669],[-37.1375,-5.105318],[-37.111325,-5.124872],[-37.1118,-5.096678],[-37.050884,-5.096678],[-37.050884,-5.059844],[-37.028516,-5.059844],[-37.011384,-5.042564],[-37.011384,-5.022101],[-36.965696,-5.021646],[-36.966172,-4.985721],[-36.908111,-4.989814],[-36.899069,-4.977081],[-36.855761,-4.972534],[-36.878605,-4.950706],[-36.919057,-4.946614],[-36.959985,-4.91842],[-36.979022,-4.931607],[-37.003293,-4.929334],[-37.037083,-4.949797],[-37.05374,-4.946614],[-37.10371,-4.922512],[-37.138451,-4.947978],[-37.147494,-4.975262],[-37.133692,-4.988904],[-37.136548,-5.005275]]]},"properties":{"cod_ibge":"240110","name":"Areia Branca","uf":"RN"}},
{"type":"Feature","geometry":{"type":"Polygon","coordinates":[[[-35.285737,-6.205335],[-35.266701,-6.324477],[-35.272412,-6.370405],[-35.236243,-6.349487],[-35.198646,-6.359492],[-35.167236,-6.354035],[-35.167236,-6.322203],[-35.145344,-6.299011],[-35.155338,-6.267634],[-35.150103,-6.218067],[-35.169616,-6.21443],[-35.202453,-6.222615],[-35.231008,-6.242169],[-35.285737,-6.205335]]]},"properties":{"cod_ibge":"240420","name":"Goianinha","uf":"RN"}},
{"type":"Feature","geometry":{"type":"Polygon","coordinates":[[[-38.481467,-6.304468],[-38.488129,-6.283095],[-38.481467,-6.252173],[-38.448629,-6.221705],[-38.430544,-6.236257],[-38.418171,-6.218977],[-38.364869,-6.173048],[-38.349164,-6.123481],[-38.373911,-6.167137],[-38.388664,-6.163044],[-38.408653,-6.17805],[-38.424358,-6.168046],[-38.465762,-6.121663],[-38.47528,-6.157132],[-38.500979,-6.179869],[-38.527154,-6.193511],[-38.519539,-6.22307],[-38.528582,-6.238986],[-38.545714,-6.245352],[-38.554281,-6.263541],[-38.579028,-6.279003],[-38.570462,-6.2931],[-38.542383,-6.286278],[-38.492413,-6.295373],[-38.481467,-6.304468]]]},"properties":{"cod_ibge":"241250","name":"São Miguel","uf":"RN"}},
{"type":"Feature","geometry":{"type":"Polygon","coordinates":[[[-38.026498,-5.991152],[-38.045058,-5.935674],[-38.009365,-5.915665],[-37.987473,-5.885652],[-37.950828,-5.86337],[-38.00413,-5.857004],[-38.060287,-5.903842],[-38.102167,-5.923396],[-38.121679,-5.945678],[-38.114541,-5.95932],[-38.086938,-6.014799],[-38.067426,-6.004794],[-38.04363,-6.008432],[-38.026498,-5.991152]]]},"properties":{"cod_ibge":"241380","name":"Taboleiro Grande","uf":"RN"}},
{"type":"Feature","geometry":{"type":"Polygon","coordinates":[[[-35.61697,-5.113958],[-35.638862,-5.119415],[-35.697399,-5.10168],[-35.709772,-5.103044],[-35.791153,-5.077579],[-35.832081,-5.209908],[-35.840172,-5.234464],[-35.832081,-5.305858],[-35.762122,-5.29358],[-35.705489,-5.294035],[-35.695971,-5.271298],[-35.683122,-5.27721],[-35.653139,-5.225369],[-35.62982,-5.198994],[-35.61697,-5.113958]]]},"properties":{"cod_ibge":"241255","name":"São Miguel do Gostoso","uf":"RN"}},
{"type":"Feature","geometry":{"type":"Polygon","coordinates":[[[-36.139518,-6.329934],[-36.070511,-6.302194],[-36.054806,-6.309016],[-36.033866,-6.299466],[-35.965336,-6.470903],[-35.96486,-6.387686],[-35.927263,-6.372679],[-35.907275,-6.352671],[-35.87063,-6.362675],[-35.918221,-6.162589],[-35.966763,-6.171684],[-35.987227,-6.143035],[-35.981041,-6.124391],[-35.986276,-6.098471],[-36.031963,-6.069367],[-36.080506,-6.102109],[-36.07765,-6.19624],[-36.133807,-6.210792],[-36.153796,-6.299921],[-36.139518,-6.329934]]]},"properties":{"cod_ibge":"241120","name":"Santa Cruz","uf":"RN"}},
{"type":"Feature","geometry":{"type":"Polygon","coordinates":[[[-35.443739,-6.140762],[-35.465631,-6.121663],[-35.500372,-6.112113],[-35.531782,-6.09165],[-35.541777,-6.097107],[-35.53559,-6.142126],[-35.550343,-6.199878],[-35.527023,-6.201242],[-35.499897,-6.179869],[-35.445643,-6.153949],[-35.443739,-6.140762]]]},"properties":{"cod_ibge":"240660","name":"Lagoa Salgada","uf":"RN"}},
{"type":"Feature","geometry":{"type":"Polygon","coordinates":[[[-35.550343,-6.199878],[-35.53559,-6.142126],[-35.541777,-6.097107],[-35.531782,-6.09165],[-35.545584,-6.055725],[-35.546536,-6.053906],[-35.557957,-6.04663],[-35.570807,-6.079372],[-35.588892,-6.096652],[-35.638386,-6.137578],[-35.653615,-6.177141],[-35.68217,-6.168046],[-35.721194,-6.173048],[-35.740707,-6.182598],[-35.689308,-6.195785],[-35.663133,-6.198059],[-35.659802,-6.22216],[-35.621729,-6.205335],[-35.591747,-6.211701],[-35.567952,-6.205789],[-35.550343,-6.199878]]]},"properties":{"cod_ibge":"240530","name":"Januário Cicco","uf":"RN"}},
{"type":"Feature","geometry":{"type":"Polygon","coordinates":[[[-37.772362,-6.002066],[-37.740952,-6.01298],[-37.72144,-6.041173],[-37.700976,-6.050723],[-37.672421,-6.047995],[-37.674325,-6.017527],[-37.657192,-5.992062],[-37.648626,-5.941131],[-37.712874,-5.918848],[-37.756657,-5.940221],[-37.77379,-5.961594],[-37.766175,-5.99388],[-37.772362,-6.002066]]]},"properties":{"cod_ibge":"240840","name":"Olho d'Água do Borges","uf":"RN"}},
{"type":"Feature","geometry":{"type":"Polygon","coordinates":[[[-35.28193,-5.829265],[-35.308581,-5.83654],[-35.379016,-5.843361],[-35.431842,-5.84518],[-35.471818,-5.834721],[-35.488951,-5.831083],[-35.528927,-5.882014],[-35.572235,-5.932491],[-35.555578,-5.948406],[-35.537493,-5.995699],[-35.557957,-6.04663],[-35.546536,-6.053906],[-35.373305,-5.987514],[-35.341419,-5.972962],[-35.329997,-5.974327],[-35.296207,-5.958411],[-35.282406,-5.849728],[-35.28193,-5.829265]]]},"properties":{"cod_ibge":"240710","name":"Macaíba","uf":"RN"}},
{"type":"Feature","geometry":{"type":"Polygon","coordinates":[[[-36.838153,-5.392259],[-36.537378,-5.412722],[-36.555463,-5.394988],[-36.664446,-5.372251],[-36.754393,-5.272662],[-36.775333,-5.290852],[-36.780568,-5.309951],[-36.811026,-5.344511],[-36.816737,-5.369522],[-36.84196,-5.374524],[-36.838153,-5.392259]]]},"properties":{"cod_ibge":"240070","name":"Alto do Rodrigues","uf":"RN"}},
{"type":"Feature","geometry":{"type":"Polygon","coordinates":[[[-37.26076,-6.404511],[-37.318345,-6.454532],[-37.260284,-6.523653],[-37.254097,-6.545026],[-37.230778,-6.569582],[-37.216976,-6.559577],[-37.213645,-6.527291],[-37.199844,-6.514558],[-37.20603,-6.499552],[-37.19556,-6.446802],[-37.188422,-6.439071],[-37.220308,-6.430431],[-37.26076,-6.404511]]]},"properties":{"cod_ibge":"241430","name":"Timbaúba dos Batistas","uf":"RN"}},
{"type":"Feature","geometry":{"type":"Polygon","coordinates":[[[-36.895262,-6.23944],[-36.860996,-6.263087],[-36.837677,-6.269908],[-36.814357,-6.303559],[-36.772953,-6.298556],[-36.753917,-6.320384],[-36.743447,-6.307651],[-36.734881,-6.279912],[-36.721555,-6.262177],[-36.703471,-6.220796],[-36.785327,-6.196695],[-36.762959,-6.180779],[-36.753917,-6.163499],[-36.729646,-6.149856],[-36.732025,-6.106656],[-36.719651,-6.095288],[-36.719651,-6.072096],[-36.731073,-6.056635],[-36.766766,-6.05618],[-36.793417,-6.040264],[-36.812454,-6.053451],[-36.855285,-6.044357],[-36.899545,-6.085738],[-36.934286,-6.088921],[-36.924292,-6.132122],[-36.901925,-6.134395],[-36.89431,-6.145309],[-36.89193,-6.176686],[-36.95713,-6.190783],[-36.927148,-6.215794],[-36.923816,-6.238986],[-36.895262,-6.23944]]]},"properties":{"cod_ibge":"240380","name":"Florânia","uf":"RN"}},
{"type":"Feature","geometry":{"type":"Polygon","coordinates":[[[-36.604481,-6.290371],[-36.606861,-6.278548],[-36.591632,-6.247626],[-36.599246,-6.216248],[-36.618759,-6.192147],[-36.615427,-6.174867],[-36.627801,-6.155313],[-36.62209,-6.131667],[-36.638747,-6.088921],[-36.6535,-6.111658],[-36.683006,-6.127574],[-36.700615,-6.145309],[-36.713465,-6.205335],[-36.703471,-6.220796],[-36.721555,-6.262177],[-36.734881,-6.279912],[-36.743447,-6.307651],[-36.71632,-6.30083],[-36.710133,-6.278093],[-36.681579,-6.269908],[-36.662542,-6.278548],[-36.632084,-6.268544],[-36.626373,-6.285369],[-36.604481,-6.290371]]]},"properties":{"cod_ibge":"241300","name":"São Vicente","uf":"RN"}},
{"type":"Feature","geometry":{"type":"Polygon","coordinates":[[[-36.223278,-5.434095],[-36.275628,-5.289488],[-36.367955,-5.250835],[-36.380328,-5.271298],[-36.38128,-5.314953],[-36.410311,-5.334052],[-36.439817,-5.369977],[-36.469799,-5.598256],[-36.307038,-5.650097],[-36.268966,-5.68011],[-36.262303,-5.68011],[-36.179495,-5.47775],[-36.223278,-5.434095]]]},"properties":{"cod_ibge":"240970","name":"Pedro Avelino","uf":"RN"}},
{"type":"Feature","geometry":{"type":"Polygon","coordinates":[[[-38.272067,-6.222615],[-38.279681,-6.237621],[-38.301573,-6.241259],[-38.35773,-6.217613],[-38.379146,-6.262632],[-38.408653,-6.293554],[-38.396279,-6.318565],[-38.394375,-6.34494],[-38.331079,-6.328569],[-38.333459,-6.311744],[-38.317278,-6.289916],[-38.297766,-6.278093],[-38.247795,-6.289916],[-38.258741,-6.275819],[-38.249223,-6.249445],[-38.272067,-6.222615]]]},"properties":{"cod_ibge":"241080","name":"Riacho de Santana","uf":"RN"}},
{"type":"Feature","geometry":{"type":"Polygon","coordinates":[[[-37.05136,-5.294035],[-37.029468,-5.325867],[-36.928575,-5.353606],[-36.856237,-5.400899],[-36.838629,-5.403628],[-36.838153,-5.392259],[-36.84196,-5.374524],[-36.816737,-5.369522],[-36.811026,-5.344511],[-36.780568,-5.309951],[-36.775333,-5.290852],[-36.754393,-5.272662],[-36.725838,-5.262203],[-36.725838,-5.229462],[-36.715368,-5.214456],[-36.72917,-5.174893],[-36.748682,-5.152156],[-36.797225,-5.174439],[-36.827207,-5.170346],[-36.902876,-5.149883],[-36.930003,-5.131238],[-36.9281,-5.29358],[-37.05136,-5.294035]]]},"properties":{"cod_ibge":"240250","name":"Carnaubais","uf":"RN"}},
{"type":"Feature","geometry":{"type":"Polygon","coordinates":[[[-35.110603,-6.187145],[-35.157242,-6.148037],[-35.175327,-6.164863],[-35.220062,-6.170774],[-35.237671,-6.164863],[-35.259562,-6.17032],[-35.298111,-6.161225],[-35.285737,-6.205335],[-35.231008,-6.242169],[-35.202453,-6.222615],[-35.169616,-6.21443],[-35.150103,-6.218067],[-35.110603,-6.187145]]]},"properties":{"cod_ibge":"240120","name":"Arês","uf":"RN"}},
{"type":"Feature","geometry":{"type":"Polygon","coordinates":[[[-35.631723,-5.714215],[-35.557482,-5.721036],[-35.551771,-5.703301],[-35.547963,-5.688295],[-35.494662,-5.666013],[-35.51227,-5.650097],[-35.521312,-5.577793],[-35.5018,-5.492302],[-35.537493,-5.512311],[-35.565096,-5.493666],[-35.578422,-5.498668],[-35.597934,-5.487755],[-35.625537,-5.492302],[-35.668368,-5.496395],[-35.658374,-5.586433],[-35.641242,-5.629179],[-35.631723,-5.714215]]]},"properties":{"cod_ibge":"241390","name":"Taipu","uf":"RN"}}
]}