{"type":"FeatureCollection", "features": [
{"type":"Feature","geometry":{"type":"Polygon","coordinates":[[[-49.7172,-27.14385],[-49.74243,-27.14567],[-49.80239,-27.24844],[-49.77812,-27.25208],[-49.69103,-27.2448],[-49.7172,-27.14385]]]},"properties":{"cod_ibge":"420950","name":"Laurentino","uf":"SC"}},
{"type":"Feature","geometry":{"type":"Polygon","coordinates":[[[-48.68163,-26.71821],[-48.66497,-26.58088],[-48.74111,-26.55996],[-48.80155,-26.68138],[-48.8006,-26.71321],[-48.68163,-26.71821]]]},"properties":{"cod_ibge":"420210","name":"Barra Velha","uf":"SC"}},
{"type":"Feature","geometry":{"type":"Polygon","coordinates":[[[-50.31542,-27.07564],[-50.0037,-27.21297],[-49.93327,-27.18932],[-49.87616,-27.02062],[-49.89615,-26.99697],[-49.94612,-26.9947],[-50.06747,-27.03289],[-50.29067,-26.96969],[-50.31542,-27.07564]]]},"properties":{"cod_ibge":"421780","name":"Taió","uf":"SC"}},
{"type":"Feature","geometry":{"type":"Polygon","coordinates":[[[-53.67534,-26.89283],[-53.57587,-26.89556],[-53.60633,-26.81826],[-53.67724,-26.84372],[-53.67534,-26.89283]]]},"properties":{"cod_ibge":"420215","name":"Belmonte","uf":"SC"}},
{"type":"Feature","geometry":{"type":"Polygon","coordinates":[[[-53.11186,-26.92467],[-53.11567,-26.81553],[-53.1209,-26.80871],[-53.24131,-26.81325],[-53.28509,-26.92376],[-53.19086,-26.95104],[-53.14327,-26.94377],[-53.11186,-26.92467]]]},"properties":{"cod_ibge":"420470","name":"Cunha Porã","uf":"SC"}},
{"type":"Feature","geometry":{"type":"Polygon","coordinates":[[[-50.40013,-26.34442],[-50.53672,-26.25392],[-50.58241,-26.37443],[-50.52958,-26.60862],[-50.49246,-26.64273],[-50.40013,-26.34442]]]},"properties":{"cod_ibge":"420213","name":"Bela Vista do Toldo","uf":"SC"}},
{"type":"Feature","geometry":{"type":"Polygon","coordinates":[[[-50.87509,-28.04151],[-50.65474,-27.98603],[-50.60525,-27.83278],[-50.63952,-27.71455],[-50.87509,-27.60223],[-50.87842,-27.86552],[-50.97836,-27.94829],[-50.87509,-28.04151]]]},"properties":{"cod_ibge":"420340","name":"Campo Belo do Sul","uf":"SC"}},
{"type":"Feature","geometry":{"type":"Polygon","coordinates":[[[-48.64212,-26.91284],[-48.75967,-26.85509],[-48.84296,-26.96377],[-48.8658,-27.00334],[-48.78918,-27.09701],[-48.68305,-26.97287],[-48.62832,-26.96014],[-48.64212,-26.91284]]]},"properties":{"cod_ibge":"420820","name":"Itajaí","uf":"SC"}},
{"type":"Feature","geometry":{"type":"Polygon","coordinates":[[[-48.86009,-26.56269],[-49.05093,-26.5154],[-49.11423,-26.61317],[-49.03618,-26.77233],[-48.85628,-26.63454],[-48.86009,-26.56269]]]},"properties":{"cod_ibge":"421060","name":"Massaranduba","uf":"SC"}},
{"type":"Feature","geometry":{"type":"Polygon","coordinates":[[[-52.39086,-27.09065],[-52.24666,-27.03699],[-52.23381,-26.9474],[-52.33803,-26.94467],[-52.41894,-27.00652],[-52.39086,-27.09065]]]},"properties":{"cod_ibge":"421960","name":"Xavantina","uf":"SC"}},
{"type":"Feature","geometry":{"type":"Polygon","coordinates":[[[-49.1899,-28.38938],[-49.22131,-28.43304],[-49.25272,-28.58856],[-49.2451,-28.59038],[-49.2432,-28.58992],[-49.18038,-28.49807],[-49.13755,-28.41394],[-49.1899,-28.38938]]]},"properties":{"cod_ibge":"421240","name":"Pedras Grandes","uf":"SC"}},
{"type":"Feature","geometry":{"type":"Polygon","coordinates":[[[-50.21976,-26.81416],[-50.19549,-26.4481],[-50.26926,-26.44355],[-50.23452,-26.50767],[-50.42012,-26.64227],[-50.41251,-26.72958],[-50.2545,-26.86328],[-50.21976,-26.81416]]]},"properties":{"cod_ibge":"421110","name":"Monte Castelo","uf":"SC"}},
{"type":"Feature","geometry":{"type":"Polygon","coordinates":[[[-49.46878,-27.00515],[-49.31744,-27.02198],[-49.31601,-26.95923],[-49.42975,-26.91512],[-49.46545,-26.94013],[-49.46878,-27.00515]]]},"properties":{"cod_ibge":"420170","name":"Ascurra","uf":"SC"}},
{"type":"Feature","geometry":{"type":"Polygon","coordinates":[[[-53.10806,-27.03108],[-53.04666,-26.96787],[-53.11186,-26.92467],[-53.14327,-26.94377],[-53.10806,-27.03108]]]},"properties":{"cod_ibge":"420475","name":"Cunhataí","uf":"SC"}},
{"type":"Feature","geometry":{"type":"Polygon","coordinates":[[[-48.83201,-26.53086],[-48.83915,-26.44082],[-49.00382,-26.38898],[-49.02856,-26.45719],[-49.05093,-26.5154],[-48.86009,-26.56269],[-48.83201,-26.53086]]]},"properties":{"cod_ibge":"420650","name":"Guaramirim","uf":"SC"}},
{"type":"Feature","geometry":{"type":"Polygon","coordinates":[[[-51.53946,-27.28255],[-51.45855,-27.34348],[-51.32578,-27.26117],[-51.52946,-27.24526],[-51.53946,-27.28255]]]},"properties":{"cod_ibge":"420520","name":"Erval Velho","uf":"SC"}},
{"type":"Feature","geometry":{"type":"Polygon","coordinates":[[[-50.26831,-26.04292],[-50.36587,-26.11205],[-50.29591,-26.28712],[-50.28496,-26.30849],[-50.15314,-26.2089],[-50.18978,-26.07021],[-50.26831,-26.04292]]]},"properties":{"cod_ibge":"421830","name":"Três Barras","uf":"SC"}},
{"type":"Feature","geometry":{"type":"Polygon","coordinates":[[[-51.99395,-27.11884],[-51.87497,-27.12157],[-51.83119,-27.08564],[-51.80216,-27.04062],[-51.82643,-26.9233],[-52.01251,-26.94786],[-51.99395,-27.11884]]]},"properties":{"cod_ibge":"420780","name":"Irani","uf":"SC"}},
{"type":"Feature","geometry":{"type":"Polygon","coordinates":[[[-49.10518,-28.35846],[-49.20037,-28.28843],[-49.1899,-28.38938],[-49.13755,-28.41394],[-49.10138,-28.36255],[-49.10518,-28.35846]]]},"properties":{"cod_ibge":"421700","name":"São Ludgero","uf":"SC"}},
{"type":"Feature","geometry":{"type":"Polygon","coordinates":[[[-52.94054,-26.61408],[-52.9196,-26.67274],[-52.84488,-26.66956],[-52.83964,-26.59316],[-52.92578,-26.58088],[-52.94054,-26.61408]]]},"properties":{"cod_ibge":"420785","name":"Irati","uf":"SC"}},
{"type":"Feature","geometry":{"type":"Polygon","coordinates":[[[-49.58538,-27.08746],[-49.7172,-27.14385],[-49.69103,-27.2448],[-49.68151,-27.29119],[-49.52732,-27.27209],[-49.59204,-27.12793],[-49.58538,-27.08746]]]},"properties":{"cod_ibge":"421480","name":"Rio do Sul","uf":"SC"}},
{"type":"Feature","geometry":{"type":"Polygon","coordinates":[[[-48.50792,-27.11065],[-48.58549,-27.14476],[-48.69019,-27.14158],[-48.60262,-27.21797],[-48.57835,-27.21161],[-48.50792,-27.11065]]]},"properties":{"cod_ibge":"421350","name":"Porto Belo","uf":"SC"}},
{"type":"Feature","geometry":{"type":"Polygon","coordinates":[[[-48.73826,-27.61451],[-48.60262,-27.66271],[-48.57597,-27.51719],[-48.72303,-27.5372],[-48.72731,-27.55357],[-48.74587,-27.61542],[-48.73826,-27.61451]]]},"properties":{"cod_ibge":"421660","name":"São José","uf":"SC"}},
{"type":"Feature","geometry":{"type":"Polygon","coordinates":[[[-49.32981,-28.86504],[-49.20513,-28.77637],[-49.17419,-28.69906],[-49.17609,-28.68451],[-49.24367,-28.67451],[-49.33267,-28.67905],[-49.35171,-28.85504],[-49.32981,-28.86504]]]},"properties":{"cod_ibge":"420700","name":"Içara","uf":"SC"}},
{"type":"Feature","geometry":{"type":"Polygon","coordinates":[[[-49.95087,-26.92739],[-49.96944,-26.86919],[-50.06747,-27.03289],[-49.94612,-26.9947],[-49.95087,-26.92739]]]},"properties":{"cod_ibge":"421530","name":"Salete","uf":"SC"}},
{"type":"Feature","geometry":{"type":"Polygon","coordinates":[[[-49.56967,-28.50261],[-49.42214,-28.53672],[-49.42785,-28.45896],[-49.53541,-28.43622],[-49.56967,-28.50261]]]},"properties":{"cod_ibge":"421835","name":"Treviso","uf":"SC"}},
{"type":"Feature","geometry":{"type":"Polygon","coordinates":[[[-51.51519,-26.93558],[-51.50995,-26.83963],[-51.43666,-26.856],[-51.41192,-26.72094],[-51.41144,-26.7173],[-51.51186,-26.58179],[-51.82405,-26.58179],[-51.7836,-26.7596],[-51.72459,-26.84645],[-51.63321,-26.94331],[-51.61846,-27.04108],[-51.60038,-27.05154],[-51.45665,-27.06973],[-51.46236,-27.02789],[-51.51519,-26.93558]]]},"properties":{"cod_ibge":"420040","name":"Água Doce","uf":"SC"}},
{"type":"Feature","geometry":{"type":"Polygon","coordinates":[[[-49.42975,-26.91512],[-49.33029,-26.8078],[-49.33505,-26.74595],[-49.48829,-26.66001],[-49.44831,-26.71458],[-49.54873,-26.85645],[-49.54397,-26.89192],[-49.46545,-26.94013],[-49.42975,-26.91512]]]},"properties":{"cod_ibge":"420220","name":"Benedito Novo","uf":"SC"}},
{"type":"Feature","geometry":{"type":"Polygon","coordinates":[[[-53.11377,-26.62954],[-53.06332,-26.64364],[-52.99812,-26.635],[-52.94054,-26.61408],[-52.92578,-26.58088],[-52.94625,-26.56724],[-53.01858,-26.53132],[-53.12328,-26.57315],[-53.11377,-26.62954]]]},"properties":{"cod_ibge":"421535","name":"Saltinho","uf":"SC"}},
{"type":"Feature","geometry":{"type":"Polygon","coordinates":[[[-48.58549,-27.14476],[-48.5893,-27.06109],[-48.61119,-27.04836],[-48.69019,-27.14158],[-48.58549,-27.14476]]]},"properties":{"cod_ibge":"420830","name":"Itapema","uf":"SC"}},
{"type":"Feature","geometry":{"type":"Polygon","coordinates":[[[-49.33552,-28.41803],[-49.36075,-28.34118],[-49.52303,-28.30708],[-49.53541,-28.43622],[-49.42785,-28.45896],[-49.33552,-28.41803]]]},"properties":{"cod_ibge":"420960","name":"Lauro Müller","uf":"SC"}},
{"type":"Feature","geometry":{"type":"Polygon","coordinates":[[[-51.32149,-27.15158],[-51.23345,-27.13885],[-51.11257,-27.23889],[-51.03642,-27.23343],[-50.92982,-27.11884],[-51.00882,-27.1202],[-51.1573,-27.08974],[-51.29913,-27.05745],[-51.32149,-27.15158]]]},"properties":{"cod_ibge":"421790","name":"Tangará","uf":"SC"}},
{"type":"Feature","geometry":{"type":"Polygon","coordinates":[[[-51.00977,-26.49357],[-50.9855,-26.4049],[-51.27057,-26.38671],[-51.22203,-26.59361],[-51.14208,-26.6018],[-51.00977,-26.49357]]]},"properties":{"cod_ibge":"421070","name":"Matos Costa","uf":"SC"}},
{"type":"Feature","geometry":{"type":"Polygon","coordinates":[[[-52.58646,-27.03062],[-52.50889,-27.09383],[-52.45273,-26.99515],[-52.47034,-26.85691],[-52.62072,-26.86464],[-52.61501,-26.93422],[-52.58646,-27.03062]]]},"properties":{"cod_ibge":"421970","name":"Xaxim","uf":"SC"}},
{"type":"Feature","geometry":{"type":"Polygon","coordinates":[[[-50.75421,-27.42215],[-50.56956,-27.50401],[-50.48675,-27.45853],[-50.4639,-27.36667],[-50.50198,-27.21843],[-50.52625,-27.1202],[-50.65808,-27.08701],[-50.70757,-27.10065],[-50.699,-27.13703],[-50.76516,-27.30574],[-50.75421,-27.42215]]]},"properties":{"cod_ibge":"420480","name":"Curitibanos","uf":"SC"}},
{"type":"Feature","geometry":{"type":"Polygon","coordinates":[[[-52.95767,-26.75459],[-53.0419,-26.81416],[-52.94767,-26.88147],[-52.90579,-26.86191],[-52.91912,-26.84645],[-52.93244,-26.77688],[-52.95767,-26.75459]]]},"properties":{"cod_ibge":"421290","name":"Pinhalzinho","uf":"SC"}},
{"type":"Feature","geometry":{"type":"Polygon","coordinates":[[[-49.58538,-27.08746],[-49.60108,-27.01107],[-49.69008,-26.92467],[-49.69722,-27.04335],[-49.84475,-27.02334],[-49.74243,-27.14567],[-49.7172,-27.14385],[-49.58538,-27.08746]]]},"properties":{"cod_ibge":"421400","name":"Presidente Getúlio","uf":"SC"}},
{"type":"Feature","geometry":{"type":"Polygon","coordinates":[[[-49.47639,-28.7127],[-49.45165,-28.63403],[-49.68532,-28.62085],[-49.70293,-28.62903],[-49.70435,-28.62994],[-49.67009,-28.75363],[-49.59537,-28.77591],[-49.47639,-28.7127]]]},"properties":{"cod_ibge":"421160","name":"Nova Veneza","uf":"SC"}},
{"type":"Feature","geometry":{"type":"Polygon","coordinates":[[[-53.0281,-26.37034],[-53.15993,-26.35078],[-53.28319,-26.45219],[-53.23893,-26.54314],[-53.22275,-26.57906],[-53.12328,-26.57315],[-53.01858,-26.53132],[-52.96766,-26.44082],[-52.93768,-26.36215],[-53.0281,-26.37034]]]},"properties":{"cod_ibge":"420350","name":"Campo Erê","uf":"SC"}},
{"type":"Feature","geometry":{"type":"Polygon","coordinates":[[[-53.58349,-26.41308],[-53.54066,-26.42718],[-53.40264,-26.42763],[-53.39408,-26.36624],[-53.58349,-26.41308]]]},"properties":{"cod_ibge":"420660","name":"Guarujá do Sul","uf":"SC"}},
{"type":"Feature","geometry":{"type":"Polygon","coordinates":[[[-52.15433,-26.92648],[-52.19812,-26.79552],[-52.12292,-26.72503],[-52.18527,-26.71276],[-52.36183,-26.75914],[-52.35517,-26.78461],[-52.33803,-26.94467],[-52.23381,-26.9474],[-52.15433,-26.92648]]]},"properties":{"cod_ibge":"420530","name":"Faxinal dos Guedes","uf":"SC"}},
{"type":"Feature","geometry":{"type":"Polygon","coordinates":[[[-53.13661,-26.63954],[-53.20514,-26.64227],[-53.19372,-26.69866],[-53.12852,-26.72049],[-53.13661,-26.63954]]]},"properties":{"cod_ibge":"421795","name":"Tigrinhos","uf":"SC"}},
{"type":"Feature","geometry":{"type":"Polygon","coordinates":[[[-53.51972,-27.08155],[-53.5873,-27.00925],[-53.64345,-27.04381],[-53.54827,-27.15613],[-53.51972,-27.08155]]]},"properties":{"cod_ibge":"421625","name":"São João do Oeste","uf":"SC"}},
{"type":"Feature","geometry":{"type":"Polygon","coordinates":[[[-50.26926,-26.44355],[-50.28496,-26.30849],[-50.29591,-26.28712],[-50.40013,-26.34442],[-50.49246,-26.64273],[-50.49246,-26.64818],[-50.41251,-26.72958],[-50.42012,-26.64227],[-50.23452,-26.50767],[-50.26926,-26.44355]]]},"properties":{"cod_ibge":"421030","name":"Major Vieira","uf":"SC"}},
{"type":"Feature","geometry":{"type":"Polygon","coordinates":[[[-52.75541,-26.45446],[-52.76064,-26.58679],[-52.74874,-26.59498],[-52.70686,-26.58361],[-52.74494,-26.50585],[-52.74065,-26.46265],[-52.75541,-26.45446]]]},"properties":{"cod_ibge":"421165","name":"Novo Horizonte","uf":"SC"}},
{"type":"Feature","geometry":{"type":"Polygon","coordinates":[[[-51.1573,-27.08974],[-51.00882,-27.1202],[-51.04547,-26.98651],[-51.15968,-26.95422],[-51.19205,-26.85145],[-51.28437,-26.87374],[-51.28199,-26.87828],[-51.28294,-26.9233],[-51.19633,-27.0288],[-51.1573,-27.08974]]]},"properties":{"cod_ibge":"421930","name":"Videira","uf":"SC"}},
{"type":"Feature","geometry":{"type":"Polygon","coordinates":[[[-53.30603,-26.72094],[-53.36505,-26.76596],[-53.38884,-26.77096],[-53.3955,-26.80689],[-53.29556,-26.78461],[-53.28747,-26.73504],[-53.30603,-26.72094]]]},"properties":{"cod_ibge":"420535","name":"Flor do Sertão","uf":"SC"}},
{"type":"Feature","geometry":{"type":"Polygon","coordinates":[[[-52.78539,-27.20615],[-52.72209,-27.04017],[-52.83964,-27.04426],[-52.85202,-27.11247],[-52.85106,-27.17023],[-52.80109,-27.20342],[-52.78539,-27.20615]]]},"properties":{"cod_ibge":"420665","name":"Guatambú","uf":"SC"}},
{"type":"Feature","geometry":{"type":"Polygon","coordinates":[[[-49.82857,-26.70639],[-49.94992,-26.8078],[-49.96944,-26.86919],[-49.95087,-26.92739],[-49.76955,-26.88874],[-49.75052,-26.78506],[-49.82857,-26.70639]]]},"properties":{"cod_ibge":"421935","name":"Vitor Meireles","uf":"SC"}},
{"type":"Feature","geometry":{"type":"Polygon","coordinates":[[[-49.10328,-28.59311],[-49.02999,-28.54991],[-49.18038,-28.49807],[-49.2432,-28.58992],[-49.18181,-28.64131],[-49.10328,-28.59311]]]},"properties":{"cod_ibge":"421840","name":"Treze de Maio","uf":"SC"}},
{"type":"Feature","geometry":{"type":"Polygon","coordinates":[[[-50.89984,-26.28939],[-50.79752,-26.50812],[-50.699,-26.50039],[-50.63904,-26.37761],[-50.70329,-26.18799],[-50.89984,-26.28939]]]},"properties":{"cod_ibge":"420790","name":"Irineópolis","uf":"SC"}},
{"type":"Feature","geometry":{"type":"Polygon","coordinates":[[[-49.48353,-26.4199],[-49.4031,-26.34942],[-49.23082,-26.39717],[-49.16896,-26.30804],[-49.25224,-26.26802],[-49.42928,-26.1698],[-49.48591,-26.18526],[-49.48734,-26.19435],[-49.48353,-26.4199]]]},"properties":{"cod_ibge":"421580","name":"São Bento do Sul","uf":"SC"}},
{"type":"Feature","geometry":{"type":"Polygon","coordinates":[[[-53.10806,-27.03108],[-53.14327,-26.94377],[-53.19086,-26.95104],[-53.29604,-27.13248],[-53.32269,-27.20979],[-53.18753,-27.19205],[-53.07665,-27.10793],[-53.10806,-27.03108]]]},"properties":{"cod_ibge":"421210","name":"Palmitos","uf":"SC"}},
{"type":"Feature","geometry":{"type":"Polygon","coordinates":[[[-51.67652,-27.11657],[-51.61846,-27.04108],[-51.63321,-26.94331],[-51.80216,-27.04062],[-51.83119,-27.08564],[-51.67652,-27.11657]]]},"properties":{"cod_ibge":"420400","name":"Catanduvas","uf":"SC"}},
{"type":"Feature","geometry":{"type":"Polygon","coordinates":[[[-49.01714,-27.16477],[-49.1385,-27.13248],[-49.15468,-27.11975],[-49.21084,-27.15749],[-49.22178,-27.23116],[-49.22178,-27.30892],[-49.01952,-27.25617],[-49.01714,-27.16477]]]},"properties":{"cod_ibge":"420270","name":"Botuverá","uf":"SC"}},
{"type":"Feature","geometry":{"type":"Polygon","coordinates":[[[-49.56586,-29.05876],[-49.37693,-28.95645],[-49.29031,-28.88323],[-49.32981,-28.86504],[-49.35171,-28.85504],[-49.39787,-28.83367],[-49.51351,-28.89187],[-49.53398,-28.91734],[-49.60536,-28.9519],[-49.62345,-29.01784],[-49.56586,-29.05876]]]},"properties":{"cod_ibge":"420140","name":"Araranguá","uf":"SC"}},
{"type":"Feature","geometry":{"type":"Polygon","coordinates":[[[-50.29067,-26.96969],[-50.06747,-27.03289],[-49.96944,-26.86919],[-49.94992,-26.8078],[-50.08603,-26.81007],[-50.21976,-26.81416],[-50.2545,-26.86328],[-50.29067,-26.96969]]]},"properties":{"cod_ibge":"421450","name":"Rio do Campo","uf":"SC"}},
{"type":"Feature","geometry":{"type":"Polygon","coordinates":[[[-49.19799,-26.83645],[-49.12755,-26.83281],[-49.12993,-26.63545],[-49.22321,-26.62044],[-49.21417,-26.75505],[-49.20703,-26.83053],[-49.19799,-26.83645]]]},"properties":{"cod_ibge":"421320","name":"Pomerode","uf":"SC"}},
{"type":"Feature","geometry":{"type":"Polygon","coordinates":[[[-48.59501,-27.3162],[-48.60262,-27.21797],[-48.69019,-27.14158],[-48.79917,-27.15522],[-48.74445,-27.30665],[-48.79346,-27.35303],[-48.6269,-27.32484],[-48.59501,-27.3162]]]},"properties":{"cod_ibge":"421800","name":"Tijucas","uf":"SC"}},
{"type":"Feature","geometry":{"type":"Polygon","coordinates":[[[-50.84606,-26.87283],[-50.70757,-27.10065],[-50.65808,-27.08701],[-50.58717,-26.86146],[-50.52672,-26.78097],[-50.70234,-26.66092],[-50.80656,-26.655],[-50.7999,-26.76869],[-50.84606,-26.87283]]]},"properties":{"cod_ibge":"420970","name":"Lebon Régis","uf":"SC"}},
{"type":"Feature","geometry":{"type":"Polygon","coordinates":[[[-52.46463,-26.56997],[-52.39324,-26.68365],[-52.3704,-26.66956],[-52.18527,-26.71276],[-52.12292,-26.72503],[-52.06724,-26.6782],[-52.02917,-26.54678],[-52.15862,-26.46629],[-52.44273,-26.43809],[-52.46463,-26.56997]]]},"properties":{"cod_ibge":"420010","name":"Abelardo Luz","uf":"SC"}},
{"type":"Feature","geometry":{"type":"Polygon","coordinates":[[[-51.31769,-27.0188],[-51.19633,-27.0288],[-51.28294,-26.9233],[-51.35148,-26.98105],[-51.33434,-27.02016],[-51.31769,-27.0188]]]},"properties":{"cod_ibge":"420757","name":"Iomerê","uf":"SC"}},
{"type":"Feature","geometry":{"type":"Polygon","coordinates":[[[-49.33552,-28.41803],[-49.22131,-28.43304],[-49.1899,-28.38938],[-49.20037,-28.28843],[-49.27556,-28.24796],[-49.44022,-28.13291],[-49.47449,-28.12563],[-49.52303,-28.30708],[-49.36075,-28.34118],[-49.33552,-28.41803]]]},"properties":{"cod_ibge":"421170","name":"Orleans","uf":"SC"}},
{"type":"Feature","geometry":{"type":"Polygon","coordinates":[[[-48.8006,-27.35849],[-48.86533,-27.21979],[-48.94242,-27.33848],[-48.88389,-27.43261],[-48.83534,-27.39669],[-48.8006,-27.35849]]]},"properties":{"cod_ibge":"421630","name":"São João Batista","uf":"SC"}},
{"type":"Feature","geometry":{"type":"Polygon","coordinates":[[[-49.48734,-26.19435],[-49.60299,-26.22664],[-49.63487,-26.3767],[-49.76051,-26.47129],[-49.652,-26.6932],[-49.56444,-26.56588],[-49.44118,-26.48902],[-49.48353,-26.4199],[-49.48734,-26.19435]]]},"properties":{"cod_ibge":"421500","name":"Rio Negrinho","uf":"SC"}},
{"type":"Feature","geometry":{"type":"Polygon","coordinates":[[[-48.74207,-26.12751],[-48.6821,-25.98381],[-48.95051,-25.99017],[-49.05712,-26.07567],[-48.78347,-26.15297],[-48.74207,-26.12751]]]},"properties":{"cod_ibge":"420580","name":"Garuva","uf":"SC"}},
{"type":"Feature","geometry":{"type":"Polygon","coordinates":[[[-48.80155,-26.68138],[-48.74111,-26.55996],[-48.83201,-26.53086],[-48.86009,-26.56269],[-48.85628,-26.63454],[-48.80155,-26.68138]]]},"properties":{"cod_ibge":"421635","name":"São João do Itaperiú","uf":"SC"}},
{"type":"Feature","geometry":{"type":"Polygon","coordinates":[[[-49.84951,-28.10244],[-49.67199,-28.23068],[-49.47449,-28.12563],[-49.44022,-28.13291],[-49.3222,-27.98376],[-49.3084,-27.97057],[-49.30792,-27.94101],[-49.29936,-27.9019],[-49.41738,-27.95283],[-49.60727,-27.90054],[-49.70293,-27.91782],[-49.74481,-28.03196],[-49.84951,-28.10244]]]},"properties":{"cod_ibge":"421890","name":"Urubici","uf":"SC"}},
{"type":"Feature","geometry":{"type":"Polygon","coordinates":[[[-50.17408,-28.1611],[-50.19978,-27.86325],[-50.06652,-27.81141],[-49.99989,-27.64088],[-50.04653,-27.57858],[-50.19454,-27.6327],[-50.30923,-27.74866],[-50.39014,-27.73001],[-50.5134,-27.78685],[-50.63952,-27.71455],[-50.60525,-27.83278],[-50.38252,-27.88053],[-50.38966,-28.01923],[-50.52482,-28.13837],[-50.51388,-28.20976],[-50.69567,-28.26979],[-50.66521,-28.338],[-50.42488,-28.43349],[-50.27164,-28.343],[-50.17408,-28.1611]]]},"properties":{"cod_ibge":"420930","name":"Lages","uf":"SC"}},
{"type":"Feature","geometry":{"type":"Polygon","coordinates":[[[-53.29128,-26.9283],[-53.40788,-26.88874],[-53.41073,-26.9515],[-53.37552,-27.01561],[-53.32983,-27.08883],[-53.29128,-26.9283]]]},"properties":{"cod_ibge":"421507","name":"Riqueza","uf":"SC"}},
{"type":"Feature","geometry":{"type":"Polygon","coordinates":[[[-49.42214,-28.53672],[-49.56967,-28.50261],[-49.68532,-28.62085],[-49.45165,-28.63403],[-49.36931,-28.63403],[-49.38597,-28.57992],[-49.42214,-28.53672]]]},"properties":{"cod_ibge":"421760","name":"Siderópolis","uf":"SC"}},
{"type":"Feature","geometry":{"type":"Polygon","coordinates":[[[-50.18217,-27.4458],[-50.04653,-27.57858],[-49.99989,-27.64088],[-49.83904,-27.67817],[-49.73053,-27.65543],[-49.76337,-27.58086],[-49.90757,-27.43216],[-49.95659,-27.40169],[-50.07556,-27.30483],[-50.18217,-27.4458]]]},"properties":{"cod_ibge":"421175","name":"Otacílio Costa","uf":"SC"}},
{"type":"Feature","geometry":{"type":"Polygon","coordinates":[[[-49.86569,-27.91145],[-49.74481,-28.03196],[-49.70293,-27.91782],[-49.60727,-27.90054],[-49.77812,-27.80368],[-49.86949,-27.90054],[-49.86569,-27.91145]]]},"properties":{"cod_ibge":"421505","name":"Rio Rufino","uf":"SC"}},
{"type":"Feature","geometry":{"type":"Polygon","coordinates":[[[-49.16896,-26.30804],[-49.23082,-26.39717],[-49.4031,-26.34942],[-49.48353,-26.4199],[-49.44118,-26.48902],[-49.29126,-26.54723],[-49.21322,-26.4863],[-49.16896,-26.30804]]]},"properties":{"cod_ibge":"420450","name":"Corupá","uf":"SC"}},
{"type":"Feature","geometry":{"type":"Polygon","coordinates":[[[-48.61119,-27.04836],[-48.68305,-26.97287],[-48.78918,-27.09701],[-48.8125,-27.13476],[-48.79917,-27.15522],[-48.69019,-27.14158],[-48.61119,-27.04836]]]},"properties":{"cod_ibge":"420320","name":"Camboriú","uf":"SC"}},
{"type":"Feature","geometry":{"type":"Polygon","coordinates":[[[-52.398,-27.29255],[-52.26141,-27.25708],[-52.19288,-27.19978],[-52.23333,-27.18114],[-52.40181,-27.19069],[-52.43274,-27.21797],[-52.41941,-27.28255],[-52.398,-27.29255]]]},"properties":{"cod_ibge":"420800","name":"Itá","uf":"SC"}},
{"type":"Feature","geometry":{"type":"Polygon","coordinates":[[[-49.05188,-27.99012],[-48.89388,-28.08016],[-48.84201,-27.86143],[-48.88246,-27.81505],[-49.01667,-27.86643],[-49.05188,-27.99012]]]},"properties":{"cod_ibge":"421590","name":"São Bonifácio","uf":"SC"}},
{"type":"Feature","geometry":{"type":"Polygon","coordinates":[[[-50.05462,-28.09335],[-49.84951,-28.10244],[-49.74481,-28.03196],[-49.86569,-27.91145],[-50.05462,-28.09335]]]},"properties":{"cod_ibge":"421895","name":"Urupema","uf":"SC"}},
{"type":"Feature","geometry":{"type":"Polygon","coordinates":[[[-49.51351,-28.89187],[-49.39787,-28.83367],[-49.425,-28.81457],[-49.51685,-28.85777],[-49.51351,-28.89187]]]},"properties":{"cod_ibge":"421040","name":"Maracajá","uf":"SC"}},
{"type":"Feature","geometry":{"type":"Polygon","coordinates":[[[-50.60525,-27.83278],[-50.65474,-27.98603],[-50.87509,-28.04151],[-50.74897,-28.24841],[-50.69567,-28.26979],[-50.51388,-28.20976],[-50.52482,-28.13837],[-50.38966,-28.01923],[-50.38252,-27.88053],[-50.60525,-27.83278]]]},"properties":{"cod_ibge":"420325","name":"Capão Alto","uf":"SC"}},
{"type":"Feature","geometry":{"type":"Polygon","coordinates":[[[-49.89615,-26.99697],[-49.70911,-26.91784],[-49.76955,-26.88874],[-49.95087,-26.92739],[-49.94612,-26.9947],[-49.89615,-26.99697]]]},"properties":{"cod_ibge":"421940","name":"Witmarsum","uf":"SC"}},
{"type":"Feature","geometry":{"type":"Polygon","coordinates":[[[-50.08603,-26.81007],[-50.13505,-26.6641],[-50.09127,-26.52404],[-50.09841,-26.27848],[-50.15314,-26.2089],[-50.28496,-26.30849],[-50.26926,-26.44355],[-50.19549,-26.4481],[-50.21976,-26.81416],[-50.08603,-26.81007]]]},"properties":{"cod_ibge":"421220","name":"Papanduva","uf":"SC"}},
{"type":"Feature","geometry":{"type":"Polygon","coordinates":[[[-49.20037,-28.28843],[-49.10518,-28.35846],[-49.07853,-28.27388],[-49.07711,-28.19021],[-49.19894,-28.15474],[-49.27556,-28.24796],[-49.20037,-28.28843]]]},"properties":{"cod_ibge":"420280","name":"Braço do Norte","uf":"SC"}},
{"type":"Feature","geometry":{"type":"Polygon","coordinates":[[[-49.07853,-28.27388],[-48.9548,-28.3189],[-48.92148,-28.23477],[-49.03094,-28.1511],[-49.07711,-28.19021],[-49.07853,-28.27388]]]},"properties":{"cod_ibge":"420150","name":"Armazém","uf":"SC"}},
{"type":"Feature","geometry":{"type":"Polygon","coordinates":[[[-50.39014,-27.73001],[-50.30923,-27.74866],[-50.19454,-27.6327],[-50.26973,-27.52492],[-50.48675,-27.45853],[-50.56956,-27.50401],[-50.39014,-27.73001]]]},"properties":{"cod_ibge":"420455","name":"Correia Pinto","uf":"SC"}},
{"type":"Feature","geometry":{"type":"Polygon","coordinates":[[[-48.93433,-27.02789],[-49.05712,-27.06154],[-49.1385,-27.13248],[-49.01714,-27.16477],[-48.93433,-27.02789]]]},"properties":{"cod_ibge":"420630","name":"Guabiruba","uf":"SC"}},
{"type":"Feature","geometry":{"type":"Polygon","coordinates":[[[-53.59824,-26.65819],[-53.73054,-26.60044],[-53.71436,-26.75096],[-53.59586,-26.6882],[-53.59824,-26.65819]]]},"properties":{"cod_ibge":"421223","name":"Paraíso","uf":"SC"}},
{"type":"Feature","geometry":{"type":"Polygon","coordinates":[[[-53.43072,-26.28212],[-53.63917,-26.25074],[-53.68866,-26.42854],[-53.58349,-26.41308],[-53.39408,-26.36624],[-53.3422,-26.24892],[-53.43072,-26.28212]]]},"properties":{"cod_ibge":"420500","name":"Dionísio Cerqueira","uf":"SC"}},
{"type":"Feature","geometry":{"type":"Polygon","coordinates":[[[-49.05093,-26.5154],[-49.02856,-26.45719],[-49.14468,-26.31622],[-49.20275,-26.22027],[-49.25224,-26.26802],[-49.16896,-26.30804],[-49.21322,-26.4863],[-49.29126,-26.54723],[-49.22321,-26.62044],[-49.12993,-26.63545],[-49.11423,-26.61317],[-49.05093,-26.5154]]]},"properties":{"cod_ibge":"420890","name":"Jaraguá do Sul","uf":"SC"}},
{"type":"Feature","geometry":{"type":"Polygon","coordinates":[[[-49.73243,-28.80411],[-49.83999,-28.71316],[-49.96134,-28.77228],[-49.95087,-28.89369],[-49.95563,-28.94871],[-49.86759,-28.88005],[-49.73243,-28.80411]]]},"properties":{"cod_ibge":"421810","name":"Timbé do Sul","uf":"SC"}},
{"type":"Feature","geometry":{"type":"Polygon","coordinates":[[[-51.86974,-27.44944],[-51.73268,-27.39214],[-51.72982,-27.35667],[-51.75647,-27.28073],[-51.79835,-27.29119],[-51.82262,-27.29664],[-51.88211,-27.42579],[-51.86974,-27.44944]]]},"properties":{"cod_ibge":"420760","name":"Ipira","uf":"SC"}},
{"type":"Feature","geometry":{"type":"Polygon","coordinates":[[[-52.11483,-26.85918],[-51.7836,-26.7596],[-51.82405,-26.58179],[-52.02917,-26.54678],[-52.06724,-26.6782],[-52.03964,-26.7746],[-52.11483,-26.85918]]]},"properties":{"cod_ibge":"421227","name":"Passos Maia","uf":"SC"}},
{"type":"Feature","geometry":{"type":"Polygon","coordinates":[[[-50.96028,-27.37941],[-50.82274,-27.45171],[-50.75421,-27.42215],[-50.76516,-27.30574],[-50.82084,-27.22934],[-50.85367,-27.24753],[-50.96028,-27.37941]]]},"properties":{"cod_ibge":"420287","name":"Brunópolis","uf":"SC"}},
{"type":"Feature","geometry":{"type":"Polygon","coordinates":[[[-49.95659,-27.40169],[-49.90757,-27.43216],[-49.86474,-27.3785],[-49.8852,-27.30619],[-49.95659,-27.40169]]]},"properties":{"cod_ibge":"420285","name":"Braço do Trombudo","uf":"SC"}},
{"type":"Feature","geometry":{"type":"Polygon","coordinates":[[[-49.71292,-29.32569],[-49.64487,-29.23838],[-49.71197,-29.20564],[-49.79192,-29.28568],[-49.71292,-29.32569]]]},"properties":{"cod_ibge":"421225","name":"Passo de Torres","uf":"SC"}},
{"type":"Feature","geometry":{"type":"Polygon","coordinates":[[[-49.80239,-27.24844],[-49.74243,-27.14567],[-49.84475,-27.02334],[-49.87616,-27.02062],[-49.93327,-27.18932],[-49.82333,-27.26527],[-49.80239,-27.24844]]]},"properties":{"cod_ibge":"421460","name":"Rio do Oeste","uf":"SC"}},
{"type":"Feature","geometry":{"type":"Polygon","coordinates":[[[-53.5873,-27.00925],[-53.51972,-27.08155],[-53.37552,-27.01561],[-53.41073,-26.9515],[-53.5359,-26.94558],[-53.58254,-26.95331],[-53.5873,-27.00925]]]},"properties":{"cod_ibge":"420765","name":"Iporã do Oeste","uf":"SC"}},
{"type":"Feature","geometry":{"type":"Polygon","coordinates":[[[-50.48675,-27.45853],[-50.26973,-27.52492],[-50.18217,-27.4458],[-50.07556,-27.30483],[-50.12934,-27.27391],[-50.17503,-27.26936],[-50.20834,-27.34621],[-50.4639,-27.36667],[-50.48675,-27.45853]]]},"properties":{"cod_ibge":"421330","name":"Ponte Alta","uf":"SC"}},
{"type":"Feature","geometry":{"type":"Polygon","coordinates":[[[-49.79192,-29.28568],[-49.71197,-29.20564],[-49.83428,-29.09514],[-49.8319,-29.12197],[-49.95754,-29.19973],[-49.90138,-29.21519],[-49.79192,-29.28568]]]},"properties":{"cod_ibge":"421640","name":"São João do Sul","uf":"SC"}},
{"type":"Feature","geometry":{"type":"Polygon","coordinates":[[[-49.42975,-26.91512],[-49.31601,-26.95923],[-49.30507,-26.84781],[-49.33029,-26.8078],[-49.42975,-26.91512]]]},"properties":{"cod_ibge":"421510","name":"Rodeio","uf":"SC"}},
{"type":"Feature","geometry":{"type":"Polygon","coordinates":[[[-48.8658,-27.00334],[-48.84296,-26.96377],[-48.98716,-26.80871],[-49.03047,-26.77824],[-49.05712,-27.06154],[-48.93433,-27.02789],[-48.8658,-27.00334]]]},"properties":{"cod_ibge":"420590","name":"Gaspar","uf":"SC"}},
{"type":"Feature","geometry":{"type":"Polygon","coordinates":[[[-52.39324,-26.68365],[-52.46463,-26.56997],[-52.56314,-26.67183],[-52.53458,-26.80916],[-52.42941,-26.76733],[-52.39324,-26.68365]]]},"properties":{"cod_ibge":"420768","name":"Ipuaçu","uf":"SC"}},
{"type":"Feature","geometry":{"type":"Polygon","coordinates":[[[-52.84488,-26.66956],[-52.9196,-26.67274],[-52.91769,-26.78279],[-52.81727,-26.73413],[-52.84631,-26.67001],[-52.84488,-26.66956]]]},"properties":{"cod_ibge":"420895","name":"Jardinópolis","uf":"SC"}},
{"type":"Feature","geometry":{"type":"Polygon","coordinates":[[[-49.90757,-27.43216],[-49.76337,-27.58086],[-49.76194,-27.46854],[-49.75052,-27.39578],[-49.76717,-27.37531],[-49.86474,-27.3785],[-49.90757,-27.43216]]]},"properties":{"cod_ibge":"420020","name":"Agrolândia","uf":"SC"}},
{"type":"Feature","geometry":{"type":"Polygon","coordinates":[[[-48.68305,-26.97287],[-48.61119,-27.04836],[-48.5893,-27.06109],[-48.62832,-26.96014],[-48.68305,-26.97287]]]},"properties":{"cod_ibge":"420200","name":"Balneário Camboriú","uf":"SC"}},
{"type":"Feature","geometry":{"type":"Polygon","coordinates":[[[-50.50198,-27.21843],[-50.39537,-27.26208],[-50.24356,-27.23707],[-50.34873,-27.09383],[-50.52625,-27.1202],[-50.50198,-27.21843]]]},"properties":{"cod_ibge":"421335","name":"Ponte Alta do Norte","uf":"SC"}},
{"type":"Feature","geometry":{"type":"Polygon","coordinates":[[[-50.09127,-26.52404],[-49.99466,-26.5063],[-49.82857,-26.70639],[-49.75052,-26.78506],[-49.68103,-26.70275],[-49.652,-26.6932],[-49.76051,-26.47129],[-49.84903,-26.24074],[-50.09841,-26.27848],[-50.09127,-26.52404]]]},"properties":{"cod_ibge":"420810","name":"Itaiópolis","uf":"SC"}},
{"type":"Feature","geometry":{"type":"Polygon","coordinates":[[[-49.64487,-29.23838],[-49.51589,-29.0956],[-49.56586,-29.05876],[-49.65629,-29.14289],[-49.71197,-29.20564],[-49.64487,-29.23838]]]},"properties":{"cod_ibge":"420207","name":"Balneário Gaivota","uf":"SC"}},
{"type":"Feature","geometry":{"type":"Polygon","coordinates":[[[-49.74338,-29.03921],[-49.65629,-29.14289],[-49.56586,-29.05876],[-49.62345,-29.01784],[-49.69864,-29.02056],[-49.74338,-29.03921]]]},"properties":{"cod_ibge":"421770","name":"Sombrio","uf":"SC"}},
{"type":"Feature","geometry":{"type":"Polygon","coordinates":[[[-48.85819,-28.61585],[-48.70637,-28.34164],[-48.75492,-28.32481],[-48.80441,-28.35573],[-48.91434,-28.46714],[-48.92339,-28.51262],[-48.94528,-28.59447],[-48.85819,-28.61585]]]},"properties":{"cod_ibge":"420940","name":"Laguna","uf":"SC"}},
{"type":"Feature","geometry":{"type":"Polygon","coordinates":[[[-53.59586,-26.6882],[-53.71436,-26.75096],[-53.67724,-26.84372],[-53.60633,-26.81826],[-53.5873,-26.80189],[-53.59586,-26.6882]]]},"properties":{"cod_ibge":"420208","name":"Bandeirante","uf":"SC"}},
{"type":"Feature","geometry":{"type":"Polygon","coordinates":[[[-52.33803,-26.94467],[-52.35517,-26.78461],[-52.42941,-26.76733],[-52.53458,-26.80916],[-52.47034,-26.85691],[-52.45273,-26.99515],[-52.41894,-27.00652],[-52.33803,-26.94467]]]},"properties":{"cod_ibge":"421950","name":"Xanxerê","uf":"SC"}},
{"type":"Feature","geometry":{"type":"Polygon","coordinates":[[[-48.59406,-26.45219],[-48.66259,-26.36079],[-48.7097,-26.43082],[-48.65069,-26.54723],[-48.59406,-26.45219]]]},"properties":{"cod_ibge":"420205","name":"Balneário Barra do Sul","uf":"SC"}},
{"type":"Feature","geometry":{"type":"Polygon","coordinates":[[[-49.76337,-27.58086],[-49.73053,-27.65543],[-49.62059,-27.6186],[-49.59156,-27.57131],[-49.67485,-27.45899],[-49.76194,-27.46854],[-49.76337,-27.58086]]]},"properties":{"cod_ibge":"421270","name":"Petrolândia","uf":"SC"}},
{"type":"Feature","geometry":{"type":"Polygon","coordinates":[[[-49.425,-28.81457],[-49.39787,-28.83367],[-49.35171,-28.85504],[-49.33267,-28.67905],[-49.24367,-28.67451],[-49.36027,-28.63585],[-49.36931,-28.63403],[-49.45165,-28.63403],[-49.47639,-28.7127],[-49.425,-28.81457]]]},"properties":{"cod_ibge":"420460","name":"Criciúma","uf":"SC"}},
{"type":"Feature","geometry":{"type":"Polygon","coordinates":[[[-52.84535,-26.89283],[-52.90579,-26.86191],[-52.94767,-26.88147],[-52.93435,-26.94831],[-52.90532,-26.97378],[-52.8939,-26.97514],[-52.85725,-26.91648],[-52.84535,-26.89283]]]},"properties":{"cod_ibge":"421140","name":"Nova Erechim","uf":"SC"}},
{"type":"Feature","geometry":{"type":"Polygon","coordinates":[[[-49.42928,-26.1698],[-49.25224,-26.26802],[-49.20275,-26.22027],[-49.15849,-26.11432],[-49.05712,-26.07567],[-48.95051,-25.99017],[-48.96812,-25.98654],[-49.23463,-26.03065],[-49.36075,-26.13751],[-49.42928,-26.1698]]]},"properties":{"cod_ibge":"420330","name":"Campo Alegre","uf":"SC"}},
{"type":"Feature","geometry":{"type":"Polygon","coordinates":[[[-53.59824,-26.65819],[-53.49497,-26.65955],[-53.42453,-26.60362],[-53.4588,-26.54814],[-53.72103,-26.53768],[-53.73054,-26.60044],[-53.59824,-26.65819]]]},"properties":{"cod_ibge":"420640","name":"Guaraciaba","uf":"SC"}},
{"type":"Feature","geometry":{"type":"Polygon","coordinates":[[[-52.55077,-26.80098],[-52.62072,-26.86464],[-52.47034,-26.85691],[-52.53458,-26.80916],[-52.55077,-26.80098]]]},"properties":{"cod_ibge":"420945","name":"Lajeado Grande","uf":"SC"}},
{"type":"Feature","geometry":{"type":"Polygon","coordinates":[[[-49.84475,-27.02334],[-49.69722,-27.04335],[-49.69008,-26.92467],[-49.70911,-26.91784],[-49.89615,-26.99697],[-49.87616,-27.02062],[-49.84475,-27.02334]]]},"properties":{"cod_ibge":"420510","name":"Dona Emma","uf":"SC"}},
{"type":"Feature","geometry":{"type":"Polygon","coordinates":[[[-52.97337,-26.74459],[-52.95767,-26.75459],[-52.93244,-26.77688],[-52.91769,-26.78279],[-52.9196,-26.67274],[-52.94054,-26.61408],[-52.99812,-26.635],[-52.97337,-26.74459]]]},"properties":{"cod_ibge":"421775","name":"Sul Brasil","uf":"SC"}},
{"type":"Feature","geometry":{"type":"Polygon","coordinates":[[[-50.24356,-27.23707],[-50.39537,-27.26208],[-50.50198,-27.21843],[-50.4639,-27.36667],[-50.20834,-27.34621],[-50.17503,-27.26936],[-50.24356,-27.23707]]]},"properties":{"cod_ibge":"421605","name":"São Cristóvão do Sul","uf":"SC"}},
{"type":"Feature","geometry":{"type":"Polygon","coordinates":[[[-49.95754,-29.19973],[-49.8319,-29.12197],[-49.95754,-29.06831],[-50.14457,-29.27022],[-50.04082,-29.35525],[-50.03416,-29.3498],[-50.11554,-29.26249],[-49.95754,-29.19973]]]},"properties":{"cod_ibge":"421380","name":"Praia Grande","uf":"SC"}},
{"type":"Feature","geometry":{"type":"Polygon","coordinates":[[[-52.75826,-26.94104],[-52.85725,-26.91648],[-52.8939,-26.97514],[-52.84059,-27.01789],[-52.75826,-26.94104]]]},"properties":{"cod_ibge":"421145","name":"Nova Itaberaba","uf":"SC"}},
{"type":"Feature","geometry":{"type":"Polygon","coordinates":[[[-49.50685,-27.60086],[-49.45926,-27.7573],[-49.28079,-27.87325],[-49.15753,-27.74456],[-49.20179,-27.64543],[-49.30078,-27.58449],[-49.40406,-27.56085],[-49.47306,-27.56585],[-49.50685,-27.60086]]]},"properties":{"cod_ibge":"420070","name":"Alfredo Wagner","uf":"SC"}},
{"type":"Feature","geometry":{"type":"Polygon","coordinates":[[[-50.09841,-26.27848],[-49.84903,-26.24074],[-49.76051,-26.47129],[-49.63487,-26.3767],[-49.60299,-26.22664],[-49.86949,-26.03337],[-49.93422,-26.01882],[-49.99323,-26.01155],[-50.18978,-26.07021],[-50.15314,-26.2089],[-50.09841,-26.27848]]]},"properties":{"cod_ibge":"421010","name":"Mafra","uf":"SC"}},
{"type":"Feature","geometry":{"type":"Polygon","coordinates":[[[-48.52648,-27.40805],[-48.59501,-27.3162],[-48.6269,-27.32484],[-48.58502,-27.45489],[-48.52648,-27.40805]]]},"properties":{"cod_ibge":"420600","name":"Governador Celso Ramos","uf":"SC"}},
{"type":"Feature","geometry":{"type":"Polygon","coordinates":[[[-52.76064,-26.58679],[-52.75541,-26.45446],[-52.76255,-26.35351],[-52.90817,-26.35942],[-52.93768,-26.36215],[-52.96766,-26.44082],[-52.94625,-26.56724],[-52.92578,-26.58088],[-52.83964,-26.59316],[-52.76064,-26.58679]]]},"properties":{"cod_ibge":"421690","name":"São Lourenço do Oeste","uf":"SC"}},
{"type":"Feature","geometry":{"type":"Polygon","coordinates":[[[-49.3084,-27.97057],[-49.15515,-28.08971],[-49.06235,-28.06061],[-49.05188,-27.99012],[-49.30792,-27.94101],[-49.3084,-27.97057]]]},"properties":{"cod_ibge":"421560","name":"Santa Rosa de Lima","uf":"SC"}},
{"type":"Feature","geometry":{"type":"Polygon","coordinates":[[[-52.22762,-27.06836],[-52.09247,-27.15658],[-52.0463,-27.14067],[-52.10912,-26.95422],[-52.14862,-26.92921],[-52.15433,-26.92648],[-52.23381,-26.9474],[-52.24666,-27.03699],[-52.22762,-27.06836]]]},"properties":{"cod_ibge":"420770","name":"Ipumirim","uf":"SC"}},
{"type":"Feature","geometry":{"type":"Polygon","coordinates":[[[-52.12292,-26.72503],[-52.19812,-26.79552],[-52.15433,-26.92648],[-52.14862,-26.92921],[-52.11483,-26.85918],[-52.03964,-26.7746],[-52.06724,-26.6782],[-52.12292,-26.72503]]]},"properties":{"cod_ibge":"421910","name":"Vargeão","uf":"SC"}},
{"type":"Feature","geometry":{"type":"Polygon","coordinates":[[[-51.98348,-27.37486],[-51.85832,-27.4749],[-51.86974,-27.44944],[-51.88211,-27.42579],[-51.93922,-27.33575],[-51.98348,-27.37486]]]},"properties":{"cod_ibge":"420075","name":"Alto Bela Vista","uf":"SC"}},
{"type":"Feature","geometry":{"type":"Polygon","coordinates":[[[-49.82857,-26.70639],[-49.99466,-26.5063],[-50.09127,-26.52404],[-50.13505,-26.6641],[-50.08603,-26.81007],[-49.94992,-26.8078],[-49.82857,-26.70639]]]},"properties":{"cod_ibge":"421567","name":"Santa Terezinha","uf":"SC"}},
{"type":"Feature","geometry":{"type":"Polygon","coordinates":[[[-49.81619,-28.46896],[-49.70293,-28.62903],[-49.68532,-28.62085],[-49.56967,-28.50261],[-49.53541,-28.43622],[-49.52303,-28.30708],[-49.47449,-28.12563],[-49.67199,-28.23068],[-49.77288,-28.27615],[-49.81619,-28.46896]]]},"properties":{"cod_ibge":"420250","name":"Bom Jardim da Serra","uf":"SC"}},
{"type":"Feature","geometry":{"type":"Polygon","coordinates":[[[-48.72303,-27.5372],[-48.83534,-27.39669],[-48.88389,-27.43261],[-48.91958,-27.46171],[-48.92053,-27.55721],[-48.72731,-27.55357],[-48.72303,-27.5372]]]},"properties":{"cod_ibge":"420120","name":"Antônio Carlos","uf":"SC"}},
{"type":"Feature","geometry":{"type":"Polygon","coordinates":[[[-49.83428,-29.09514],[-49.71197,-29.20564],[-49.65629,-29.14289],[-49.74338,-29.03921],[-49.83428,-29.09514]]]},"properties":{"cod_ibge":"421565","name":"Santa Rosa do Sul","uf":"SC"}},
{"type":"Feature","geometry":{"type":"Polygon","coordinates":[[[-51.07307,-27.51128],[-50.96028,-27.55539],[-50.82274,-27.45171],[-50.96028,-27.37941],[-51.06879,-27.40533],[-51.07307,-27.51128]]]},"properties":{"cod_ibge":"421915","name":"Vargem","uf":"SC"}},
{"type":"Feature","geometry":{"type":"Polygon","coordinates":[[[-49.15753,-27.74456],[-49.03094,-27.77367],[-48.97003,-27.63452],[-49.089,-27.5854],[-49.20941,-27.62906],[-49.20179,-27.64543],[-49.15753,-27.74456]]]},"properties":{"cod_ibge":"421430","name":"Rancho Queimado","uf":"SC"}},
{"type":"Feature","geometry":{"type":"Polygon","coordinates":[[[-53.40788,-26.88874],[-53.29128,-26.9283],[-53.28509,-26.92376],[-53.24131,-26.81325],[-53.29556,-26.78461],[-53.3955,-26.80689],[-53.40788,-26.88874]]]},"properties":{"cod_ibge":"420775","name":"Iraceminha","uf":"SC"}},
{"type":"Feature","geometry":{"type":"Polygon","coordinates":[[[-52.39324,-26.68365],[-52.42941,-26.76733],[-52.35517,-26.78461],[-52.36183,-26.75914],[-52.3704,-26.66956],[-52.39324,-26.68365]]]},"properties":{"cod_ibge":"420253","name":"Bom Jesus","uf":"SC"}},
{"type":"Feature","geometry":{"type":"Polygon","coordinates":[[[-51.29913,-27.05745],[-51.1573,-27.08974],[-51.19633,-27.0288],[-51.31769,-27.0188],[-51.29913,-27.05745]]]},"properties":{"cod_ibge":"421300","name":"Pinheiro Preto","uf":"SC"}},
{"type":"Feature","geometry":{"type":"Polygon","coordinates":[[[-50.29591,-26.28712],[-50.36587,-26.11205],[-50.46105,-26.02655],[-50.62857,-26.06293],[-50.69758,-26.18162],[-50.70329,-26.18799],[-50.63904,-26.37761],[-50.699,-26.50039],[-50.52958,-26.60862],[-50.58241,-26.37443],[-50.53672,-26.25392],[-50.40013,-26.34442],[-50.29591,-26.28712]]]},"properties":{"cod_ibge":"420380","name":"Canoinhas","uf":"SC"}},
{"type":"Feature","geometry":{"type":"Polygon","coordinates":[[[-52.09247,-27.15658],[-52.22762,-27.06836],[-52.23333,-27.18114],[-52.19288,-27.19978],[-52.09247,-27.15658]]]},"properties":{"cod_ibge":"420127","name":"Arabutã","uf":"SC"}},
{"type":"Feature","geometry":{"type":"Polygon","coordinates":[[[-53.11377,-26.62954],[-53.12328,-26.57315],[-53.22275,-26.57906],[-53.22703,-26.63909],[-53.20514,-26.64227],[-53.13661,-26.63954],[-53.11377,-26.62954]]]},"properties":{"cod_ibge":"421568","name":"Santa Terezinha do Progresso","uf":"SC"}},
{"type":"Feature","geometry":{"type":"Polygon","coordinates":[[[-48.70637,-28.34164],[-48.63451,-28.1129],[-48.70685,-28.08243],[-48.76158,-28.09062],[-48.75492,-28.32481],[-48.70637,-28.34164]]]},"properties":{"cod_ibge":"420730","name":"Imbituba","uf":"SC"}},
{"type":"Feature","geometry":{"type":"Polygon","coordinates":[[[-52.74874,-26.59498],[-52.74398,-26.65773],[-52.62644,-26.64636],[-52.67165,-26.60135],[-52.70686,-26.58361],[-52.74874,-26.59498]]]},"properties":{"cod_ibge":"421569","name":"Santiago do Sul","uf":"SC"}},
{"type":"Feature","geometry":{"type":"Polygon","coordinates":[[[-49.22035,-27.1634],[-49.31744,-27.02198],[-49.46878,-27.00515],[-49.49543,-27.07882],[-49.44689,-27.25526],[-49.22035,-27.1634]]]},"properties":{"cod_ibge":"420125","name":"Apiúna","uf":"SC"}},
{"type":"Feature","geometry":{"type":"Polygon","coordinates":[[[-53.06951,-26.73686],[-53.06332,-26.64364],[-53.11377,-26.62954],[-53.13661,-26.63954],[-53.12852,-26.72049],[-53.10948,-26.7405],[-53.06951,-26.73686]]]},"properties":{"cod_ibge":"420257","name":"Bom Jesus do Oeste","uf":"SC"}},
{"type":"Feature","geometry":{"type":"Polygon","coordinates":[[[-51.82643,-26.9233],[-51.80216,-27.04062],[-51.63321,-26.94331],[-51.72459,-26.84645],[-51.82643,-26.9233]]]},"properties":{"cod_ibge":"421917","name":"Vargem Bonita","uf":"SC"}},
{"type":"Feature","geometry":{"type":"Polygon","coordinates":[[[-48.70828,-26.81553],[-48.66116,-26.77142],[-48.68163,-26.71821],[-48.8006,-26.71321],[-48.81774,-26.74095],[-48.70828,-26.81553]]]},"properties":{"cod_ibge":"421280","name":"Balneário Piçarras","uf":"SC"}},
{"type":"Feature","geometry":{"type":"Polygon","coordinates":[[[-48.94242,-27.33848],[-48.86533,-27.21979],[-48.88198,-27.18432],[-49.01952,-27.25617],[-49.22178,-27.30892],[-49.22416,-27.3212],[-49.18799,-27.4076],[-48.94242,-27.33848]]]},"properties":{"cod_ibge":"421150","name":"Nova Trento","uf":"SC"}},
{"type":"Feature","geometry":{"type":"Polygon","coordinates":[[[-52.56314,-26.67183],[-52.46463,-26.56997],[-52.44273,-26.43809],[-52.52316,-26.39944],[-52.55695,-26.40763],[-52.61073,-26.48993],[-52.67165,-26.60135],[-52.62644,-26.64636],[-52.6074,-26.67501],[-52.56314,-26.67183]]]},"properties":{"cod_ibge":"421610","name":"São Domingos","uf":"SC"}},
{"type":"Feature","geometry":{"type":"Polygon","coordinates":[[[-49.46545,-26.94013],[-49.54397,-26.89192],[-49.60108,-27.01107],[-49.58538,-27.08746],[-49.59204,-27.12793],[-49.49543,-27.07882],[-49.46878,-27.00515],[-49.46545,-26.94013]]]},"properties":{"cod_ibge":"420690","name":"Ibirama","uf":"SC"}},
{"type":"Feature","geometry":{"type":"Polygon","coordinates":[[[-52.61073,-26.48993],[-52.55695,-26.40763],[-52.645,-26.3808],[-52.74065,-26.46265],[-52.74494,-26.50585],[-52.61073,-26.48993]]]},"properties":{"cod_ibge":"420560","name":"Galvão","uf":"SC"}},
{"type":"Feature","geometry":{"type":"Polygon","coordinates":[[[-49.02999,-28.54991],[-48.94528,-28.59447],[-48.92339,-28.51262],[-48.97907,-28.42213],[-49.10138,-28.36255],[-49.13755,-28.41394],[-49.18038,-28.49807],[-49.02999,-28.54991]]]},"properties":{"cod_ibge":"421870","name":"Tubarão","uf":"SC"}},
{"type":"Feature","geometry":{"type":"Polygon","coordinates":[[[-48.83915,-26.44082],[-48.73969,-26.28621],[-48.78347,-26.15297],[-49.05712,-26.07567],[-49.15849,-26.11432],[-49.20275,-26.22027],[-49.14468,-26.31622],[-49.00382,-26.38898],[-48.83915,-26.44082]]]},"properties":{"cod_ibge":"420910","name":"Joinville","uf":"SC"}},
{"type":"Feature","geometry":{"type":"Polygon","coordinates":[[[-49.14468,-26.31622],[-49.02856,-26.45719],[-49.00382,-26.38898],[-49.14468,-26.31622]]]},"properties":{"cod_ibge":"421740","name":"Schroeder","uf":"SC"}},
{"type":"Feature","geometry":{"type":"Polygon","coordinates":[[[-49.70911,-26.91784],[-49.69008,-26.92467],[-49.60108,-27.01107],[-49.54397,-26.89192],[-49.54873,-26.85645],[-49.68103,-26.70275],[-49.75052,-26.78506],[-49.76955,-26.88874],[-49.70911,-26.91784]]]},"properties":{"cod_ibge":"420915","name":"José Boiteux","uf":"SC"}},
{"type":"Feature","geometry":{"type":"Polygon","coordinates":[[[-52.04916,-27.34621],[-51.98348,-27.37486],[-51.93922,-27.33575],[-51.82262,-27.29664],[-51.79835,-27.29119],[-51.81453,-27.18796],[-51.87497,-27.12157],[-51.99395,-27.11884],[-52.0463,-27.14067],[-52.09247,-27.15658],[-52.19288,-27.19978],[-52.26141,-27.25708],[-52.22477,-27.33075],[-52.10722,-27.34348],[-52.04916,-27.34621]]]},"properties":{"cod_ibge":"420430","name":"Concórdia","uf":"SC"}},
{"type":"Feature","geometry":{"type":"Polygon","coordinates":[[[-51.19205,-26.85145],[-50.84606,-26.87283],[-50.7999,-26.76869],[-50.9955,-26.65455],[-51.12875,-26.70775],[-51.23868,-26.62772],[-51.41144,-26.7173],[-51.41192,-26.72094],[-51.25534,-26.77369],[-51.28437,-26.87374],[-51.19205,-26.85145]]]},"properties":{"cod_ibge":"420300","name":"Caçador","uf":"SC"}},
{"type":"Feature","geometry":{"type":"Polygon","coordinates":[[[-51.81453,-27.18796],[-51.79835,-27.29119],[-51.75647,-27.28073],[-51.72459,-27.2066],[-51.81453,-27.18796]]]},"properties":{"cod_ibge":"421390","name":"Presidente Castello Branco","uf":"SC"}},
{"type":"Feature","geometry":{"type":"Polygon","coordinates":[[[-48.74587,-27.61542],[-48.84439,-27.62497],[-48.88246,-27.81505],[-48.84201,-27.86143],[-48.73969,-27.79504],[-48.73826,-27.61451],[-48.74587,-27.61542]]]},"properties":{"cod_ibge":"421570","name":"Santo Amaro da Imperatriz","uf":"SC"}},
{"type":"Feature","geometry":{"type":"Polygon","coordinates":[[[-53.58254,-26.95331],[-53.67153,-26.94286],[-53.73245,-27.00425],[-53.64345,-27.04381],[-53.5873,-27.00925],[-53.58254,-26.95331]]]},"properties":{"cod_ibge":"421875","name":"Tunápolis","uf":"SC"}},
{"type":"Feature","geometry":{"type":"Polygon","coordinates":[[[-48.94242,-27.33848],[-49.18799,-27.4076],[-49.22464,-27.49127],[-48.91958,-27.46171],[-48.88389,-27.43261],[-48.94242,-27.33848]]]},"properties":{"cod_ibge":"421020","name":"Major Gercino","uf":"SC"}},
{"type":"Feature","geometry":{"type":"Polygon","coordinates":[[[-53.23893,-26.54314],[-53.28319,-26.45219],[-53.4074,-26.51858],[-53.4588,-26.54814],[-53.42453,-26.60362],[-53.3917,-26.6209],[-53.23893,-26.54314]]]},"properties":{"cod_ibge":"420080","name":"Anchieta","uf":"SC"}},
{"type":"Feature","geometry":{"type":"Polygon","coordinates":[[[-53.16945,-26.34806],[-53.3422,-26.24892],[-53.39408,-26.36624],[-53.40264,-26.42763],[-53.4074,-26.51858],[-53.28319,-26.45219],[-53.15993,-26.35078],[-53.16945,-26.34806]]]},"properties":{"cod_ibge":"421200","name":"Palma Sola","uf":"SC"}},
{"type":"Feature","geometry":{"type":"Polygon","coordinates":[[[-49.60727,-27.90054],[-49.41738,-27.95283],[-49.29936,-27.9019],[-49.28079,-27.87325],[-49.45926,-27.7573],[-49.50685,-27.60086],[-49.62059,-27.6186],[-49.73053,-27.65543],[-49.83904,-27.67817],[-49.77812,-27.80368],[-49.60727,-27.90054]]]},"properties":{"cod_ibge":"420260","name":"Bom Retiro","uf":"SC"}},
{"type":"Feature","geometry":{"type":"Polygon","coordinates":[[[-52.70068,-26.35806],[-52.76255,-26.35351],[-52.75541,-26.45446],[-52.74065,-26.46265],[-52.645,-26.3808],[-52.70068,-26.35806]]]},"properties":{"cod_ibge":"420917","name":"Jupiá","uf":"SC"}},
{"type":"Feature","geometry":{"type":"Polygon","coordinates":[[[-48.74111,-26.55996],[-48.66497,-26.58088],[-48.65069,-26.54723],[-48.7097,-26.43082],[-48.66259,-26.36079],[-48.73969,-26.28621],[-48.83915,-26.44082],[-48.83201,-26.53086],[-48.74111,-26.55996]]]},"properties":{"cod_ibge":"420130","name":"Araquari","uf":"SC"}},
{"type":"Feature","geometry":{"type":"Polygon","coordinates":[[[-52.71686,-26.97332],[-52.58646,-27.03062],[-52.61501,-26.93422],[-52.71686,-26.97332]]]},"properties":{"cod_ibge":"420435","name":"Cordilheira Alta","uf":"SC"}},
{"type":"Feature","geometry":{"type":"Polygon","coordinates":[[[-49.27556,-28.24796],[-49.19894,-28.15474],[-49.3222,-27.98376],[-49.44022,-28.13291],[-49.27556,-28.24796]]]},"properties":{"cod_ibge":"420610","name":"Grão-Pará","uf":"SC"}},
{"type":"Feature","geometry":{"type":"Polygon","coordinates":[[[-52.94625,-26.56724],[-52.96766,-26.44082],[-53.01858,-26.53132],[-52.94625,-26.56724]]]},"properties":{"cod_ibge":"421575","name":"São Bernardino","uf":"SC"}},
{"type":"Feature","geometry":{"type":"Polygon","coordinates":[[[-49.70626,-28.9669],[-49.86759,-28.88005],[-49.95563,-28.94871],[-49.95754,-29.06831],[-49.8319,-29.12197],[-49.83428,-29.09514],[-49.74338,-29.03921],[-49.69864,-29.02056],[-49.70626,-28.9669]]]},"properties":{"cod_ibge":"420870","name":"Jacinto Machado","uf":"SC"}},
{"type":"Feature","geometry":{"type":"Polygon","coordinates":[[[-49.46545,-27.44534],[-49.40406,-27.56085],[-49.30078,-27.58449],[-49.31839,-27.57222],[-49.46545,-27.44534]]]},"properties":{"cod_ibge":"420740","name":"Imbuia","uf":"SC"}},
{"type":"Feature","geometry":{"type":"Polygon","coordinates":[[[-49.46545,-27.44534],[-49.31839,-27.57222],[-49.31125,-27.39623],[-49.22416,-27.3212],[-49.22178,-27.30892],[-49.22178,-27.23116],[-49.31792,-27.31665],[-49.45831,-27.35712],[-49.46545,-27.44534]]]},"properties":{"cod_ibge":"421920","name":"Vidal Ramos","uf":"SC"}},
{"type":"Feature","geometry":{"type":"Polygon","coordinates":[[[-50.26973,-27.52492],[-50.19454,-27.6327],[-50.04653,-27.57858],[-50.18217,-27.4458],[-50.26973,-27.52492]]]},"properties":{"cod_ibge":"421205","name":"Palmeira","uf":"SC"}},
{"type":"Feature","geometry":{"type":"Polygon","coordinates":[[[-51.19205,-26.85145],[-51.15968,-26.95422],[-51.04547,-26.98651],[-50.84606,-26.87283],[-51.19205,-26.85145]]]},"properties":{"cod_ibge":"421440","name":"Rio das Antas","uf":"SC"}},
{"type":"Feature","geometry":{"type":"Polygon","coordinates":[[[-51.73268,-27.39214],[-51.86974,-27.44944],[-51.85832,-27.4749],[-51.83833,-27.5231],[-51.78788,-27.51492],[-51.70127,-27.4799],[-51.73268,-27.39214]]]},"properties":{"cod_ibge":"421310","name":"Piratuba","uf":"SC"}},
{"type":"Feature","geometry":{"type":"Polygon","coordinates":[[[-48.59406,-26.45219],[-48.50411,-26.2371],[-48.56931,-26.16752],[-48.74207,-26.12751],[-48.78347,-26.15297],[-48.73969,-26.28621],[-48.66259,-26.36079],[-48.59406,-26.45219]]]},"properties":{"cod_ibge":"421620","name":"São Francisco do Sul","uf":"SC"}},
{"type":"Feature","geometry":{"type":"Polygon","coordinates":[[[-51.59228,-27.33257],[-51.72982,-27.35667],[-51.73268,-27.39214],[-51.70127,-27.4799],[-51.63274,-27.48854],[-51.55326,-27.39941],[-51.59228,-27.33257]]]},"properties":{"cod_ibge":"420390","name":"Capinzal","uf":"SC"}},
{"type":"Feature","geometry":{"type":"Polygon","coordinates":[[[-48.63451,-28.1129],[-48.62071,-27.9451],[-48.70685,-28.08243],[-48.63451,-28.1129]]]},"properties":{"cod_ibge":"420570","name":"Garopaba","uf":"SC"}},
{"type":"Feature","geometry":{"type":"Polygon","coordinates":[[[-51.1792,-27.5945],[-50.95885,-27.64588],[-50.93505,-27.57949],[-50.96028,-27.55539],[-51.07307,-27.51128],[-51.1792,-27.5945]]]},"properties":{"cod_ibge":"420005","name":"Abdon Batista","uf":"SC"}},
{"type":"Feature","geometry":{"type":"Polygon","coordinates":[[[-52.89818,-27.0861],[-52.85202,-27.11247],[-52.83964,-27.04426],[-52.84059,-27.01789],[-52.8939,-26.97514],[-52.90532,-26.97378],[-52.89818,-27.0861]]]},"properties":{"cod_ibge":"421315","name":"Planalto Alegre","uf":"SC"}},
{"type":"Feature","geometry":{"type":"Polygon","coordinates":[[[-48.97907,-28.42213],[-48.92339,-28.51262],[-48.91434,-28.46714],[-48.93719,-28.38347],[-48.97907,-28.42213]]]},"properties":{"cod_ibge":"420395","name":"Capivari de Baixo","uf":"SC"}},
{"type":"Feature","geometry":{"type":"Polygon","coordinates":[[[-49.53398,-28.91734],[-49.67675,-28.86823],[-49.73243,-28.80411],[-49.86759,-28.88005],[-49.70626,-28.9669],[-49.60536,-28.9519],[-49.53398,-28.91734]]]},"properties":{"cod_ibge":"421880","name":"Turvo","uf":"SC"}},
{"type":"Feature","geometry":{"type":"Polygon","coordinates":[[[-51.53946,-27.28255],[-51.52946,-27.24526],[-51.53993,-27.23798],[-51.65653,-27.2016],[-51.59514,-27.29846],[-51.53946,-27.28255]]]},"properties":{"cod_ibge":"420920","name":"Lacerdópolis","uf":"SC"}},
{"type":"Feature","geometry":{"type":"Polygon","coordinates":[[[-52.40181,-27.19069],[-52.23333,-27.18114],[-52.22762,-27.06836],[-52.24666,-27.03699],[-52.39086,-27.09065],[-52.48937,-27.11429],[-52.50746,-27.15931],[-52.40181,-27.19069]]]},"properties":{"cod_ibge":"421750","name":"Seara","uf":"SC"}},
{"type":"Feature","geometry":{"type":"Polygon","coordinates":[[[-52.81727,-26.73413],[-52.91769,-26.78279],[-52.93244,-26.77688],[-52.91912,-26.84645],[-52.8049,-26.83053],[-52.79158,-26.78915],[-52.81727,-26.73413]]]},"properties":{"cod_ibge":"421885","name":"União do Oeste","uf":"SC"}},
{"type":"Feature","geometry":{"type":"Polygon","coordinates":[[[-48.95004,-27.62678],[-48.92053,-27.55721],[-48.91958,-27.46171],[-49.22464,-27.49127],[-49.20941,-27.62906],[-49.089,-27.5854],[-48.97003,-27.63452],[-48.95004,-27.62678]]]},"properties":{"cod_ibge":"420090","name":"Angelina","uf":"SC"}},
{"type":"Feature","geometry":{"type":"Polygon","coordinates":[[[-48.62118,-26.82599],[-48.66116,-26.77142],[-48.70828,-26.81553],[-48.62118,-26.82599]]]},"properties":{"cod_ibge":"421250","name":"Penha","uf":"SC"}},
{"type":"Feature","geometry":{"type":"Polygon","coordinates":[[[-49.24367,-28.67451],[-49.17609,-28.68451],[-49.18181,-28.64131],[-49.2432,-28.58992],[-49.2451,-28.59038],[-49.36027,-28.63585],[-49.24367,-28.67451]]]},"properties":{"cod_ibge":"421120","name":"Morro da Fumaça","uf":"SC"}},
{"type":"Feature","geometry":{"type":"Polygon","coordinates":[[[-49.75052,-27.39578],[-49.76194,-27.46854],[-49.67485,-27.45899],[-49.69341,-27.39077],[-49.75052,-27.39578]]]},"properties":{"cod_ibge":"420180","name":"Atalanta","uf":"SC"}},
{"type":"Feature","geometry":{"type":"Polygon","coordinates":[[[-52.71686,-26.80371],[-52.79158,-26.78915],[-52.8049,-26.83053],[-52.84535,-26.89283],[-52.85725,-26.91648],[-52.75826,-26.94104],[-52.71686,-26.97332],[-52.61501,-26.93422],[-52.62072,-26.86464],[-52.71686,-26.80371]]]},"properties":{"cod_ibge":"420440","name":"Coronel Freitas","uf":"SC"}},
{"type":"Feature","geometry":{"type":"Polygon","coordinates":[[[-53.29604,-27.13248],[-53.19086,-26.95104],[-53.28509,-26.92376],[-53.29128,-26.9283],[-53.32983,-27.08883],[-53.35553,-27.11111],[-53.29604,-27.13248]]]},"properties":{"cod_ibge":"420310","name":"Caibi","uf":"SC"}},
{"type":"Feature","geometry":{"type":"Polygon","coordinates":[[[-52.61073,-26.48993],[-52.74494,-26.50585],[-52.70686,-26.58361],[-52.67165,-26.60135],[-52.61073,-26.48993]]]},"properties":{"cod_ibge":"420445","name":"Coronel Martins","uf":"SC"}},
{"type":"Feature","geometry":{"type":"Polygon","coordinates":[[[-53.06951,-26.73686],[-52.97337,-26.74459],[-52.99812,-26.635],[-53.06332,-26.64364],[-53.06951,-26.73686]]]},"properties":{"cod_ibge":"421755","name":"Serra Alta","uf":"SC"}},
{"type":"Feature","geometry":{"type":"Polygon","coordinates":[[[-49.10138,-28.36255],[-48.97907,-28.42213],[-48.93719,-28.38347],[-48.94813,-28.35892],[-48.9548,-28.3189],[-49.07853,-28.27388],[-49.10518,-28.35846],[-49.10138,-28.36255]]]},"properties":{"cod_ibge":"420620","name":"Gravatal","uf":"SC"}},
{"type":"Feature","geometry":{"type":"Polygon","coordinates":[[[-49.19894,-28.15474],[-49.07711,-28.19021],[-49.03094,-28.1511],[-49.06235,-28.06061],[-49.15515,-28.08971],[-49.3084,-27.97057],[-49.3222,-27.98376],[-49.19894,-28.15474]]]},"properties":{"cod_ibge":"421490","name":"Rio Fortuna","uf":"SC"}},
{"type":"Feature","geometry":{"type":"Polygon","coordinates":[[[-51.27057,-26.38671],[-50.9855,-26.4049],[-51.00977,-26.49357],[-50.85605,-26.56042],[-50.79752,-26.50812],[-50.89984,-26.28939],[-50.99169,-26.23482],[-51.20299,-26.29803],[-51.25201,-26.35169],[-51.27057,-26.38671]]]},"properties":{"cod_ibge":"421360","name":"Porto União","uf":"SC"}},
{"type":"Feature","geometry":{"type":"Polygon","coordinates":[[[-49.03094,-28.1511],[-48.92148,-28.23477],[-48.86913,-28.08016],[-48.89388,-28.08016],[-49.05188,-27.99012],[-49.06235,-28.06061],[-49.03094,-28.1511]]]},"properties":{"cod_ibge":"421710","name":"São Martinho","uf":"SC"}},
{"type":"Feature","geometry":{"type":"Polygon","coordinates":[[[-49.83999,-28.71316],[-49.73243,-28.80411],[-49.67675,-28.86823],[-49.67009,-28.75363],[-49.70435,-28.62994],[-49.83999,-28.71316]]]},"properties":{"cod_ibge":"421125","name":"Morro Grande","uf":"SC"}},
{"type":"Feature","geometry":{"type":"Polygon","coordinates":[[[-52.96528,-26.96332],[-53.01763,-27.09292],[-52.99241,-27.13976],[-52.89818,-27.0861],[-52.90532,-26.97378],[-52.93435,-26.94831],[-52.96528,-26.96332]]]},"properties":{"cod_ibge":"420050","name":"Águas de Chapecó","uf":"SC"}},
{"type":"Feature","geometry":{"type":"Polygon","coordinates":[[[-51.23868,-26.62772],[-51.12875,-26.70775],[-50.9955,-26.65455],[-50.7999,-26.76869],[-50.80656,-26.655],[-50.85605,-26.56042],[-51.00977,-26.49357],[-51.14208,-26.6018],[-51.22203,-26.59361],[-51.23868,-26.62772]]]},"properties":{"cod_ibge":"420315","name":"Calmon","uf":"SC"}},
{"type":"Feature","geometry":{"type":"Polygon","coordinates":[[[-53.22703,-26.63909],[-53.30603,-26.72094],[-53.28747,-26.73504],[-53.19372,-26.69866],[-53.20514,-26.64227],[-53.22703,-26.63909]]]},"properties":{"cod_ibge":"421715","name":"São Miguel da Boa Vista","uf":"SC"}},
{"type":"Feature","geometry":{"type":"Polygon","coordinates":[[[-53.4074,-26.51858],[-53.40264,-26.42763],[-53.54066,-26.42718],[-53.68819,-26.4431],[-53.72103,-26.53768],[-53.4588,-26.54814],[-53.4074,-26.51858]]]},"properties":{"cod_ibge":"421670","name":"São José do Cedro","uf":"SC"}},
{"type":"Feature","geometry":{"type":"Polygon","coordinates":[[[-49.18799,-28.80229],[-48.85819,-28.61585],[-48.94528,-28.59447],[-49.02999,-28.54991],[-49.10328,-28.59311],[-49.17419,-28.69906],[-49.20513,-28.77637],[-49.18799,-28.80229]]]},"properties":{"cod_ibge":"420880","name":"Jaguaruna","uf":"SC"}},
{"type":"Feature","geometry":{"type":"Polygon","coordinates":[[[-51.43666,-26.856],[-51.50995,-26.83963],[-51.4062,-26.94331],[-51.36813,-26.86919],[-51.43666,-26.856]]]},"properties":{"cod_ibge":"421540","name":"Salto Veloso","uf":"SC"}},
{"type":"Feature","geometry":{"type":"Polygon","coordinates":[[[-48.98716,-26.80871],[-48.84296,-26.96377],[-48.75967,-26.85509],[-48.82011,-26.82371],[-48.98716,-26.80871]]]},"properties":{"cod_ibge":"420710","name":"Ilhota","uf":"SC"}},
{"type":"Feature","geometry":{"type":"Polygon","coordinates":[[[-49.31744,-27.02198],[-49.22035,-27.1634],[-49.21084,-27.15749],[-49.15468,-27.11975],[-49.15991,-26.88556],[-49.19799,-26.83645],[-49.20703,-26.83053],[-49.30507,-26.84781],[-49.31601,-26.95923],[-49.31744,-27.02198]]]},"properties":{"cod_ibge":"420750","name":"Indaial","uf":"SC"}},
{"type":"Feature","geometry":{"type":"Polygon","coordinates":[[[-52.90579,-26.86191],[-52.84535,-26.89283],[-52.8049,-26.83053],[-52.91912,-26.84645],[-52.90579,-26.86191]]]},"properties":{"cod_ibge":"420055","name":"Águas Frias","uf":"SC"}},
{"type":"Feature","geometry":{"type":"Polygon","coordinates":[[[-48.72303,-27.5372],[-48.57597,-27.51719],[-48.58502,-27.45489],[-48.6269,-27.32484],[-48.79346,-27.35303],[-48.8006,-27.35849],[-48.83534,-27.39669],[-48.72303,-27.5372]]]},"properties":{"cod_ibge":"420230","name":"Biguaçu","uf":"SC"}},
{"type":"Feature","geometry":{"type":"Polygon","coordinates":[[[-51.27343,-27.73547],[-51.05356,-27.86871],[-50.91031,-27.6809],[-50.95885,-27.64588],[-51.1792,-27.5945],[-51.21537,-27.6186],[-51.27343,-27.73547]]]},"properties":{"cod_ibge":"420100","name":"Anita Garibaldi","uf":"SC"}},
{"type":"Feature","geometry":{"type":"Polygon","coordinates":[[[-49.17419,-28.69906],[-49.10328,-28.59311],[-49.18181,-28.64131],[-49.17609,-28.68451],[-49.17419,-28.69906]]]},"properties":{"cod_ibge":"421545","name":"Sangão","uf":"SC"}},
{"type":"Feature","geometry":{"type":"Polygon","coordinates":[[[-53.5359,-26.94558],[-53.41073,-26.9515],[-53.40788,-26.88874],[-53.3955,-26.80689],[-53.38884,-26.77096],[-53.5873,-26.80189],[-53.60633,-26.81826],[-53.57587,-26.89556],[-53.5359,-26.94558]]]},"properties":{"cod_ibge":"420490","name":"Descanso","uf":"SC"}},
{"type":"Feature","geometry":{"type":"Polygon","coordinates":[[[-49.22035,-27.1634],[-49.44689,-27.25526],[-49.49162,-27.30074],[-49.48068,-27.30528],[-49.45831,-27.35712],[-49.31792,-27.31665],[-49.22178,-27.23116],[-49.21084,-27.15749],[-49.22035,-27.1634]]]},"properties":{"cod_ibge":"421410","name":"Presidente Nereu","uf":"SC"}},
{"type":"Feature","geometry":{"type":"Polygon","coordinates":[[[-51.07307,-27.51128],[-51.06879,-27.40533],[-50.96028,-27.37941],[-50.85367,-27.24753],[-51.03642,-27.23343],[-51.11257,-27.23889],[-51.28056,-27.21297],[-51.32578,-27.26117],[-51.45855,-27.34348],[-51.53946,-27.28255],[-51.59514,-27.29846],[-51.59228,-27.33257],[-51.55326,-27.39941],[-51.44856,-27.46535],[-51.54755,-27.55903],[-51.45713,-27.60769],[-51.21537,-27.6186],[-51.1792,-27.5945],[-51.07307,-27.51128]]]},"properties":{"cod_ibge":"420360","name":"Campos Novos","uf":"SC"}},
{"type":"Feature","geometry":{"type":"Polygon","coordinates":[[[-53.73245,-27.00425],[-53.83715,-27.16841],[-53.81954,-27.17568],[-53.71769,-27.1825],[-53.59967,-27.18932],[-53.5478,-27.17659],[-53.54827,-27.15613],[-53.64345,-27.04381],[-53.73245,-27.00425]]]},"properties":{"cod_ibge":"420840","name":"Itapiranga","uf":"SC"}},
{"type":"Feature","geometry":{"type":"Polygon","coordinates":[[[-48.6821,-25.98381],[-48.74207,-26.12751],[-48.56931,-26.16752],[-48.59549,-25.97699],[-48.6821,-25.98381]]]},"properties":{"cod_ibge":"420845","name":"Itapoá","uf":"SC"}},
{"type":"Feature","geometry":{"type":"Polygon","coordinates":[[[-49.67675,-28.86823],[-49.53398,-28.91734],[-49.51351,-28.89187],[-49.51685,-28.85777],[-49.59537,-28.77591],[-49.67009,-28.75363],[-49.67675,-28.86823]]]},"properties":{"cod_ibge":"421080","name":"Meleiro","uf":"SC"}},
{"type":"Feature","geometry":{"type":"Polygon","coordinates":[[[-50.0037,-27.21297],[-50.31542,-27.07564],[-50.34873,-27.09383],[-50.24356,-27.23707],[-50.17503,-27.26936],[-50.12934,-27.27391],[-50.0037,-27.21297]]]},"properties":{"cod_ibge":"421085","name":"Mirim Doce","uf":"SC"}},
{"type":"Feature","geometry":{"type":"Polygon","coordinates":[[[-51.93922,-27.33575],[-51.88211,-27.42579],[-51.82262,-27.29664],[-51.93922,-27.33575]]]},"properties":{"cod_ibge":"421260","name":"Peritiba","uf":"SC"}},
{"type":"Feature","geometry":{"type":"Polygon","coordinates":[[[-48.64212,-26.91284],[-48.62118,-26.82599],[-48.70828,-26.81553],[-48.81774,-26.74095],[-48.82011,-26.82371],[-48.75967,-26.85509],[-48.64212,-26.91284]]]},"properties":{"cod_ibge":"421130","name":"Navegantes","uf":"SC"}},
{"type":"Feature","geometry":{"type":"Polygon","coordinates":[[[-49.65962,-27.3885],[-49.48068,-27.30528],[-49.49162,-27.30074],[-49.52732,-27.27209],[-49.68151,-27.29119],[-49.65962,-27.3885]]]},"properties":{"cod_ibge":"420190","name":"Aurora","uf":"SC"}},
{"type":"Feature","geometry":{"type":"Polygon","coordinates":[[[-53.68819,-26.4431],[-53.54066,-26.42718],[-53.58349,-26.41308],[-53.68866,-26.42854],[-53.68819,-26.4431]]]},"properties":{"cod_ibge":"421415","name":"Princesa","uf":"SC"}},
{"type":"Feature","geometry":{"type":"Polygon","coordinates":[[[-51.52946,-27.24526],[-51.32578,-27.26117],[-51.28056,-27.21297],[-51.43143,-27.11702],[-51.48045,-27.14521],[-51.53993,-27.23798],[-51.52946,-27.24526]]]},"properties":{"cod_ibge":"420670","name":"Herval d'Oeste","uf":"SC"}},
{"type":"Feature","geometry":{"type":"Polygon","coordinates":[[[-52.74398,-26.65773],[-52.74874,-26.59498],[-52.76064,-26.58679],[-52.83964,-26.59316],[-52.84488,-26.66956],[-52.84631,-26.67001],[-52.74398,-26.65773]]]},"properties":{"cod_ibge":"420543","name":"Formosa do Sul","uf":"SC"}},
{"type":"Feature","geometry":{"type":"Polygon","coordinates":[[[-48.57645,-27.84415],[-48.37371,-27.47172],[-48.52648,-27.40805],[-48.58502,-27.45489],[-48.57597,-27.51719],[-48.60262,-27.66271],[-48.57645,-27.84415]]]},"properties":{"cod_ibge":"420540","name":"Florianópolis","uf":"SC"}},
{"type":"Feature","geometry":{"type":"Polygon","coordinates":[[[-51.28056,-27.21297],[-51.11257,-27.23889],[-51.23345,-27.13885],[-51.32149,-27.15158],[-51.28056,-27.21297]]]},"properties":{"cod_ibge":"420675","name":"Ibiam","uf":"SC"}},
{"type":"Feature","geometry":{"type":"Polygon","coordinates":[[[-51.4062,-26.94331],[-51.50995,-26.83963],[-51.51519,-26.93558],[-51.46236,-27.02789],[-51.33434,-27.02016],[-51.35148,-26.98105],[-51.4062,-26.94331]]]},"properties":{"cod_ibge":"421850","name":"Treze Tílias","uf":"SC"}},
{"type":"Feature","geometry":{"type":"Polygon","coordinates":[[[-51.55326,-27.39941],[-51.63274,-27.48854],[-51.57848,-27.57676],[-51.54755,-27.55903],[-51.44856,-27.46535],[-51.55326,-27.39941]]]},"properties":{"cod_ibge":"421985","name":"Zortéa","uf":"SC"}},
{"type":"Feature","geometry":{"type":"Polygon","coordinates":[[[-53.5873,-26.80189],[-53.38884,-26.77096],[-53.36505,-26.76596],[-53.39455,-26.74413],[-53.49497,-26.65955],[-53.59824,-26.65819],[-53.59586,-26.6882],[-53.5873,-26.80189]]]},"properties":{"cod_ibge":"421720","name":"São Miguel do Oeste","uf":"SC"}},
{"type":"Feature","geometry":{"type":"Polygon","coordinates":[[[-49.51589,-29.0956],[-49.37693,-28.95645],[-49.56586,-29.05876],[-49.51589,-29.0956]]]},"properties":{"cod_ibge":"420195","name":"Balneário Arroio do Silva","uf":"SC"}},
{"type":"Feature","geometry":{"type":"Polygon","coordinates":[[[-49.425,-28.81457],[-49.47639,-28.7127],[-49.59537,-28.77591],[-49.51685,-28.85777],[-49.425,-28.81457]]]},"properties":{"cod_ibge":"420545","name":"Forquilhinha","uf":"SC"}},
{"type":"Feature","geometry":{"type":"Polygon","coordinates":[[[-52.97147,-27.21797],[-52.85106,-27.17023],[-52.85202,-27.11247],[-52.89818,-27.0861],[-52.99241,-27.13976],[-52.97147,-27.21797]]]},"properties":{"cod_ibge":"420410","name":"Caxambu do Sul","uf":"SC"}},
{"type":"Feature","geometry":{"type":"Polygon","coordinates":[[[-48.91434,-28.46714],[-48.80441,-28.35573],[-48.94813,-28.35892],[-48.93719,-28.38347],[-48.91434,-28.46714]]]},"properties":{"cod_ibge":"421265","name":"Pescaria Brava","uf":"SC"}},
{"type":"Feature","geometry":{"type":"Polygon","coordinates":[[[-48.74587,-27.61542],[-48.72731,-27.55357],[-48.92053,-27.55721],[-48.95004,-27.62678],[-48.84439,-27.62497],[-48.74587,-27.61542]]]},"properties":{"cod_ibge":"421725","name":"São Pedro de Alcântara","uf":"SC"}},
{"type":"Feature","geometry":{"type":"Polygon","coordinates":[[[-49.93327,-27.18932],[-50.0037,-27.21297],[-50.12934,-27.27391],[-50.07556,-27.30483],[-49.95659,-27.40169],[-49.8852,-27.30619],[-49.82333,-27.26527],[-49.93327,-27.18932]]]},"properties":{"cod_ibge":"421370","name":"Pouso Redondo","uf":"SC"}},
{"type":"Feature","geometry":{"type":"Polygon","coordinates":[[[-50.87509,-27.60223],[-50.63952,-27.71455],[-50.5134,-27.78685],[-50.39014,-27.73001],[-50.56956,-27.50401],[-50.75421,-27.42215],[-50.82274,-27.45171],[-50.96028,-27.55539],[-50.93505,-27.57949],[-50.87509,-27.60223]]]},"properties":{"cod_ibge":"421680","name":"São José do Cerrito","uf":"SC"}},
{"type":"Feature","geometry":{"type":"Polygon","coordinates":[[[-50.65808,-27.08701],[-50.52625,-27.1202],[-50.34873,-27.09383],[-50.31542,-27.07564],[-50.29067,-26.96969],[-50.2545,-26.86328],[-50.41251,-26.72958],[-50.49246,-26.64818],[-50.52672,-26.78097],[-50.58717,-26.86146],[-50.65808,-27.08701]]]},"properties":{"cod_ibge":"421550","name":"Santa Cecília","uf":"SC"}},
{"type":"Feature","geometry":{"type":"Polygon","coordinates":[[[-48.94813,-28.35892],[-48.80441,-28.35573],[-48.75492,-28.32481],[-48.76158,-28.09062],[-48.86913,-28.08016],[-48.92148,-28.23477],[-48.9548,-28.3189],[-48.94813,-28.35892]]]},"properties":{"cod_ibge":"420720","name":"Imaruí","uf":"SC"}},
{"type":"Feature","geometry":{"type":"Polygon","coordinates":[[[-49.18799,-28.80229],[-49.20513,-28.77637],[-49.32981,-28.86504],[-49.29031,-28.88323],[-49.18799,-28.80229]]]},"properties":{"cod_ibge":"422000","name":"Balneário Rincão","uf":"SC"}},
{"type":"Feature","geometry":{"type":"Polygon","coordinates":[[[-48.88246,-27.81505],[-48.84439,-27.62497],[-48.95004,-27.62678],[-48.97003,-27.63452],[-49.03094,-27.77367],[-49.01667,-27.86643],[-48.88246,-27.81505]]]},"properties":{"cod_ibge":"420060","name":"Águas Mornas","uf":"SC"}},
{"type":"Feature","geometry":{"type":"Polygon","coordinates":[[[-48.98716,-26.80871],[-48.82011,-26.82371],[-48.81774,-26.74095],[-48.8006,-26.71321],[-48.80155,-26.68138],[-48.85628,-26.63454],[-49.03618,-26.77233],[-49.03047,-26.77824],[-48.98716,-26.80871]]]},"properties":{"cod_ibge":"421000","name":"Luiz Alves","uf":"SC"}},
{"type":"Feature","geometry":{"type":"Polygon","coordinates":[[[-51.43666,-26.856],[-51.36813,-26.86919],[-51.28199,-26.87828],[-51.28437,-26.87374],[-51.25534,-26.77369],[-51.41192,-26.72094],[-51.43666,-26.856]]]},"properties":{"cod_ibge":"421005","name":"Macieira","uf":"SC"}},
{"type":"Feature","geometry":{"type":"Polygon","coordinates":[[[-50.97836,-27.94829],[-50.87842,-27.86552],[-50.87509,-27.60223],[-50.93505,-27.57949],[-50.95885,-27.64588],[-50.91031,-27.6809],[-51.05356,-27.86871],[-51.05689,-27.8869],[-51.00168,-27.96329],[-50.97836,-27.94829]]]},"properties":{"cod_ibge":"420417","name":"Cerro Negro","uf":"SC"}},
{"type":"Feature","geometry":{"type":"Polygon","coordinates":[[[-49.05712,-27.06154],[-49.03047,-26.77824],[-49.03618,-26.77233],[-49.11423,-26.61317],[-49.12993,-26.63545],[-49.12755,-26.83281],[-49.19799,-26.83645],[-49.15991,-26.88556],[-49.15468,-27.11975],[-49.1385,-27.13248],[-49.05712,-27.06154]]]},"properties":{"cod_ibge":"420240","name":"Blumenau","uf":"SC"}},
{"type":"Feature","geometry":{"type":"Polygon","coordinates":[[[-49.30792,-27.94101],[-49.05188,-27.99012],[-49.01667,-27.86643],[-49.03094,-27.77367],[-49.15753,-27.74456],[-49.28079,-27.87325],[-49.29936,-27.9019],[-49.30792,-27.94101]]]},"properties":{"cod_ibge":"420110","name":"Anitápolis","uf":"SC"}},
{"type":"Feature","geometry":{"type":"Polygon","coordinates":[[[-51.45713,-27.60769],[-51.30864,-27.71955],[-51.27343,-27.73547],[-51.21537,-27.6186],[-51.45713,-27.60769]]]},"properties":{"cod_ibge":"420415","name":"Celso Ramos","uf":"SC"}},
{"type":"Feature","geometry":{"type":"Polygon","coordinates":[[[-51.48045,-27.14521],[-51.43143,-27.11702],[-51.45665,-27.06973],[-51.60038,-27.05154],[-51.48045,-27.14521]]]},"properties":{"cod_ibge":"421003","name":"Luzerna","uf":"SC"}},
{"type":"Feature","geometry":{"type":"Polygon","coordinates":[[[-53.67153,-26.94286],[-53.58254,-26.95331],[-53.5359,-26.94558],[-53.57587,-26.89556],[-53.67534,-26.89283],[-53.67153,-26.94286]]]},"properties":{"cod_ibge":"421555","name":"Santa Helena","uf":"SC"}},
{"type":"Feature","geometry":{"type":"Polygon","coordinates":[[[-50.06652,-27.81141],[-49.86949,-27.90054],[-49.77812,-27.80368],[-49.83904,-27.67817],[-49.99989,-27.64088],[-50.06652,-27.81141]]]},"properties":{"cod_ibge":"420243","name":"Bocaina do Sul","uf":"SC"}},
{"type":"Feature","geometry":{"type":"Polygon","coordinates":[[[-49.59156,-27.57131],[-49.47306,-27.56585],[-49.40406,-27.56085],[-49.46545,-27.44534],[-49.45831,-27.35712],[-49.48068,-27.30528],[-49.65962,-27.3885],[-49.69341,-27.39077],[-49.67485,-27.45899],[-49.59156,-27.57131]]]},"properties":{"cod_ibge":"420850","name":"Ituporanga","uf":"SC"}},
{"type":"Feature","geometry":{"type":"Polygon","coordinates":[[[-49.59156,-27.57131],[-49.62059,-27.6186],[-49.50685,-27.60086],[-49.47306,-27.56585],[-49.59156,-27.57131]]]},"properties":{"cod_ibge":"420419","name":"Chapadão do Lageado","uf":"SC"}},
{"type":"Feature","geometry":{"type":"Polygon","coordinates":[[[-49.38597,-28.57992],[-49.25272,-28.58856],[-49.22131,-28.43304],[-49.33552,-28.41803],[-49.42785,-28.45896],[-49.42214,-28.53672],[-49.38597,-28.57992]]]},"properties":{"cod_ibge":"421900","name":"Urussanga","uf":"SC"}},
{"type":"Feature","geometry":{"type":"Polygon","coordinates":[[[-49.30078,-27.58449],[-49.20179,-27.64543],[-49.20941,-27.62906],[-49.22464,-27.49127],[-49.18799,-27.4076],[-49.22416,-27.3212],[-49.31125,-27.39623],[-49.31839,-27.57222],[-49.30078,-27.58449]]]},"properties":{"cod_ibge":"420980","name":"Leoberto Leal","uf":"SC"}},
{"type":"Feature","geometry":{"type":"Polygon","coordinates":[[[-52.97337,-26.74459],[-53.06951,-26.73686],[-53.10948,-26.7405],[-53.1209,-26.80871],[-53.11567,-26.81553],[-53.0419,-26.81416],[-52.95767,-26.75459],[-52.97337,-26.74459]]]},"properties":{"cod_ibge":"421090","name":"Modelo","uf":"SC"}},
{"type":"Feature","geometry":{"type":"Polygon","coordinates":[[[-48.57835,-27.21161],[-48.48793,-27.1484],[-48.50792,-27.11065],[-48.57835,-27.21161]]]},"properties":{"cod_ibge":"420245","name":"Bombinhas","uf":"SC"}},
{"type":"Feature","geometry":{"type":"Polygon","coordinates":[[[-52.62644,-26.64636],[-52.74398,-26.65773],[-52.84631,-26.67001],[-52.81727,-26.73413],[-52.79158,-26.78915],[-52.71686,-26.80371],[-52.6231,-26.77142],[-52.6074,-26.67501],[-52.62644,-26.64636]]]},"properties":{"cod_ibge":"421420","name":"Quilombo","uf":"SC"}},
{"type":"Feature","geometry":{"type":"Polygon","coordinates":[[[-51.72982,-27.35667],[-51.59228,-27.33257],[-51.59514,-27.29846],[-51.65653,-27.2016],[-51.68556,-27.18341],[-51.72459,-27.2066],[-51.75647,-27.28073],[-51.72982,-27.35667]]]},"properties":{"cod_ibge":"421180","name":"Ouro","uf":"SC"}},
{"type":"Feature","geometry":{"type":"Polygon","coordinates":[[[-48.79346,-27.35303],[-48.74445,-27.30665],[-48.79917,-27.15522],[-48.8125,-27.13476],[-48.88198,-27.18432],[-48.86533,-27.21979],[-48.8006,-27.35849],[-48.79346,-27.35303]]]},"properties":{"cod_ibge":"420370","name":"Canelinha","uf":"SC"}},
{"type":"Feature","geometry":{"type":"Polygon","coordinates":[[[-53.01763,-27.09292],[-52.96528,-26.96332],[-53.04666,-26.96787],[-53.10806,-27.03108],[-53.07665,-27.10793],[-53.01763,-27.09292]]]},"properties":{"cod_ibge":"421600","name":"São Carlos","uf":"SC"}},
{"type":"Feature","geometry":{"type":"Polygon","coordinates":[[[-51.43143,-27.11702],[-51.28056,-27.21297],[-51.32149,-27.15158],[-51.29913,-27.05745],[-51.31769,-27.0188],[-51.33434,-27.02016],[-51.46236,-27.02789],[-51.45665,-27.06973],[-51.43143,-27.11702]]]},"properties":{"cod_ibge":"420680","name":"Ibicaré","uf":"SC"}},
{"type":"Feature","geometry":{"type":"Polygon","coordinates":[[[-50.83797,-27.18432],[-50.699,-27.13703],[-50.70757,-27.10065],[-50.84606,-26.87283],[-51.04547,-26.98651],[-51.00882,-27.1202],[-50.92982,-27.11884],[-50.83797,-27.18432]]]},"properties":{"cod_ibge":"420550","name":"Fraiburgo","uf":"SC"}},
{"type":"Feature","geometry":{"type":"Polygon","coordinates":[[[-52.10912,-26.95422],[-52.0463,-27.14067],[-51.99395,-27.11884],[-52.01251,-26.94786],[-52.10912,-26.95422]]]},"properties":{"cod_ibge":"420985","name":"Lindóia do Sul","uf":"SC"}},
{"type":"Feature","geometry":{"type":"Polygon","coordinates":[[[-52.53649,-27.26026],[-52.43274,-27.21797],[-52.40181,-27.19069],[-52.50746,-27.15931],[-52.54458,-27.24071],[-52.53649,-27.26026]]]},"properties":{"cod_ibge":"421187","name":"Paial","uf":"SC"}},
{"type":"Feature","geometry":{"type":"Polygon","coordinates":[[[-53.12852,-26.72049],[-53.19372,-26.69866],[-53.28747,-26.73504],[-53.29556,-26.78461],[-53.24131,-26.81325],[-53.1209,-26.80871],[-53.10948,-26.7405],[-53.12852,-26.72049]]]},"properties":{"cod_ibge":"421050","name":"Maravilha","uf":"SC"}},
{"type":"Feature","geometry":{"type":"Polygon","coordinates":[[[-52.36183,-26.75914],[-52.18527,-26.71276],[-52.3704,-26.66956],[-52.36183,-26.75914]]]},"properties":{"cod_ibge":"421185","name":"Ouro Verde","uf":"SC"}},
{"type":"Feature","geometry":{"type":"Polygon","coordinates":[[[-50.699,-27.13703],[-50.83797,-27.18432],[-50.82084,-27.22934],[-50.76516,-27.30574],[-50.699,-27.13703]]]},"properties":{"cod_ibge":"420555","name":"Frei Rogério","uf":"SC"}},
{"type":"Feature","geometry":{"type":"Polygon","coordinates":[[[-50.06652,-27.81141],[-50.19978,-27.86325],[-50.17408,-28.1611],[-50.05462,-28.09335],[-49.86569,-27.91145],[-49.86949,-27.90054],[-50.06652,-27.81141]]]},"properties":{"cod_ibge":"421189","name":"Painel","uf":"SC"}},
{"type":"Feature","geometry":{"type":"Polygon","coordinates":[[[-53.49497,-26.65955],[-53.39455,-26.74413],[-53.3917,-26.6209],[-53.42453,-26.60362],[-53.49497,-26.65955]]]},"properties":{"cod_ibge":"420209","name":"Barra Bonita","uf":"SC"}},
{"type":"Feature","geometry":{"type":"Polygon","coordinates":[[[-49.76717,-27.37531],[-49.77812,-27.25208],[-49.80239,-27.24844],[-49.82333,-27.26527],[-49.8852,-27.30619],[-49.86474,-27.3785],[-49.76717,-27.37531]]]},"properties":{"cod_ibge":"421860","name":"Trombudo Central","uf":"SC"}},
{"type":"Feature","geometry":{"type":"Polygon","coordinates":[[[-51.53993,-27.23798],[-51.48045,-27.14521],[-51.60038,-27.05154],[-51.61846,-27.04108],[-51.67652,-27.11657],[-51.68556,-27.18341],[-51.65653,-27.2016],[-51.53993,-27.23798]]]},"properties":{"cod_ibge":"420900","name":"Joaçaba","uf":"SC"}},
{"type":"Feature","geometry":{"type":"Polygon","coordinates":[[[-52.96528,-26.96332],[-52.93435,-26.94831],[-52.94767,-26.88147],[-53.0419,-26.81416],[-53.11567,-26.81553],[-53.11186,-26.92467],[-53.04666,-26.96787],[-52.96528,-26.96332]]]},"properties":{"cod_ibge":"421730","name":"Saudades","uf":"SC"}},
{"type":"Feature","geometry":{"type":"Polygon","coordinates":[[[-52.55077,-26.80098],[-52.6231,-26.77142],[-52.71686,-26.80371],[-52.62072,-26.86464],[-52.55077,-26.80098]]]},"properties":{"cod_ibge":"421055","name":"Marema","uf":"SC"}},
{"type":"Feature","geometry":{"type":"Polygon","coordinates":[[[-48.58692,-27.90418],[-48.72398,-27.89463],[-48.73969,-27.79504],[-48.84201,-27.86143],[-48.89388,-28.08016],[-48.86913,-28.08016],[-48.76158,-28.09062],[-48.70685,-28.08243],[-48.62071,-27.9451],[-48.58692,-27.90418]]]},"properties":{"cod_ibge":"421230","name":"Paulo Lopes","uf":"SC"}},
{"type":"Feature","geometry":{"type":"Polygon","coordinates":[[[-49.68103,-26.70275],[-49.54873,-26.85645],[-49.44831,-26.71458],[-49.48829,-26.66001],[-49.56444,-26.56588],[-49.652,-26.6932],[-49.68103,-26.70275]]]},"properties":{"cod_ibge":"420515","name":"Doutor Pedrinho","uf":"SC"}},
{"type":"Feature","geometry":{"type":"Polygon","coordinates":[[[-48.8658,-27.00334],[-48.93433,-27.02789],[-49.01714,-27.16477],[-49.01952,-27.25617],[-48.88198,-27.18432],[-48.8125,-27.13476],[-48.78918,-27.09701],[-48.8658,-27.00334]]]},"properties":{"cod_ibge":"420290","name":"Brusque","uf":"SC"}},
{"type":"Feature","geometry":{"type":"Polygon","coordinates":[[[-53.32983,-27.08883],[-53.37552,-27.01561],[-53.51972,-27.08155],[-53.54827,-27.15613],[-53.5478,-27.17659],[-53.48831,-27.19387],[-53.35553,-27.11111],[-53.32983,-27.08883]]]},"properties":{"cod_ibge":"421100","name":"Mondaí","uf":"SC"}},
{"type":"Feature","geometry":{"type":"Polygon","coordinates":[[[-52.58646,-27.03062],[-52.71686,-26.97332],[-52.75826,-26.94104],[-52.84059,-27.01789],[-52.83964,-27.04426],[-52.72209,-27.04017],[-52.78539,-27.20615],[-52.69163,-27.28437],[-52.54458,-27.24071],[-52.50746,-27.15931],[-52.48937,-27.11429],[-52.50889,-27.09383],[-52.58646,-27.03062]]]},"properties":{"cod_ibge":"420420","name":"Chapecó","uf":"SC"}},
{"type":"Feature","geometry":{"type":"Polygon","coordinates":[[[-51.36813,-26.86919],[-51.4062,-26.94331],[-51.35148,-26.98105],[-51.28294,-26.9233],[-51.28199,-26.87828],[-51.36813,-26.86919]]]},"properties":{"cod_ibge":"420160","name":"Arroio Trinta","uf":"SC"}},
{"type":"Feature","geometry":{"type":"Polygon","coordinates":[[[-49.25272,-28.58856],[-49.38597,-28.57992],[-49.36931,-28.63403],[-49.36027,-28.63585],[-49.2451,-28.59038],[-49.25272,-28.58856]]]},"properties":{"cod_ibge":"420425","name":"Cocal do Sul","uf":"SC"}},
{"type":"Feature","geometry":{"type":"Polygon","coordinates":[[[-49.60536,-28.9519],[-49.70626,-28.9669],[-49.69864,-29.02056],[-49.62345,-29.01784],[-49.60536,-28.9519]]]},"properties":{"cod_ibge":"420519","name":"Ermo","uf":"SC"}},
{"type":"Feature","geometry":{"type":"Polygon","coordinates":[[[-49.33505,-26.74595],[-49.21417,-26.75505],[-49.22321,-26.62044],[-49.29126,-26.54723],[-49.44118,-26.48902],[-49.56444,-26.56588],[-49.48829,-26.66001],[-49.33505,-26.74595]]]},"properties":{"cod_ibge":"421470","name":"Rio dos Cedros","uf":"SC"}},
{"type":"Feature","geometry":{"type":"Polygon","coordinates":[[[-51.82643,-26.9233],[-51.72459,-26.84645],[-51.7836,-26.7596],[-52.11483,-26.85918],[-52.14862,-26.92921],[-52.10912,-26.95422],[-52.01251,-26.94786],[-51.82643,-26.9233]]]},"properties":{"cod_ibge":"421340","name":"Ponte Serrada","uf":"SC"}},
{"type":"Feature","geometry":{"type":"Polygon","coordinates":[[[-49.30507,-26.84781],[-49.20703,-26.83053],[-49.21417,-26.75505],[-49.33505,-26.74595],[-49.33029,-26.8078],[-49.30507,-26.84781]]]},"properties":{"cod_ibge":"421820","name":"Timbó","uf":"SC"}},
{"type":"Feature","geometry":{"type":"Polygon","coordinates":[[[-50.80656,-26.655],[-50.70234,-26.66092],[-50.52672,-26.78097],[-50.49246,-26.64818],[-50.49246,-26.64273],[-50.52958,-26.60862],[-50.699,-26.50039],[-50.79752,-26.50812],[-50.85605,-26.56042],[-50.80656,-26.655]]]},"properties":{"cod_ibge":"421825","name":"Timbó Grande","uf":"SC"}},
{"type":"Feature","geometry":{"type":"Polygon","coordinates":[[[-52.53458,-26.80916],[-52.56314,-26.67183],[-52.6074,-26.67501],[-52.6231,-26.77142],[-52.55077,-26.80098],[-52.53458,-26.80916]]]},"properties":{"cod_ibge":"420517","name":"Entre Rios","uf":"SC"}},
{"type":"Feature","geometry":{"type":"Polygon","coordinates":[[[-50.83797,-27.18432],[-50.92982,-27.11884],[-51.03642,-27.23343],[-50.85367,-27.24753],[-50.82084,-27.22934],[-50.83797,-27.18432]]]},"properties":{"cod_ibge":"421105","name":"Monte Carlo","uf":"SC"}},
{"type":"Feature","geometry":{"type":"Polygon","coordinates":[[[-49.65962,-27.3885],[-49.68151,-27.29119],[-49.69103,-27.2448],[-49.77812,-27.25208],[-49.76717,-27.37531],[-49.75052,-27.39578],[-49.69341,-27.39077],[-49.65962,-27.3885]]]},"properties":{"cod_ibge":"420030","name":"Agronômica","uf":"SC"}},
{"type":"Feature","geometry":{"type":"Polygon","coordinates":[[[-52.48937,-27.11429],[-52.39086,-27.09065],[-52.41894,-27.00652],[-52.45273,-26.99515],[-52.50889,-27.09383],[-52.48937,-27.11429]]]},"properties":{"cod_ibge":"420165","name":"Arvoredo","uf":"SC"}},
{"type":"Feature","geometry":{"type":"Polygon","coordinates":[[[-49.59204,-27.12793],[-49.52732,-27.27209],[-49.49162,-27.30074],[-49.44689,-27.25526],[-49.49543,-27.07882],[-49.59204,-27.12793]]]},"properties":{"cod_ibge":"420990","name":"Lontras","uf":"SC"}},
{"type":"Feature","geometry":{"type":"Polygon","coordinates":[[[-48.73969,-27.79504],[-48.72398,-27.89463],[-48.58692,-27.90418],[-48.57645,-27.84415],[-48.60262,-27.66271],[-48.73826,-27.61451],[-48.73969,-27.79504]]]},"properties":{"cod_ibge":"421190","name":"Palhoça","uf":"SC"}},
{"type":"Feature","geometry":{"type":"Polygon","coordinates":[[[-51.67652,-27.11657],[-51.83119,-27.08564],[-51.87497,-27.12157],[-51.81453,-27.18796],[-51.72459,-27.2066],[-51.68556,-27.18341],[-51.67652,-27.11657]]]},"properties":{"cod_ibge":"420860","name":"Jaborá","uf":"SC"}},
{"type":"Feature","geometry":{"type":"Polygon","coordinates":[[[-49.84951,-28.10244],[-50.05462,-28.09335],[-50.17408,-28.1611],[-50.27164,-28.343],[-50.42488,-28.43349],[-50.24261,-28.43213],[-50.06842,-28.47942],[-49.97086,-28.44032],[-49.81619,-28.46896],[-49.77288,-28.27615],[-49.67199,-28.23068],[-49.84951,-28.10244]]]},"properties":{"cod_ibge":"421650","name":"São Joaquim","uf":"SC"}},
{"type":"Feature","geometry":{"type":"Polygon","coordinates":[[[-53.23893,-26.54314],[-53.3917,-26.6209],[-53.39455,-26.74413],[-53.36505,-26.76596],[-53.30603,-26.72094],[-53.22703,-26.63909],[-53.22275,-26.57906],[-53.23893,-26.54314]]]},"properties":{"cod_ibge":"421520","name":"Romelândia","uf":"SC"}}
]}