{"type":"FeatureCollection", "features": [
{"type":"Feature","geometry":{"type":"Polygon","coordinates":[[[-52.93863,-15.26922],[-52.73923,-15.02275],[-52.67783,-14.86177],[-52.81394,-14.77901],[-53.02382,-14.73854],[-53.09854,-14.87951],[-53.29176,-14.86268],[-53.56683,-14.9609],[-53.73435,-15.1328],[-53.92472,-15.08323],[-53.89902,-15.26103],[-53.73292,-15.34334],[-53.48545,-15.38199],[-53.32126,-15.36562],[-53.25511,-15.23739],[-53.16564,-15.21783],[-52.93863,-15.26922]]]},"properties":{"cod_ibge":"510628","name":"Novo São Joaquim","uf":"MT"}},
{"type":"Feature","geometry":{"type":"Polygon","coordinates":[[[-56.93817,-9.93648],[-56.89772,-9.9483],[-56.37945,-9.91965],[-56.32853,-9.80961],[-56.33995,-9.63135],[-56.25334,-9.47219],[-56.27237,-9.40079],[-56.67166,-9.3676],[-56.77255,-9.39079],[-56.82015,-9.24618],[-56.99576,-9.2339],[-57.06,-9.18252],[-57.10046,-9.21662],[-57.05429,-9.52949],[-56.9415,-9.5936],[-56.85298,-9.81552],[-56.93817,-9.93648]]]},"properties":{"cod_ibge":"510629","name":"Paranaíta","uf":"MT"}},
{"type":"Feature","geometry":{"type":"Polygon","coordinates":[[[-56.05964,-12.42846],[-55.90355,-12.16152],[-55.90878,-12.03374],[-55.8274,-11.7518],[-55.73317,-11.72588],[-55.8136,-11.4976],[-55.78028,-11.44576],[-55.8274,-11.47987],[-55.86214,-11.57946],[-55.96446,-11.61583],[-56.07249,-11.69178],[-56.09962,-11.82502],[-56.21098,-11.91824],[-56.38897,-12.18471],[-56.41515,-12.24792],[-56.35661,-12.26611],[-56.2443,-12.44164],[-56.19004,-12.38207],[-56.05964,-12.42846]]]},"properties":{"cod_ibge":"510452","name":"Ipiranga do Norte","uf":"MT"}},
{"type":"Feature","geometry":{"type":"Polygon","coordinates":[[[-61.54021,-10.00014],[-61.36413,-10.0388],[-61.03718,-9.97331],[-60.87679,-9.77232],[-60.74354,-9.69865],[-60.74354,-9.6991],[-60.64741,-9.63635],[-60.59077,-9.55313],[-60.62361,-9.36532],[-60.47846,-9.31667],[-60.26953,-9.32122],[-60.16674,-9.40079],[-59.91546,-9.41444],[-59.77269,-9.48265],[-59.83646,-9.61725],[-59.78506,-9.75322],[-59.64705,-9.86645],[-59.43479,-9.76868],[-59.25347,-9.77505],[-59.16781,-9.82143],[-59.18065,-9.99605],[-59.02313,-9.97968],[-58.96554,-9.94375],[-59.04312,-9.63499],[-58.93842,-9.43945],[-58.94841,-9.33076],[-59.02979,-9.16069],[-58.97078,-9.06929],[-59.0455,-8.97698],[-59.01789,-8.87148],[-59.12735,-8.80327],[-60.4204,-8.79644],[-61.58304,-8.79872],[-61.4693,-8.92013],[-61.55592,-9.09248],[-61.52498,-9.243],[-61.61636,-9.32667],[-61.50785,-9.5404],[-61.50214,-9.68273],[-61.57448,-9.71775],[-61.50785,-9.86099],[-61.54021,-10.00014]]]},"properties":{"cod_ibge":"510325","name":"Colniza","uf":"MT"}},
{"type":"Feature","geometry":{"type":"Polygon","coordinates":[[[-58.69666,-15.31378],[-58.58149,-15.50978],[-58.4844,-15.51478],[-58.49154,-15.34971],[-58.60147,-15.21829],[-58.72616,-15.15553],[-58.69666,-15.31378]]]},"properties":{"cod_ibge":"510450","name":"Indiavaí","uf":"MT"}},
{"type":"Feature","geometry":{"type":"Polygon","coordinates":[[[-54.18932,-16.62798],[-54.31401,-16.59706],[-54.35636,-16.49884],[-54.33876,-16.32512],[-54.46344,-16.23736],[-54.47963,-16.0682],[-54.71948,-16.16597],[-54.93983,-16.33104],[-54.97076,-16.4711],[-54.93221,-16.90401],[-54.89509,-17.07408],[-54.72424,-17.03998],[-54.58242,-17.07817],[-54.58718,-16.67255],[-54.45297,-16.55977],[-54.19551,-16.65936],[-54.18932,-16.62798]]]},"properties":{"cod_ibge":"510760","name":"Rondonópolis","uf":"MT"}},
{"type":"Feature","geometry":{"type":"Polygon","coordinates":[[[-57.28035,-13.80768],[-57.10284,-13.5794],[-56.99528,-13.51892],[-57.01765,-13.36658],[-56.73972,-12.95459],[-56.77351,-12.83499],[-56.90295,-12.62991],[-56.95292,-12.46984],[-56.95626,-12.29931],[-57.00765,-12.28385],[-57.14472,-12.00691],[-57.19659,-11.84593],[-57.40551,-11.71997],[-57.42312,-12.05511],[-57.61491,-12.10195],[-57.73437,-12.20927],[-57.62586,-12.34069],[-57.44121,-12.4662],[-57.44168,-12.57852],[-57.3703,-12.85136],[-57.29272,-12.92594],[-57.32699,-13.04417],[-57.48689,-13.15513],[-57.61872,-13.34066],[-57.54305,-13.58213],[-57.36554,-13.58622],[-57.35316,-13.73811],[-57.28035,-13.80768]]]},"properties":{"cod_ibge":"510890","name":"Nova Maringá","uf":"MT"}},
{"type":"Feature","geometry":{"type":"Polygon","coordinates":[[[-56.95626,-12.29931],[-56.8468,-12.37161],[-56.68642,-12.31841],[-56.52889,-12.34842],[-56.41515,-12.24792],[-56.38897,-12.18471],[-56.46131,-11.99554],[-56.68879,-11.98872],[-56.78683,-11.91369],[-57.14472,-12.00691],[-57.00765,-12.28385],[-56.95626,-12.29931]]]},"properties":{"cod_ibge":"510454","name":"Itanhangá","uf":"MT"}},
{"type":"Feature","geometry":{"type":"Polygon","coordinates":[[[-54.92174,-11.1761],[-54.94221,-11.0365],[-55.07594,-11.00557],[-55.27439,-10.87461],[-55.39385,-10.92372],[-55.44572,-11.0133],[-55.61657,-10.96146],[-55.76458,-10.98556],[-55.88308,-10.87324],[-56.32092,-11.09288],[-55.83597,-11.31116],[-55.46285,-11.35527],[-55.43477,-11.19338],[-55.28344,-11.27842],[-54.92174,-11.1761]]]},"properties":{"cod_ibge":"510455","name":"Itaúba","uf":"MT"}},
{"type":"Feature","geometry":{"type":"Polygon","coordinates":[[[-57.59968,-10.24934],[-57.29796,-10.27162],[-57.15328,-10.31209],[-56.96339,-10.28435],[-56.96197,-10.11428],[-56.90343,-10.04152],[-56.93817,-9.93648],[-56.85298,-9.81552],[-56.9415,-9.5936],[-57.05429,-9.52949],[-57.16423,-9.66773],[-57.18898,-9.79096],[-57.31842,-9.78005],[-57.33175,-9.69819],[-57.57256,-9.76777],[-57.66869,-9.71729],[-57.69344,-9.85826],[-57.59826,-10.05744],[-57.59968,-10.24934]]]},"properties":{"cod_ibge":"510895","name":"Nova Monte Verde","uf":"MT"}},
{"type":"Feature","geometry":{"type":"Polygon","coordinates":[[[-53.46737,-14.40339],[-53.45499,-14.2647],[-53.36552,-14.13919],[-53.22418,-13.77494],[-53.42025,-13.65353],[-53.61299,-13.77949],[-53.78289,-13.58986],[-53.92662,-13.77676],[-54.04322,-13.79631],[-54.05369,-13.65625],[-54.00657,-13.29337],[-54.02513,-13.24608],[-53.89235,-12.84272],[-53.83524,-12.78042],[-53.72816,-12.40163],[-53.52305,-11.99509],[-53.5478,-11.9487],[-53.78242,-12.09422],[-53.90235,-12.24065],[-53.96945,-12.21336],[-54.15648,-12.39208],[-54.21788,-12.53486],[-54.29926,-12.57397],[-54.34209,-12.71767],[-54.32733,-12.85409],[-54.40776,-13.02962],[-54.40871,-13.03053],[-54.43061,-13.10102],[-54.47249,-13.23516],[-54.62811,-13.40615],[-54.66856,-13.51165],[-54.64334,-13.7904],[-54.75994,-13.87044],[-54.8732,-13.79086],[-55.00931,-13.81314],[-54.91127,-13.96593],[-54.92698,-14.09144],[-54.87511,-14.21149],[-54.81514,-14.29425],[-54.70854,-14.32017],[-54.55006,-14.47661],[-54.39872,-14.53163],[-54.33733,-14.73262],[-54.13412,-14.62803],[-53.96088,-14.60393],[-53.77718,-14.63531],[-53.59681,-14.55709],[-53.46737,-14.40339]]]},"properties":{"cod_ibge":"510630","name":"Paranatinga","uf":"MT"}},
{"type":"Feature","geometry":{"type":"Polygon","coordinates":[[[-51.1297,-12.43482],[-51.00644,-12.39208],[-50.92411,-12.62581],[-50.94552,-12.69266],[-50.84273,-12.89184],[-50.73041,-12.78452],[-50.68377,-12.64809],[-50.62381,-12.45529],[-50.6814,-12.217],[-50.68615,-11.85912],[-50.71709,-11.72725],[-50.84178,-11.88777],[-50.95028,-12.08513],[-51.08497,-12.08376],[-51.30626,-12.17062],[-51.28342,-12.34706],[-51.1297,-12.43482]]]},"properties":{"cod_ibge":"510631","name":"Novo Santo Antônio","uf":"MT"}},
{"type":"Feature","geometry":{"type":"Polygon","coordinates":[[[-53.77909,-11.28979],[-53.87379,-11.51124],[-53.9685,-11.53307],[-54.13412,-11.67177],[-54.28641,-11.87185],[-54.4011,-11.99554],[-54.48629,-12.00236],[-54.80229,-12.11787],[-54.93174,-12.13015],[-55.01264,-12.24565],[-55.12543,-12.17744],[-55.07166,-12.36661],[-55.15732,-12.57625],[-55.2763,-12.66674],[-55.22918,-12.73722],[-54.95363,-12.74177],[-54.91556,-12.66674],[-54.74661,-12.60126],[-54.70568,-12.49667],[-54.55958,-12.46756],[-54.45345,-12.36343],[-54.14411,-12.17289],[-53.85571,-12.07239],[-53.78242,-12.09422],[-53.5478,-11.9487],[-53.54732,-11.93643],[-53.60824,-11.74362],[-53.54732,-11.56809],[-53.24464,-11.21112],[-53.31793,-10.95783],[-53.39312,-11.05696],[-53.56017,-11.0847],[-53.77909,-11.28979]]]},"properties":{"cod_ibge":"510370","name":"Feliz Natal","uf":"MT"}},
{"type":"Feature","geometry":{"type":"Polygon","coordinates":[[[-58.85418,-15.00001],[-58.94936,-15.18145],[-58.94222,-15.2965],[-59.09309,-15.46703],[-59.08785,-15.47749],[-58.85656,-15.60027],[-58.85561,-15.49659],[-58.69666,-15.31378],[-58.72616,-15.15553],[-58.72235,-15.00001],[-58.85418,-15.00001]]]},"properties":{"cod_ibge":"510500","name":"Jauru","uf":"MT"}},
{"type":"Feature","geometry":{"type":"Polygon","coordinates":[[[-53.80431,-16.21008],[-53.61633,-16.22827],[-53.49497,-16.14277],[-53.3917,-16.26828],[-53.29556,-16.19643],[-53.24321,-16.01272],[-53.05666,-15.96042],[-53.04095,-15.73806],[-53.15422,-15.72396],[-53.2613,-15.59436],[-53.44405,-15.57344],[-53.62965,-15.71759],[-53.7748,-15.71987],[-53.76624,-15.88539],[-53.85476,-16.13277],[-53.80431,-16.21008]]]},"properties":{"cod_ibge":"510810","name":"Tesouro","uf":"MT"}},
{"type":"Feature","geometry":{"type":"Polygon","coordinates":[[[-54.18932,-16.62798],[-54.19551,-16.65936],[-54.45297,-16.55977],[-54.58718,-16.67255],[-54.58242,-17.07817],[-54.4682,-17.11183],[-54.15743,-17.04452],[-54.01704,-16.93357],[-53.86237,-16.75758],[-53.88331,-16.59388],[-54.03655,-16.46791],[-54.1679,-16.50566],[-54.18932,-16.62798]]]},"properties":{"cod_ibge":"510637","name":"Pedra Preta","uf":"MT"}},
{"type":"Feature","geometry":{"type":"Polygon","coordinates":[[[-54.33876,-16.32512],[-54.35636,-16.49884],[-54.31401,-16.59706],[-54.18932,-16.62798],[-54.1679,-16.50566],[-54.22692,-16.32285],[-54.33876,-16.32512]]]},"properties":{"cod_ibge":"510729","name":"São José do Povo","uf":"MT"}},
{"type":"Feature","geometry":{"type":"Polygon","coordinates":[[[-58.39065,-15.88494],[-58.56055,-15.69304],[-58.71569,-15.6894],[-58.85656,-15.60027],[-59.08785,-15.47749],[-59.19684,-15.76488],[-59.31629,-15.9586],[-59.47286,-16.14732],[-59.46906,-16.27965],[-58.78565,-16.30784],[-58.69475,-16.03227],[-58.39065,-15.88494]]]},"properties":{"cod_ibge":"510682","name":"Porto Esperidião","uf":"MT"}},
{"type":"Feature","geometry":{"type":"Polygon","coordinates":[[[-57.40551,-11.71997],[-57.19659,-11.84593],[-57.14472,-12.00691],[-56.78683,-11.91369],[-56.68879,-11.98872],[-56.46131,-11.99554],[-56.38897,-12.18471],[-56.21098,-11.91824],[-56.09962,-11.82502],[-56.07249,-11.69178],[-55.96446,-11.61583],[-56.19195,-11.63994],[-56.43323,-11.54762],[-56.53508,-11.56172],[-56.85394,-11.50761],[-56.9396,-11.39074],[-57.06,-11.35936],[-57.1252,-11.4594],[-57.40789,-11.49396],[-57.40551,-11.71997]]]},"properties":{"cod_ibge":"510680","name":"Porto dos Gaúchos","uf":"MT"}},
{"type":"Feature","geometry":{"type":"Polygon","coordinates":[[[-60.38328,-13.99276],[-60.48036,-14.09599],[-60.45371,-14.31426],[-60.27382,-14.62121],[-60.24479,-15.09733],[-60.57554,-15.09733],[-60.23955,-15.47476],[-60.17388,-16.26692],[-59.46906,-16.27965],[-59.47286,-16.14732],[-59.66941,-16.16415],[-59.82504,-15.95724],[-59.94211,-15.94769],[-60.04824,-15.63665],[-60.01588,-15.56162],[-59.48952,-15.44111],[-59.43241,-15.22738],[-59.57138,-14.97773],[-59.44669,-14.95909],[-59.58423,-14.81993],[-59.77316,-14.64077],[-59.80457,-14.55573],[-60.00683,-14.40885],[-60.10725,-14.42931],[-60.22004,-14.26788],[-60.30999,-14.06097],[-60.38328,-13.99276]]]},"properties":{"cod_ibge":"510550","name":"Vila Bela da Santíssima Trindade","uf":"MT"}},
{"type":"Feature","geometry":{"type":"Polygon","coordinates":[[[-56.98053,-15.38199],[-57.13805,-15.23284],[-57.29653,-15.33652],[-57.36744,-15.48522],[-57.49689,-15.64711],[-57.51402,-15.74942],[-57.34936,-15.72532],[-57.22467,-15.85083],[-57.09284,-15.5839],[-56.97529,-15.46521],[-56.98053,-15.38199]]]},"properties":{"cod_ibge":"510685","name":"Porto Estrela","uf":"MT"}},
{"type":"Feature","geometry":{"type":"Polygon","coordinates":[[[-54.1679,-16.50566],[-54.03655,-16.46791],[-53.88331,-16.59388],[-53.86237,-16.75758],[-53.82144,-16.79896],[-53.49735,-16.66936],[-53.36552,-16.48337],[-53.21085,-16.45609],[-53.14803,-16.39288],[-53.16754,-16.26237],[-52.98099,-16.13322],[-53.07189,-16.04728],[-53.05666,-15.96042],[-53.24321,-16.01272],[-53.29556,-16.19643],[-53.3917,-16.26828],[-53.49497,-16.14277],[-53.61633,-16.22827],[-53.80431,-16.21008],[-53.94185,-16.20735],[-53.94851,-16.35605],[-54.14982,-16.29966],[-54.22692,-16.32285],[-54.1679,-16.50566]]]},"properties":{"cod_ibge":"510420","name":"Guiratinga","uf":"MT"}},
{"type":"Feature","geometry":{"type":"Polygon","coordinates":[[[-51.15302,-10.25389],[-50.98169,-10.20796],[-50.93648,-10.26435],[-50.71994,-10.30664],[-50.60953,-10.07563],[-50.77039,-9.99514],[-50.84606,-9.80051],[-51.30436,-9.77277],[-52.25665,-9.70774],[-52.1905,-9.79824],[-52.22382,-9.9483],[-52.06629,-10.09791],[-51.75267,-10.11747],[-51.67271,-10.07563],[-51.58705,-10.15021],[-51.44713,-10.13338],[-51.2996,-10.25116],[-51.15302,-10.25389]]]},"properties":{"cod_ibge":"510860","name":"Vila Rica","uf":"MT"}},
{"type":"Feature","geometry":{"type":"Polygon","coordinates":[[[-58.85656,-15.60027],[-58.71569,-15.6894],[-58.56055,-15.69304],[-58.58149,-15.50978],[-58.69666,-15.31378],[-58.85561,-15.49659],[-58.85656,-15.60027]]]},"properties":{"cod_ibge":"510380","name":"Figueirópolis D'Oeste","uf":"MT"}},
{"type":"Feature","geometry":{"type":"Polygon","coordinates":[[[-54.6086,-10.59267],[-54.71853,-10.72045],[-54.81038,-10.89462],[-54.89367,-10.96874],[-54.60336,-11.18383],[-54.50628,-11.41302],[-54.42109,-11.3248],[-54.30068,-11.36891],[-54.01752,-11.24795],[-53.77909,-11.28979],[-53.56017,-11.0847],[-53.39312,-11.05696],[-53.31793,-10.95783],[-53.12281,-10.8305],[-53.09854,-10.77775],[-53.31936,-10.64315],[-53.65916,-10.51582],[-53.92472,-10.56493],[-54.07748,-10.45034],[-54.35113,-10.45534],[-54.42918,-10.54265],[-54.6086,-10.59267]]]},"properties":{"cod_ibge":"510558","name":"Marcelândia","uf":"MT"}},
{"type":"Feature","geometry":{"type":"Polygon","coordinates":[[[-57.75245,-17.56429],[-57.69249,-17.62705],[-57.49689,-17.53337],[-57.33698,-17.35784],[-57.33413,-17.20959],[-57.43216,-16.92038],[-57.36363,-16.82307],[-57.40313,-16.63799],[-57.18802,-16.52794],[-57.07571,-16.41926],[-57.0719,-16.26783],[-57.15328,-16.0009],[-57.00765,-15.80354],[-57.22467,-15.85083],[-57.34936,-15.72532],[-57.51402,-15.74942],[-57.49689,-15.64711],[-57.50783,-15.51023],[-57.71248,-15.4543],[-57.69677,-15.59936],[-57.79909,-15.77352],[-57.88999,-15.75033],[-58.13223,-15.84719],[-58.29261,-15.99589],[-58.39065,-15.88494],[-58.69475,-16.03227],[-58.78565,-16.30784],[-58.43062,-16.32285],[-58.30736,-16.3706],[-58.34401,-16.51839],[-58.46298,-16.65299],[-58.47679,-16.93675],[-58.39207,-17.03998],[-58.39874,-17.18413],[-58.26453,-17.34511],[-58.15317,-17.38376],[-57.99659,-17.51563],[-57.88333,-17.4497],[-57.75245,-17.56429]]]},"properties":{"cod_ibge":"510250","name":"Cáceres","uf":"MT"}},
{"type":"Feature","geometry":{"type":"Polygon","coordinates":[[[-56.41134,-13.8386],[-56.38326,-13.71628],[-56.41753,-13.58759],[-56.6117,-13.40024],[-56.64358,-13.25381],[-56.72544,-13.11875],[-56.73972,-12.95459],[-57.01765,-13.36658],[-56.99528,-13.51892],[-57.10284,-13.5794],[-57.28035,-13.80768],[-57.05953,-13.85407],[-56.67214,-13.69718],[-56.69593,-13.84588],[-56.55792,-13.89454],[-56.41134,-13.8386]]]},"properties":{"cod_ibge":"510730","name":"São José do Rio Claro","uf":"MT"}},
{"type":"Feature","geometry":{"type":"Polygon","coordinates":[[[-52.14386,-10.27071],[-52.31567,-10.34484],[-52.48176,-10.32392],[-52.73589,-10.39668],[-52.86915,-10.38576],[-52.98337,-10.31619],[-53.08283,-10.4999],[-53.09854,-10.77775],[-53.12281,-10.8305],[-53.10044,-10.88961],[-52.93054,-10.9551],[-52.87058,-11.08879],[-52.75636,-11.04423],[-52.44226,-11.09789],[-52.22334,-11.0324],[-52.1886,-10.93827],[-52.20478,-10.65315],[-52.18003,-10.48899],[-52.14386,-10.27071]]]},"properties":{"cod_ibge":"510735","name":"São José do Xingu","uf":"MT"}},
{"type":"Feature","geometry":{"type":"Polygon","coordinates":[[[-53.10092,-13.63488],[-53.06903,-13.44707],[-52.92769,-13.20106],[-52.81347,-12.84909],[-52.91722,-12.75678],[-52.92483,-12.60262],[-53.10615,-12.43391],[-53.10092,-12.37616],[-53.26035,-12.22882],[-53.36076,-12.05284],[-53.54732,-11.93643],[-53.5478,-11.9487],[-53.52305,-11.99509],[-53.72816,-12.40163],[-53.83524,-12.78042],[-53.89235,-12.84272],[-54.02513,-13.24608],[-54.00657,-13.29337],[-54.05369,-13.65625],[-54.04322,-13.79631],[-53.92662,-13.77676],[-53.78289,-13.58986],[-53.61299,-13.77949],[-53.42025,-13.65353],[-53.22418,-13.77494],[-53.10092,-13.63488]]]},"properties":{"cod_ibge":"510385","name":"Gaúcha do Norte","uf":"MT"}},
{"type":"Feature","geometry":{"type":"Polygon","coordinates":[[[-56.88725,-14.3611],[-56.72592,-14.64895],[-56.55268,-14.39293],[-56.53746,-14.26151],[-56.76875,-14.15056],[-56.93912,-14.16465],[-56.86678,-14.26333],[-56.88725,-14.3611]]]},"properties":{"cod_ibge":"510600","name":"Nortelândia","uf":"MT"}},
{"type":"Feature","geometry":{"type":"Polygon","coordinates":[[[-53.36219,-16.85262],[-53.24274,-16.80806],[-53.01383,-16.86445],[-52.92911,-16.83762],[-52.91388,-16.81261],[-53.14708,-16.58569],[-53.36219,-16.85262]]]},"properties":{"cod_ibge":"510120","name":"Araguainha","uf":"MT"}},
{"type":"Feature","geometry":{"type":"Polygon","coordinates":[[[-58.4844,-15.51478],[-58.28833,-15.52524],[-58.22122,-15.35016],[-58.27976,-15.18418],[-58.52152,-15.09915],[-58.50915,-15.00001],[-58.72235,-15.00001],[-58.72616,-15.15553],[-58.60147,-15.21829],[-58.49154,-15.34971],[-58.4844,-15.51478]]]},"properties":{"cod_ibge":"510125","name":"Araputanga","uf":"MT"}},
{"type":"Feature","geometry":{"type":"Polygon","coordinates":[[[-56.12913,-15.09687],[-55.92258,-15.10278],[-55.88879,-15.27195],[-55.80075,-15.32924],[-55.82835,-15.47794],[-55.60848,-15.49522],[-55.50188,-15.62482],[-55.38195,-15.63392],[-55.26583,-15.40337],[-55.33388,-15.35334],[-55.09878,-15.10597],[-54.87511,-15.06368],[-55.10973,-14.99956],[-55.16827,-14.79265],[-55.49379,-14.8786],[-55.51282,-14.74945],[-55.3967,-14.56801],[-55.86024,-14.83812],[-56.01538,-14.90452],[-55.94257,-15.03457],[-56.24239,-14.97637],[-56.12913,-15.09687]]]},"properties":{"cod_ibge":"510300","name":"Chapada dos Guimarães","uf":"MT"}},
{"type":"Feature","geometry":{"type":"Polygon","coordinates":[[[-58.13223,-15.84719],[-57.88999,-15.75033],[-57.99088,-15.56162],[-57.89522,-15.46703],[-58.01848,-15.3588],[-58.1584,-15.69485],[-58.2474,-15.70895],[-58.28737,-15.81673],[-58.13223,-15.84719]]]},"properties":{"cod_ibge":"510562","name":"Mirassol d'Oeste","uf":"MT"}},
{"type":"Feature","geometry":{"type":"Polygon","coordinates":[[[-55.0669,-11.69678],[-55.00788,-11.66949],[-54.77469,-11.75862],[-54.72805,-11.64903],[-54.69854,-11.25568],[-54.86416,-11.28751],[-54.92174,-11.1761],[-55.28344,-11.27842],[-55.43477,-11.19338],[-55.46285,-11.35527],[-55.41241,-11.49078],[-55.31056,-11.5308],[-55.28534,-11.66631],[-55.0669,-11.69678]]]},"properties":{"cod_ibge":"510305","name":"Cláudia","uf":"MT"}},
{"type":"Feature","geometry":{"type":"Polygon","coordinates":[[[-57.66869,-9.71729],[-57.57256,-9.76777],[-57.33175,-9.69819],[-57.31842,-9.78005],[-57.18898,-9.79096],[-57.16423,-9.66773],[-57.05429,-9.52949],[-57.10046,-9.21662],[-57.06,-9.18252],[-57.03906,-9.09839],[-57.20373,-8.92104],[-57.41598,-8.8592],[-57.56256,-8.76143],[-57.68678,-8.40719],[-57.64156,-8.21983],[-57.83193,-7.96154],[-57.89665,-7.67778],[-58.06132,-7.39539],[-58.13699,-7.35628],[-58.21313,-7.4586],[-58.20219,-7.62094],[-58.37494,-7.89879],[-58.29023,-8.13571],[-58.35448,-8.39264],[-58.41777,-8.4895],[-58.38969,-8.59499],[-58.44204,-8.79872],[-58.55055,-8.94014],[-58.43443,-8.96652],[-58.1703,-9.14432],[-58.07893,-9.33759],[-57.9352,-9.46992],[-57.72866,-9.51266],[-57.7277,-9.67364],[-57.66869,-9.71729]]]},"properties":{"cod_ibge":"510080","name":"Apiacás","uf":"MT"}},
{"type":"Feature","geometry":{"type":"Polygon","coordinates":[[[-55.15399,-10.22569],[-55.05595,-10.1302],[-54.91651,-10.24843],[-54.85702,-10.23979],[-54.65524,-10.35439],[-54.50342,-10.3844],[-54.34114,-10.2839],[-54.14363,-10.23752],[-54.11318,-10.09473],[-53.94375,-9.85053],[-53.83905,-9.84098],[-53.76148,-9.71047],[-53.5892,-9.61088],[-54.10699,-9.57178],[-54.15839,-9.79233],[-54.22025,-9.80006],[-54.26737,-9.97513],[-54.46868,-9.99969],[-54.63905,-9.9815],[-54.66856,-10.05517],[-55.13781,-10.04607],[-55.24203,-10.14611],[-55.16636,-10.21796],[-55.15399,-10.22569]]]},"properties":{"cod_ibge":"510560","name":"Matupá","uf":"MT"}},
{"type":"Feature","geometry":{"type":"Polygon","coordinates":[[[-54.91223,-15.98271],[-54.92698,-16.05546],[-54.89081,-15.99817],[-54.6105,-15.98089],[-54.57576,-15.8813],[-54.69616,-15.88903],[-54.91223,-15.98271]]]},"properties":{"cod_ibge":"510740","name":"São Pedro da Cipa","uf":"MT"}},
{"type":"Feature","geometry":{"type":"Polygon","coordinates":[[[-53.76624,-15.88539],[-53.7748,-15.71987],[-53.62965,-15.71759],[-53.44405,-15.57344],[-53.2613,-15.59436],[-53.15422,-15.72396],[-53.04095,-15.73806],[-52.86867,-15.69986],[-52.75112,-15.72123],[-52.70306,-15.5557],[-52.80871,-15.45202],[-52.88438,-15.50705],[-53.08378,-15.54843],[-53.14898,-15.45248],[-52.8444,-15.3347],[-52.93863,-15.26922],[-53.16564,-15.21783],[-53.25511,-15.23739],[-53.32126,-15.36562],[-53.48545,-15.38199],[-53.73292,-15.34334],[-53.90996,-15.4925],[-53.93756,-15.61482],[-53.84619,-15.83355],[-53.76624,-15.88539]]]},"properties":{"cod_ibge":"510390","name":"General Carneiro","uf":"MT"}},
{"type":"Feature","geometry":{"type":"Polygon","coordinates":[[[-57.00765,-15.80354],[-56.86441,-15.819],[-56.62026,-15.78307],[-56.53508,-15.83082],[-56.56078,-15.94132],[-56.38945,-16.04682],[-56.48082,-16.27147],[-56.21622,-16.18779],[-56.30093,-16.39697],[-56.06583,-16.31421],[-55.95494,-16.17415],[-56.09629,-15.92905],[-56.14578,-15.76989],[-56.14578,-15.76852],[-56.24525,-15.75988],[-56.23383,-15.60936],[-56.54507,-15.52524],[-56.68308,-15.47931],[-56.90486,-15.51705],[-56.93722,-15.5407],[-56.97529,-15.46521],[-57.09284,-15.5839],[-57.22467,-15.85083],[-57.00765,-15.80354]]]},"properties":{"cod_ibge":"510610","name":"Nossa Senhora do Livramento","uf":"MT"}},
{"type":"Feature","geometry":{"type":"Polygon","coordinates":[[[-56.55268,-14.39293],[-56.40801,-14.46387],[-56.47844,-14.66441],[-56.2719,-14.63213],[-56.20813,-14.53572],[-56.0506,-14.42113],[-55.97684,-14.29198],[-56.02871,-14.22286],[-56.06155,-14.14374],[-56.26809,-14.126],[-56.41134,-13.8386],[-56.55792,-13.89454],[-56.69593,-13.84588],[-56.67214,-13.69718],[-57.05953,-13.85407],[-57.28035,-13.80768],[-57.35316,-13.73811],[-57.36554,-13.58622],[-57.62824,-13.96366],[-57.69106,-14.08735],[-57.73484,-14.29153],[-57.73294,-14.30335],[-57.58921,-14.19421],[-57.50831,-14.22241],[-57.14614,-14.16238],[-56.93912,-14.16465],[-56.76875,-14.15056],[-56.53746,-14.26151],[-56.55268,-14.39293]]]},"properties":{"cod_ibge":"510350","name":"Diamantino","uf":"MT"}},
{"type":"Feature","geometry":{"type":"Polygon","coordinates":[[[-57.59968,-10.24934],[-57.59826,-10.05744],[-57.69344,-9.85826],[-57.66869,-9.71729],[-57.7277,-9.67364],[-57.72866,-9.51266],[-57.9352,-9.46992],[-58.07893,-9.33759],[-58.1703,-9.14432],[-58.43443,-8.96652],[-58.55055,-8.94014],[-58.65573,-9.18934],[-58.60005,-9.3344],[-58.4211,-9.45764],[-58.29451,-9.44536],[-58.26025,-9.65272],[-58.19552,-9.80324],[-58.23026,-9.99741],[-58.32307,-10.12792],[-58.35781,-10.26707],[-58.33782,-10.40895],[-58.25454,-10.44124],[-58.07036,-10.38394],[-58.00135,-10.43306],[-57.68297,-10.34574],[-57.59968,-10.24934]]]},"properties":{"cod_ibge":"510615","name":"Nova Bandeirantes","uf":"MT"}},
{"type":"Feature","geometry":{"type":"Polygon","coordinates":[[[-54.64001,-10.53719],[-54.79801,-10.61995],[-54.8832,-10.72818],[-55.16208,-10.72318],[-55.27439,-10.87461],[-55.07594,-11.00557],[-54.94221,-11.0365],[-54.92174,-11.1761],[-54.86416,-11.28751],[-54.69854,-11.25568],[-54.60336,-11.18383],[-54.89367,-10.96874],[-54.81038,-10.89462],[-54.71853,-10.72045],[-54.6086,-10.59267],[-54.64001,-10.53719]]]},"properties":{"cod_ibge":"510619","name":"Nova Santa Helena","uf":"MT"}},
{"type":"Feature","geometry":{"type":"Polygon","coordinates":[[[-60.30999,-14.06097],[-60.22004,-14.26788],[-60.10725,-14.42931],[-60.00683,-14.40885],[-59.80457,-14.55573],[-59.77316,-14.64077],[-59.58423,-14.81993],[-59.58756,-14.62076],[-59.62801,-14.49889],[-59.54282,-14.45751],[-59.31201,-14.51026],[-59.41909,-14.24469],[-59.34437,-14.05233],[-59.37054,-13.98185],[-59.53521,-14.00959],[-59.84169,-14.17284],[-59.96162,-14.04597],[-60.16721,-14.01232],[-60.30999,-14.06097]]]},"properties":{"cod_ibge":"510618","name":"Nova Lacerda","uf":"MT"}},
{"type":"Feature","geometry":{"type":"Polygon","coordinates":[[[-52.92483,-12.60262],[-52.64262,-12.66992],[-52.49984,-12.72949],[-52.4494,-13.0519],[-52.28045,-13.24062],[-52.12483,-13.10693],[-52.14196,-12.90593],[-52.12197,-12.71312],[-52.03869,-12.50894],[-52.06629,-12.2884],[-52.14957,-12.25156],[-52.12102,-11.98827],[-52.25047,-11.82865],[-52.38705,-11.71406],[-52.5836,-11.70451],[-53.00669,-11.53762],[-53.24464,-11.21112],[-53.54732,-11.56809],[-53.60824,-11.74362],[-53.54732,-11.93643],[-53.36076,-12.05284],[-53.26035,-12.22882],[-53.10092,-12.37616],[-53.10615,-12.43391],[-52.92483,-12.60262]]]},"properties":{"cod_ibge":"510706","name":"Querência","uf":"MT"}},
{"type":"Feature","geometry":{"type":"Polygon","coordinates":[[[-54.91223,-15.98271],[-54.9522,-15.91768],[-54.97695,-15.6271],[-55.2011,-15.71123],[-55.30961,-15.88766],[-55.41955,-15.93132],[-55.38147,-16.11003],[-55.47475,-16.17961],[-55.51901,-16.30875],[-55.35054,-16.31694],[-55.25536,-16.17279],[-55.08736,-16.08911],[-54.92698,-16.05546],[-54.91223,-15.98271]]]},"properties":{"cod_ibge":"510480","name":"Jaciara","uf":"MT"}},
{"type":"Feature","geometry":{"type":"Polygon","coordinates":[[[-52.04202,-13.75812],[-52.08723,-13.92455],[-51.83452,-14.04142],[-51.93113,-14.2174],[-52.16909,-14.31745],[-52.33042,-14.53481],[-52.21335,-14.56846],[-52.10436,-14.68169],[-51.9259,-14.57619],[-51.71935,-14.37202],[-51.73173,-14.17648],[-51.55516,-13.71355],[-51.46855,-13.6176],[-51.60466,-13.61078],[-51.89544,-13.77812],[-52.04202,-13.75812]]]},"properties":{"cod_ibge":"510617","name":"Nova Nazaré","uf":"MT"}},
{"type":"Feature","geometry":{"type":"Polygon","coordinates":[[[-55.76934,-13.34248],[-55.61657,-13.36749],[-55.50045,-13.33384],[-55.40384,-13.41752],[-55.33959,-13.08965],[-55.45143,-12.79725],[-55.55946,-12.64673],[-55.57945,-12.53896],[-55.52377,-12.41754],[-55.58849,-12.26611],[-55.52139,-12.15334],[-55.65322,-11.96144],[-55.67463,-11.80501],[-55.73317,-11.72588],[-55.8274,-11.7518],[-55.90878,-12.03374],[-55.90355,-12.16152],[-56.05964,-12.42846],[-56.11675,-12.63809],[-56.04156,-12.69857],[-55.99302,-12.87319],[-55.89022,-13.04599],[-55.87927,-13.25654],[-55.76934,-13.34248]]]},"properties":{"cod_ibge":"510792","name":"Sorriso","uf":"MT"}},
{"type":"Feature","geometry":{"type":"Polygon","coordinates":[[[-55.52139,-12.15334],[-55.39147,-12.15879],[-55.30676,-12.08967],[-55.37909,-11.9678],[-55.0669,-11.69678],[-55.28534,-11.66631],[-55.31056,-11.5308],[-55.41241,-11.49078],[-55.46285,-11.35527],[-55.83597,-11.31116],[-55.78028,-11.44576],[-55.8136,-11.4976],[-55.73317,-11.72588],[-55.67463,-11.80501],[-55.65322,-11.96144],[-55.52139,-12.15334]]]},"properties":{"cod_ibge":"510790","name":"Sinop","uf":"MT"}},
{"type":"Feature","geometry":{"type":"Polygon","coordinates":[[[-59.09071,-14.27652],[-59.05644,-14.31563],[-59.05739,-14.31654],[-59.05359,-14.36247],[-59.06406,-14.43704],[-59.06453,-14.4375],[-59.07215,-14.52526],[-59.0493,-14.5339],[-59.03836,-14.63486],[-59.03979,-14.63667],[-59.06739,-14.6485],[-59.06739,-14.64895],[-59.07262,-14.65259],[-59.10784,-14.66123],[-59.08547,-14.66487],[-59.05359,-14.65259],[-58.96269,-14.58574],[-58.75662,-14.59393],[-58.61908,-14.82812],[-58.48012,-14.68351],[-58.29784,-14.80402],[-58.22788,-14.76991],[-58.15412,-14.71489],[-58.00944,-14.76309],[-57.74817,-14.9127],[-57.6625,-14.754],[-57.16946,-14.66441],[-57.11045,-14.60803],[-57.10188,-14.60621],[-57.10046,-14.6053],[-57.04715,-14.5771],[-57.04668,-14.57619],[-56.94959,-14.50298],[-57.28273,-14.55664],[-57.48689,-14.44159],[-57.66917,-14.55619],[-57.71961,-14.3752],[-57.73294,-14.30335],[-57.73484,-14.29153],[-58.23217,-14.38566],[-58.15555,-14.22332],[-58.15507,-14.22332],[-58.12699,-14.19512],[-58.12556,-14.1933],[-58.10986,-14.16875],[-58.10986,-14.16829],[-58.09749,-14.07189],[-58.09653,-14.07143],[-58.08416,-14.00004],[-59.0455,-14.00004],[-59.06691,-14.16647],[-59.06739,-14.16647],[-59.085,-14.2606],[-59.09071,-14.27652]]]},"properties":{"cod_ibge":"510795","name":"Tangará da Serra","uf":"MT"}},
{"type":"Feature","geometry":{"type":"Polygon","coordinates":[[[-57.06,-11.35936],[-56.9396,-11.39074],[-56.85394,-11.50761],[-56.53508,-11.56172],[-56.43323,-11.54762],[-56.19195,-11.63994],[-55.96446,-11.61583],[-55.86214,-11.57946],[-55.8274,-11.47987],[-55.78028,-11.44576],[-55.83597,-11.31116],[-56.32092,-11.09288],[-56.5089,-11.09516],[-56.57077,-10.95009],[-56.40373,-10.80003],[-56.43371,-10.68271],[-56.62835,-10.59676],[-56.71545,-10.49217],[-56.78255,-10.56902],[-56.80301,-10.78184],[-56.7321,-10.86551],[-56.78683,-10.98375],[-56.93436,-10.94236],[-57.02574,-11.05514],[-57.05096,-11.2525],[-57.139,-11.31752],[-57.06,-11.35936]]]},"properties":{"cod_ibge":"510794","name":"Tabaporã","uf":"MT"}},
{"type":"Feature","geometry":{"type":"Polygon","coordinates":[[[-51.51899,-11.17837],[-50.69996,-11.31298],[-50.60953,-11.06742],[-50.63285,-10.93191],[-50.57051,-10.75228],[-50.60335,-10.66088],[-50.77467,-10.64769],[-50.83749,-10.71181],[-51.00644,-10.76411],[-51.07164,-10.88325],[-51.39764,-11.02422],[-51.51899,-11.17837]]]},"properties":{"cod_ibge":"510530","name":"Luciara","uf":"MT"}},
{"type":"Feature","geometry":{"type":"Polygon","coordinates":[[[-56.14578,-15.76852],[-56.13341,-15.62392],[-56.24858,-15.45066],[-56.27856,-15.34016],[-56.35566,-15.41246],[-56.54507,-15.52524],[-56.23383,-15.60936],[-56.24525,-15.75988],[-56.14578,-15.76852]]]},"properties":{"cod_ibge":"510840","name":"Várzea Grande","uf":"MT"}},
{"type":"Feature","geometry":{"type":"Polygon","coordinates":[[[-52.25427,-15.89358],[-52.00966,-15.88585],[-51.97206,-15.8381],[-52.1629,-15.78853],[-52.1767,-15.60209],[-52.05439,-15.49522],[-52.05201,-14.97909],[-52.01584,-14.8022],[-52.09056,-14.85995],[-52.23905,-14.82221],[-52.34565,-14.93453],[-52.48842,-14.89406],[-52.60359,-14.93726],[-52.67783,-14.86177],[-52.73923,-15.02275],[-52.93863,-15.26922],[-52.8444,-15.3347],[-53.14898,-15.45248],[-53.08378,-15.54843],[-52.88438,-15.50705],[-52.80871,-15.45202],[-52.70306,-15.5557],[-52.75112,-15.72123],[-52.66784,-15.72805],[-52.50413,-15.86311],[-52.25427,-15.89358]]]},"properties":{"cod_ibge":"510180","name":"Barra do Garças","uf":"MT"}},
{"type":"Feature","geometry":{"type":"Polygon","coordinates":[[[-51.28342,-12.34706],[-51.38764,-12.2029],[-51.60323,-11.98145],[-51.65939,-11.96598],[-51.83119,-11.86048],[-52.12102,-11.98827],[-52.14957,-12.25156],[-52.06629,-12.2884],[-51.90876,-12.34933],[-51.9021,-12.50167],[-51.7027,-12.53623],[-51.53851,-12.44346],[-51.38289,-12.4612],[-51.27485,-12.39753],[-51.1297,-12.43482],[-51.28342,-12.34706]]]},"properties":{"cod_ibge":"510185","name":"Bom Jesus do Araguaia","uf":"MT"}},
{"type":"Feature","geometry":{"type":"Polygon","coordinates":[[[-56.55268,-14.39293],[-56.72592,-14.64895],[-56.76161,-14.74035],[-56.92675,-14.9368],[-56.81967,-15.14507],[-56.58219,-14.84995],[-56.42467,-14.74263],[-56.47844,-14.66441],[-56.40801,-14.46387],[-56.55268,-14.39293]]]},"properties":{"cod_ibge":"510050","name":"Alto Paraguai","uf":"MT"}},
{"type":"Feature","geometry":{"type":"Polygon","coordinates":[[[-54.97695,-15.6271],[-54.9522,-15.91768],[-54.91223,-15.98271],[-54.69616,-15.88903],[-54.54673,-15.55252],[-54.50628,-15.402],[-54.55244,-15.36562],[-54.90271,-15.49659],[-54.97695,-15.6271]]]},"properties":{"cod_ibge":"510360","name":"Dom Aquino","uf":"MT"}},
{"type":"Feature","geometry":{"type":"Polygon","coordinates":[[[-52.36088,-16.08138],[-52.25427,-15.89358],[-52.50413,-15.86311],[-52.66784,-15.72805],[-52.75112,-15.72123],[-52.86867,-15.69986],[-53.04095,-15.73806],[-53.05666,-15.96042],[-53.07189,-16.04728],[-52.98099,-16.13322],[-52.80633,-16.03636],[-52.75541,-16.0923],[-52.47176,-16.12686],[-52.36088,-16.08138]]]},"properties":{"cod_ibge":"510665","name":"Pontal do Araguaia","uf":"MT"}},
{"type":"Feature","geometry":{"type":"Polygon","coordinates":[[[-58.2474,-15.70895],[-58.1584,-15.69485],[-58.01848,-15.3588],[-58.10367,-15.40609],[-58.22122,-15.35016],[-58.28833,-15.52524],[-58.4844,-15.51478],[-58.58149,-15.50978],[-58.56055,-15.69304],[-58.2474,-15.70895]]]},"properties":{"cod_ibge":"510710","name":"São José dos Quatro Marcos","uf":"MT"}},
{"type":"Feature","geometry":{"type":"Polygon","coordinates":[[[-55.40384,-13.41752],[-55.32674,-13.5644],[-55.17826,-13.61987],[-55.00931,-13.81314],[-54.8732,-13.79086],[-54.75994,-13.87044],[-54.64334,-13.7904],[-54.66856,-13.51165],[-54.62811,-13.40615],[-54.47249,-13.23516],[-54.43061,-13.10102],[-54.53673,-13.17605],[-54.63096,-13.15513],[-54.74947,-13.24426],[-54.85464,-13.19788],[-55.09545,-13.26018],[-55.28248,-13.25199],[-55.33959,-13.08965],[-55.40384,-13.41752]]]},"properties":{"cod_ibge":"510183","name":"Boa Esperança do Norte","uf":"MT"}},
{"type":"Feature","geometry":{"type":"Polygon","coordinates":[[[-58.29784,-14.80402],[-58.48012,-14.68351],[-58.61908,-14.82812],[-58.72235,-15.00001],[-58.50915,-15.00001],[-58.52152,-15.09915],[-58.27976,-15.18418],[-58.25834,-15.15053],[-58.34543,-14.91952],[-58.29784,-14.80402]]]},"properties":{"cod_ibge":"510715","name":"Reserva do Cabaçal","uf":"MT"}},
{"type":"Feature","geometry":{"type":"Polygon","coordinates":[[[-52.68116,-16.30193],[-52.72447,-16.31148],[-52.94149,-16.56568],[-52.86867,-16.61843],[-52.73304,-16.58569],[-52.62929,-16.51793],[-52.68116,-16.30193]]]},"properties":{"cod_ibge":"510719","name":"Ribeirãozinho","uf":"MT"}},
{"type":"Feature","geometry":{"type":"Polygon","coordinates":[[[-52.12483,-13.10693],[-51.93018,-13.21607],[-51.8883,-13.39069],[-51.69698,-13.42661],[-51.5761,-13.35476],[-51.38098,-13.45253],[-51.14208,-13.10011],[-51.11114,-12.96232],[-51.00739,-12.85409],[-50.94552,-12.69266],[-50.92411,-12.62581],[-51.00644,-12.39208],[-51.1297,-12.43482],[-51.27485,-12.39753],[-51.38289,-12.4612],[-51.53851,-12.44346],[-51.7027,-12.53623],[-51.9021,-12.50167],[-51.90876,-12.34933],[-52.06629,-12.2884],[-52.03869,-12.50894],[-52.12197,-12.71312],[-52.14196,-12.90593],[-52.12483,-13.10693]]]},"properties":{"cod_ibge":"510718","name":"Ribeirão Cascalheira","uf":"MT"}},
{"type":"Feature","geometry":{"type":"Polygon","coordinates":[[[-56.35566,-15.41246],[-56.45132,-15.26785],[-56.45036,-15.14371],[-56.54031,-15.1378],[-56.89439,-15.4693],[-56.93722,-15.5407],[-56.90486,-15.51705],[-56.78207,-15.39518],[-56.68308,-15.47931],[-56.54507,-15.52524],[-56.35566,-15.41246]]]},"properties":{"cod_ibge":"510490","name":"Jangada","uf":"MT"}},
{"type":"Feature","geometry":{"type":"Polygon","coordinates":[[[-51.35005,-14.99046],[-51.61941,-14.99046],[-51.53184,-14.71398],[-51.38003,-14.4957],[-51.47378,-14.35474],[-51.69127,-14.53618],[-51.93875,-14.78537],[-52.01584,-14.8022],[-52.05201,-14.97909],[-52.05439,-15.49522],[-52.1767,-15.60209],[-52.1629,-15.78853],[-51.97206,-15.8381],[-51.88021,-15.82446],[-51.80311,-15.72168],[-51.69889,-15.48476],[-51.69127,-15.3247],[-51.53422,-15.06504],[-51.43048,-15.01002],[-51.36813,-15.00956],[-51.35005,-14.99046]]]},"properties":{"cod_ibge":"510100","name":"Araguaiana","uf":"MT"}},
{"type":"Feature","geometry":{"type":"Polygon","coordinates":[[[-55.13781,-10.04607],[-54.66856,-10.05517],[-54.63905,-9.9815],[-54.46868,-9.99969],[-54.26737,-9.97513],[-54.22025,-9.80006],[-54.15839,-9.79233],[-54.10699,-9.57178],[-54.61336,-9.53585],[-54.99551,-9.50538],[-54.95696,-9.67682],[-55.03263,-9.96831],[-55.13781,-10.04607]]]},"properties":{"cod_ibge":"510410","name":"Guarantã do Norte","uf":"MT"}},
{"type":"Feature","geometry":{"type":"Polygon","coordinates":[[[-52.8325,-16.77213],[-52.73304,-16.58569],[-52.86867,-16.61843],[-52.94149,-16.56568],[-53.16564,-16.53658],[-53.14708,-16.58569],[-52.91388,-16.81261],[-52.8325,-16.77213]]]},"properties":{"cod_ibge":"510670","name":"Ponte Branca","uf":"MT"}},
{"type":"Feature","geometry":{"type":"Polygon","coordinates":[[[-58.29213,-12.93049],[-58.18505,-13.02507],[-58.17316,-13.1806],[-58.06227,-13.24426],[-57.9214,-13.20743],[-57.74912,-13.26972],[-57.67012,-13.16195],[-57.48689,-13.15513],[-57.32699,-13.04417],[-57.29272,-12.92594],[-57.3703,-12.85136],[-57.44168,-12.57852],[-57.44121,-12.4662],[-57.62586,-12.34069],[-57.73437,-12.20927],[-57.88,-12.09513],[-57.88761,-11.93779],[-58.07655,-11.68996],[-58.15507,-11.42166],[-58.12747,-11.2866],[-58.27643,-11.16382],[-58.2512,-11.0515],[-58.34305,-10.951],[-58.38541,-10.99375],[-58.33972,-11.17565],[-58.37494,-11.23885],[-58.33021,-11.32662],[-58.33544,-11.50215],[-58.41634,-11.61402],[-58.38922,-11.77408],[-58.44823,-11.92233],[-58.47488,-12.16789],[-58.52771,-12.27521],[-58.44395,-12.43846],[-58.39778,-12.79861],[-58.29213,-12.93049]]]},"properties":{"cod_ibge":"510190","name":"Brasnorte","uf":"MT"}},
{"type":"Feature","geometry":{"type":"Polygon","coordinates":[[[-53.07236,-18.03404],[-53.24036,-17.60022],[-53.24179,-17.50427],[-53.33411,-17.5743],[-53.39122,-17.70935],[-53.53019,-17.68343],[-53.53542,-17.78666],[-53.40407,-17.99266],[-53.23798,-18.00766],[-53.07236,-18.03404]]]},"properties":{"cod_ibge":"510060","name":"Alto Taquari","uf":"MT"}},
{"type":"Feature","geometry":{"type":"Polygon","coordinates":[[[-59.10784,-14.66123],[-59.2035,-14.82585],[-59.44669,-14.95909],[-59.57138,-14.97773],[-59.43241,-15.22738],[-59.48952,-15.44111],[-60.01588,-15.56162],[-60.04824,-15.63665],[-59.94211,-15.94769],[-59.82504,-15.95724],[-59.66941,-16.16415],[-59.47286,-16.14732],[-59.31629,-15.9586],[-59.19684,-15.76488],[-59.08785,-15.47749],[-59.09309,-15.46703],[-59.19684,-15.36699],[-59.14877,-15.2292],[-59.01361,-15.23284],[-58.96459,-15.12643],[-59.03455,-15.02548],[-59.02836,-14.72307],[-59.08547,-14.66487],[-59.10784,-14.66123]]]},"properties":{"cod_ibge":"510675","name":"Pontes e Lacerda","uf":"MT"}},
{"type":"Feature","geometry":{"type":"Polygon","coordinates":[[[-57.9609,-15.22147],[-58.25834,-15.15053],[-58.27976,-15.18418],[-58.22122,-15.35016],[-58.10367,-15.40609],[-57.9609,-15.22147]]]},"properties":{"cod_ibge":"510720","name":"Rio Branco","uf":"MT"}},
{"type":"Feature","geometry":{"type":"Polygon","coordinates":[[[-55.30676,-12.08967],[-55.39147,-12.15879],[-55.52139,-12.15334],[-55.58849,-12.26611],[-55.52377,-12.41754],[-55.57945,-12.53896],[-55.55946,-12.64673],[-55.45143,-12.79725],[-55.2763,-12.66674],[-55.15732,-12.57625],[-55.07166,-12.36661],[-55.12543,-12.17744],[-55.30676,-12.08967]]]},"properties":{"cod_ibge":"510850","name":"Vera","uf":"MT"}},
{"type":"Feature","geometry":{"type":"Polygon","coordinates":[[[-55.0669,-11.69678],[-55.37909,-11.9678],[-55.30676,-12.08967],[-55.12543,-12.17744],[-55.01264,-12.24565],[-54.93174,-12.13015],[-54.80229,-12.11787],[-54.48629,-12.00236],[-54.4011,-11.99554],[-54.28641,-11.87185],[-54.56005,-11.86185],[-54.64096,-11.71406],[-54.72805,-11.64903],[-54.77469,-11.75862],[-55.00788,-11.66949],[-55.0669,-11.69678]]]},"properties":{"cod_ibge":"510724","name":"Santa Carmem","uf":"MT"}},
{"type":"Feature","geometry":{"type":"Polygon","coordinates":[[[-52.1886,-10.93827],[-51.99062,-11.02149],[-51.76837,-10.93691],[-51.55421,-11.03922],[-51.39764,-11.02422],[-51.07164,-10.88325],[-51.00644,-10.76411],[-51.35481,-10.74864],[-51.81739,-10.72727],[-51.96683,-10.61177],[-51.96587,-10.55038],[-52.18003,-10.48899],[-52.20478,-10.65315],[-52.1886,-10.93827]]]},"properties":{"cod_ibge":"510677","name":"Porto Alegre do Norte","uf":"MT"}},
{"type":"Feature","geometry":{"type":"Polygon","coordinates":[[[-58.90843,-10.79048],[-58.86798,-10.83641],[-58.94794,-10.9933],[-58.86084,-11.01876],[-58.8004,-11.1761],[-58.52961,-11.29706],[-58.37494,-11.23885],[-58.33972,-11.17565],[-58.38541,-10.99375],[-58.34305,-10.951],[-58.33116,-10.79548],[-58.4192,-10.56629],[-58.50391,-10.62632],[-58.83514,-10.71636],[-58.90843,-10.79048]]]},"properties":{"cod_ibge":"510285","name":"Castanheira","uf":"MT"}},
{"type":"Feature","geometry":{"type":"Polygon","coordinates":[[[-52.33042,-14.53481],[-52.16909,-14.31745],[-51.93113,-14.2174],[-51.83452,-14.04142],[-52.08723,-13.92455],[-52.04202,-13.75812],[-52.41846,-13.66671],[-53.10092,-13.63488],[-53.11424,-13.73038],[-52.98908,-14.00504],[-53.03905,-14.10417],[-52.93007,-14.2556],[-52.38229,-14.1833],[-52.32423,-14.35064],[-52.33042,-14.53481]]]},"properties":{"cod_ibge":"510020","name":"Água Boa","uf":"MT"}},
{"type":"Feature","geometry":{"type":"Polygon","coordinates":[[[-57.71961,-14.3752],[-57.66917,-14.55619],[-57.48689,-14.44159],[-57.28273,-14.55664],[-56.94959,-14.50298],[-56.9772,-14.43568],[-57.28892,-14.41931],[-57.50926,-14.32609],[-57.61729,-14.39657],[-57.71961,-14.3752]]]},"properties":{"cod_ibge":"510726","name":"Santo Afonso","uf":"MT"}},
{"type":"Feature","geometry":{"type":"Polygon","coordinates":[[[-55.86738,-9.43445],[-56.15673,-9.41034],[-56.27237,-9.40079],[-56.25334,-9.47219],[-56.33995,-9.63135],[-56.32853,-9.80961],[-56.37945,-9.91965],[-56.89772,-9.9483],[-56.93817,-9.93648],[-56.90343,-10.04152],[-56.96197,-10.11428],[-56.96339,-10.28435],[-56.71545,-10.49217],[-56.62835,-10.59676],[-56.43371,-10.68271],[-56.40896,-10.57948],[-56.26476,-10.57948],[-56.28189,-10.40577],[-56.06393,-10.34029],[-56.17386,-10.17294],[-56.00301,-10.12429],[-55.89593,-10.03743],[-55.83216,-9.73639],[-55.934,-9.60861],[-55.86738,-9.43445]]]},"properties":{"cod_ibge":"510025","name":"Alta Floresta","uf":"MT"}},
{"type":"Feature","geometry":{"type":"Polygon","coordinates":[[[-58.86941,-12.21336],[-59.01694,-12.24201],[-59.17066,-12.36752],[-59.35103,-12.28066],[-59.63943,-12.30477],[-59.77935,-12.3416],[-59.94782,-12.59944],[-60.02872,-12.61854],[-60.07917,-12.88092],[-60.28429,-13.08465],[-60.33331,-13.2579],[-60.37186,-13.31838],[-60.38804,-13.4548],[-60.68596,-13.62533],[-60.70927,-13.69309],[-60.53176,-13.77176],[-60.38328,-13.99276],[-60.30999,-14.06097],[-60.16721,-14.01232],[-59.96162,-14.04597],[-59.84169,-14.17284],[-59.53521,-14.00959],[-59.37054,-13.98185],[-59.43384,-13.85679],[-59.45668,-13.69582],[-59.38815,-13.47072],[-59.42765,-13.29019],[-59.34294,-13.11284],[-59.24728,-13.04463],[-59.22872,-12.92048],[-59.10974,-12.83772],[-59.03217,-12.70448],[-58.93128,-12.64127],[-58.84609,-12.33569],[-58.86941,-12.21336]]]},"properties":{"cod_ibge":"510330","name":"Comodoro","uf":"MT"}},
{"type":"Feature","geometry":{"type":"Polygon","coordinates":[[[-52.18003,-10.48899],[-51.96587,-10.55038],[-51.96683,-10.61177],[-51.81739,-10.72727],[-51.35481,-10.74864],[-51.37194,-10.64405],[-51.29437,-10.5713],[-51.22536,-10.28617],[-51.15302,-10.25389],[-51.2996,-10.25116],[-51.44713,-10.13338],[-51.58705,-10.15021],[-51.67271,-10.07563],[-51.75267,-10.11747],[-52.06629,-10.09791],[-52.14386,-10.27071],[-52.18003,-10.48899]]]},"properties":{"cod_ibge":"510335","name":"Confresa","uf":"MT"}},
{"type":"Feature","geometry":{"type":"Polygon","coordinates":[[[-56.42467,-14.74263],[-56.29855,-14.76628],[-56.24953,-14.6967],[-56.10057,-14.69715],[-55.84739,-14.64804],[-55.83739,-14.52344],[-55.60658,-14.4425],[-55.43097,-14.32245],[-55.24108,-14.24014],[-55.38195,-14.14374],[-55.5509,-14.02187],[-55.66464,-14.01732],[-55.71271,-14.11463],[-56.02871,-14.22286],[-55.97684,-14.29198],[-56.0506,-14.42113],[-56.20813,-14.53572],[-56.2719,-14.63213],[-56.47844,-14.66441],[-56.42467,-14.74263]]]},"properties":{"cod_ibge":"510590","name":"Nobres","uf":"MT"}},
{"type":"Feature","geometry":{"type":"Polygon","coordinates":[[[-59.05644,-14.31563],[-59.09071,-14.27652],[-59.27393,-14.37383],[-59.31201,-14.51026],[-59.54282,-14.45751],[-59.62801,-14.49889],[-59.58756,-14.62076],[-59.58423,-14.81993],[-59.44669,-14.95909],[-59.2035,-14.82585],[-59.10784,-14.66123],[-59.07262,-14.65259],[-59.06739,-14.64895],[-59.06739,-14.6485],[-59.03979,-14.63667],[-59.03836,-14.63486],[-59.0493,-14.5339],[-59.07215,-14.52526],[-59.06453,-14.4375],[-59.06406,-14.43704],[-59.05359,-14.36247],[-59.05739,-14.31654],[-59.05644,-14.31563]]]},"properties":{"cod_ibge":"510336","name":"Conquista D'Oeste","uf":"MT"}},
{"type":"Feature","geometry":{"type":"Polygon","coordinates":[[[-55.13686,-17.65024],[-54.86083,-17.62386],[-54.74709,-17.51973],[-54.50247,-17.48062],[-54.30259,-17.66161],[-54.08462,-17.61886],[-53.76291,-17.24643],[-53.6801,-17.25416],[-53.68295,-17.22551],[-53.929,-17.09455],[-54.01704,-16.93357],[-54.15743,-17.04452],[-54.4682,-17.11183],[-54.58242,-17.07817],[-54.72424,-17.03998],[-54.89509,-17.07408],[-55.02454,-17.10319],[-55.36101,-17.36011],[-55.53091,-17.32828],[-55.60277,-17.36739],[-55.5152,-17.4838],[-55.29962,-17.5411],[-55.13876,-17.64796],[-55.13686,-17.65024]]]},"properties":{"cod_ibge":"510460","name":"Itiquira","uf":"MT"}},
{"type":"Feature","geometry":{"type":"Polygon","coordinates":[[[-58.32307,-10.12792],[-58.23026,-9.99741],[-58.19552,-9.80324],[-58.26025,-9.65272],[-58.29451,-9.44536],[-58.4211,-9.45764],[-58.60005,-9.3344],[-58.65573,-9.18934],[-58.55055,-8.94014],[-58.44204,-8.79872],[-59.12735,-8.80327],[-59.01789,-8.87148],[-59.0455,-8.97698],[-58.97078,-9.06929],[-59.02979,-9.16069],[-58.94841,-9.33076],[-58.93842,-9.43945],[-59.04312,-9.63499],[-58.96554,-9.94375],[-59.02313,-9.97968],[-58.86655,-10.06699],[-58.84371,-10.13111],[-58.32307,-10.12792]]]},"properties":{"cod_ibge":"510337","name":"Cotriguaçu","uf":"MT"}},
{"type":"Feature","geometry":{"type":"MultiPolygon","coordinates":[[[[-55.24108,-14.24014],[-55.43097,-14.32245],[-55.60658,-14.4425],[-55.83739,-14.52344],[-55.84739,-14.64804],[-56.10057,-14.69715],[-56.24953,-14.6967],[-56.29855,-14.76628],[-56.42467,-14.74263],[-56.58219,-14.84995],[-56.81967,-15.14507],[-56.98053,-15.38199],[-56.97529,-15.46521],[-56.93722,-15.5407],[-56.89439,-15.4693],[-56.54031,-15.1378],[-56.45036,-15.14371],[-56.46607,-15.09642],[-56.24239,-14.97637],[-55.94257,-15.03457],[-56.01538,-14.90452],[-55.86024,-14.83812],[-55.3967,-14.56801],[-55.23299,-14.63486],[-55.04691,-14.54436],[-54.92984,-14.41931],[-54.81514,-14.29425],[-54.87511,-14.21149],[-55.0688,-14.20558],[-55.24108,-14.24014]]],[[[-56.68308,-15.47931],[-56.78207,-15.39518],[-56.90486,-15.51705],[-56.68308,-15.47931]]]]},"properties":{"cod_ibge":"510770","name":"Rosário Oeste","uf":"MT"}},
{"type":"Feature","geometry":{"type":"Polygon","coordinates":[[[-58.25834,-15.15053],[-57.9609,-15.22147],[-57.82289,-15.14189],[-57.67678,-15.13598],[-57.73104,-15.00001],[-58.01753,-15.00001],[-58.12794,-14.88996],[-58.2355,-14.91225],[-58.22788,-14.76991],[-58.29784,-14.80402],[-58.34543,-14.91952],[-58.25834,-15.15053]]]},"properties":{"cod_ibge":"510775","name":"Salto do Céu","uf":"MT"}},
{"type":"Feature","geometry":{"type":"Polygon","coordinates":[[[-54.87511,-14.21149],[-54.92698,-14.09144],[-54.91127,-13.96593],[-55.00931,-13.81314],[-55.17826,-13.61987],[-55.32674,-13.5644],[-55.40384,-13.41752],[-55.50045,-13.33384],[-55.61657,-13.36749],[-55.76934,-13.34248],[-55.69224,-13.41433],[-55.52853,-13.81405],[-55.53757,-13.90409],[-55.38195,-14.14374],[-55.24108,-14.24014],[-55.0688,-14.20558],[-54.87511,-14.21149]]]},"properties":{"cod_ibge":"510776","name":"Santa Rita do Trivelato","uf":"MT"}},
{"type":"Feature","geometry":{"type":"Polygon","coordinates":[[[-52.98337,-10.31619],[-52.86915,-10.38576],[-52.73589,-10.39668],[-52.48176,-10.32392],[-52.31567,-10.34484],[-52.14386,-10.27071],[-52.06629,-10.09791],[-52.22382,-9.9483],[-52.1905,-9.79824],[-52.25665,-9.70774],[-52.6193,-9.68228],[-52.65689,-9.78187],[-52.77587,-9.83234],[-52.97956,-10.05608],[-52.98337,-10.31619]]]},"properties":{"cod_ibge":"510774","name":"Santa Cruz do Xingu","uf":"MT"}},
{"type":"Feature","geometry":{"type":"Polygon","coordinates":[[[-53.46737,-14.40339],[-53.59681,-14.55709],[-53.77718,-14.63531],[-54.04179,-14.81857],[-53.93281,-14.99183],[-53.92472,-15.08323],[-53.73435,-15.1328],[-53.56683,-14.9609],[-53.29176,-14.86268],[-53.40122,-14.7258],[-53.35077,-14.57847],[-53.46737,-14.40339]]]},"properties":{"cod_ibge":"510779","name":"Santo Antônio do Leste","uf":"MT"}},
{"type":"Feature","geometry":{"type":"Polygon","coordinates":[[[-57.40551,-11.71997],[-57.40789,-11.49396],[-57.55685,-11.32616],[-57.28225,-11.28433],[-57.139,-11.31752],[-57.05096,-11.2525],[-57.02574,-11.05514],[-56.93436,-10.94236],[-56.78683,-10.98375],[-56.7321,-10.86551],[-56.80301,-10.78184],[-56.78255,-10.56902],[-56.71545,-10.49217],[-56.96339,-10.28435],[-57.15328,-10.31209],[-57.29796,-10.27162],[-57.59968,-10.24934],[-57.68297,-10.34574],[-58.00135,-10.43306],[-58.07036,-10.38394],[-58.25454,-10.44124],[-58.33782,-10.40895],[-58.4192,-10.56629],[-58.33116,-10.79548],[-58.34305,-10.951],[-58.2512,-11.0515],[-58.27643,-11.16382],[-58.12747,-11.2866],[-58.15507,-11.42166],[-58.07655,-11.68996],[-57.88761,-11.93779],[-57.88,-12.09513],[-57.73437,-12.20927],[-57.61491,-12.10195],[-57.42312,-12.05511],[-57.40551,-11.71997]]]},"properties":{"cod_ibge":"510510","name":"Juara","uf":"MT"}},
{"type":"Feature","geometry":{"type":"Polygon","coordinates":[[[-50.84606,-9.80051],[-50.77039,-9.99514],[-50.60953,-10.07563],[-50.71994,-10.30664],[-50.93648,-10.26435],[-50.98169,-10.20796],[-51.15302,-10.25389],[-51.22536,-10.28617],[-51.29437,-10.5713],[-51.37194,-10.64405],[-51.35481,-10.74864],[-51.00644,-10.76411],[-50.83749,-10.71181],[-50.77467,-10.64769],[-50.60335,-10.66088],[-50.60335,-10.65997],[-50.48247,-10.4899],[-50.225,-9.84098],[-50.84606,-9.80051]]]},"properties":{"cod_ibge":"510777","name":"Santa Terezinha","uf":"MT"}},
{"type":"Feature","geometry":{"type":"Polygon","coordinates":[[[-54.6086,-10.59267],[-54.42918,-10.54265],[-54.35113,-10.45534],[-54.07748,-10.45034],[-53.92472,-10.56493],[-53.65916,-10.51582],[-53.31936,-10.64315],[-53.09854,-10.77775],[-53.08283,-10.4999],[-52.98337,-10.31619],[-52.97956,-10.05608],[-52.77587,-9.83234],[-52.65689,-9.78187],[-52.6193,-9.68228],[-53.13328,-9.64499],[-53.5892,-9.61088],[-53.76148,-9.71047],[-53.83905,-9.84098],[-53.94375,-9.85053],[-54.11318,-10.09473],[-54.14363,-10.23752],[-54.34114,-10.2839],[-54.50342,-10.3844],[-54.65524,-10.35439],[-54.85702,-10.23979],[-54.91651,-10.24843],[-55.05595,-10.1302],[-55.15399,-10.22569],[-55.03263,-10.30254],[-54.65524,-10.44397],[-54.64001,-10.53719],[-54.6086,-10.59267]]]},"properties":{"cod_ibge":"510642","name":"Peixoto de Azevedo","uf":"MT"}},
{"type":"Feature","geometry":{"type":"Polygon","coordinates":[[[-52.68116,-16.30193],[-52.54601,-16.25964],[-52.47176,-16.12686],[-52.75541,-16.0923],[-52.80633,-16.03636],[-52.98099,-16.13322],[-53.16754,-16.26237],[-53.14803,-16.39288],[-53.21085,-16.45609],[-53.16564,-16.53658],[-52.94149,-16.56568],[-52.72447,-16.31148],[-52.68116,-16.30193]]]},"properties":{"cod_ibge":"510820","name":"Torixoréu","uf":"MT"}},
{"type":"Feature","geometry":{"type":"Polygon","coordinates":[[[-56.72306,-17.30827],[-56.45084,-17.32646],[-56.25143,-17.21914],[-56.04394,-17.1714],[-56.01205,-17.23688],[-55.60372,-17.36648],[-55.49379,-16.38924],[-55.69462,-16.29784],[-55.88879,-16.12322],[-55.95494,-16.17415],[-56.06583,-16.31421],[-56.30093,-16.39697],[-56.61884,-16.87172],[-56.58743,-17.04953],[-56.72306,-17.30827]]]},"properties":{"cod_ibge":"510160","name":"Barão de Melgaço","uf":"MT"}},
{"type":"Feature","geometry":{"type":"Polygon","coordinates":[[[-53.24179,-17.50427],[-53.20895,-17.316],[-53.01383,-16.86445],[-53.24274,-16.80806],[-53.36219,-16.85262],[-53.35315,-16.99041],[-53.56207,-17.25007],[-53.68295,-17.22551],[-53.6801,-17.25416],[-53.70389,-17.66115],[-53.7572,-17.67298],[-53.85571,-17.70253],[-53.95184,-17.91581],[-53.77433,-18.00084],[-53.46784,-18.03495],[-53.40407,-17.99266],[-53.53542,-17.78666],[-53.53019,-17.68343],[-53.39122,-17.70935],[-53.33411,-17.5743],[-53.24179,-17.50427]]]},"properties":{"cod_ibge":"510030","name":"Alto Araguaia","uf":"MT"}},
{"type":"Feature","geometry":{"type":"Polygon","coordinates":[[[-58.32307,-10.12792],[-58.84371,-10.13111],[-58.7966,-10.28117],[-58.88131,-10.39258],[-58.88226,-10.61859],[-58.90843,-10.79048],[-58.83514,-10.71636],[-58.50391,-10.62632],[-58.4192,-10.56629],[-58.33782,-10.40895],[-58.35781,-10.26707],[-58.32307,-10.12792]]]},"properties":{"cod_ibge":"510517","name":"Juruena","uf":"MT"}},
{"type":"Feature","geometry":{"type":"MultiPolygon","coordinates":[[[[-56.14578,-15.76989],[-55.89308,-15.69849],[-55.7089,-15.70531],[-55.57041,-15.77625],[-55.54757,-15.86174],[-55.41955,-15.93132],[-55.30961,-15.88766],[-55.41336,-15.7617],[-55.38195,-15.63392],[-55.50188,-15.62482],[-55.60848,-15.49522],[-55.82835,-15.47794],[-55.80075,-15.32924],[-55.88879,-15.27195],[-55.92258,-15.10278],[-56.12913,-15.09687],[-56.27523,-15.2101],[-56.27856,-15.34016],[-56.24858,-15.45066],[-56.13341,-15.62392],[-56.14578,-15.76852],[-56.14578,-15.76989]]],[[[-55.1578,-16.44245],[-55.25536,-16.17279],[-55.35054,-16.31694],[-55.25345,-16.53112],[-55.1578,-16.44245]]]]},"properties":{"cod_ibge":"510340","name":"Cuiabá","uf":"MT"}},
{"type":"Feature","geometry":{"type":"Polygon","coordinates":[[[-54.52817,-14.77946],[-54.33733,-14.73262],[-54.39872,-14.53163],[-54.55006,-14.47661],[-54.70854,-14.32017],[-54.81514,-14.29425],[-54.92984,-14.41931],[-54.90699,-14.65168],[-54.92412,-14.79401],[-54.74756,-14.79629],[-54.62525,-14.73535],[-54.52817,-14.77946]]]},"properties":{"cod_ibge":"510645","name":"Planalto da Serra","uf":"MT"}},
{"type":"Feature","geometry":{"type":"Polygon","coordinates":[[[-58.44823,-11.92233],[-58.38922,-11.77408],[-58.41634,-11.61402],[-58.33544,-11.50215],[-58.33021,-11.32662],[-58.37494,-11.23885],[-58.52961,-11.29706],[-58.8004,-11.1761],[-58.86084,-11.01876],[-58.94794,-10.9933],[-58.86798,-10.83641],[-58.90843,-10.79048],[-58.88226,-10.61859],[-58.93223,-10.73591],[-59.1145,-10.81231],[-59.36578,-10.80185],[-59.4919,-10.74182],[-59.66132,-10.74182],[-59.71415,-10.80412],[-59.88357,-10.85778],[-59.96686,-10.81958],[-60.26144,-10.91917],[-60.40422,-10.85233],[-60.4599,-10.98966],[-60.39137,-11.09379],[-60.07489,-11.10516],[-59.99494,-11.14836],[-59.92069,-11.39801],[-60.09392,-11.56263],[-60.12248,-11.68223],[-60.06585,-11.89095],[-59.98399,-11.9146],[-59.8869,-12.2452],[-59.77935,-12.3416],[-59.63943,-12.30477],[-59.35103,-12.28066],[-59.17066,-12.36752],[-59.01694,-12.24201],[-58.86941,-12.21336],[-58.73711,-12.1406],[-58.44823,-11.92233]]]},"properties":{"cod_ibge":"510515","name":"Juína","uf":"MT"}},
{"type":"Feature","geometry":{"type":"Polygon","coordinates":[[[-57.89522,-15.46703],[-57.99088,-15.56162],[-57.88999,-15.75033],[-57.79909,-15.77352],[-57.8324,-15.50978],[-57.89522,-15.46703]]]},"properties":{"cod_ibge":"510343","name":"Curvelândia","uf":"MT"}},
{"type":"Feature","geometry":{"type":"Polygon","coordinates":[[[-51.33529,-11.8473],[-51.45332,-11.67677],[-51.98491,-11.72725],[-52.02584,-11.79],[-52.18194,-11.75953],[-52.25047,-11.82865],[-52.12102,-11.98827],[-51.83119,-11.86048],[-51.65939,-11.96598],[-51.47616,-11.92278],[-51.33529,-11.8473]]]},"properties":{"cod_ibge":"510035","name":"Alto Boa Vista","uf":"MT"}},
{"type":"Feature","geometry":{"type":"Polygon","coordinates":[[[-57.14757,-14.8022],[-57.07809,-14.91634],[-56.92675,-14.9368],[-56.76161,-14.74035],[-56.72592,-14.64895],[-56.90676,-14.59165],[-56.94959,-14.50298],[-57.04668,-14.57619],[-57.04715,-14.5771],[-57.10046,-14.6053],[-57.10188,-14.60621],[-57.11045,-14.60803],[-57.0838,-14.64804],[-57.08428,-14.6485],[-57.1214,-14.68215],[-57.12235,-14.6826],[-57.14757,-14.8022]]]},"properties":{"cod_ibge":"510345","name":"Denise","uf":"MT"}},
{"type":"Feature","geometry":{"type":"Polygon","coordinates":[[[-55.1578,-16.44245],[-55.25345,-16.53112],[-55.35054,-16.31694],[-55.51901,-16.30875],[-55.47475,-16.17961],[-55.38147,-16.11003],[-55.41955,-15.93132],[-55.54757,-15.86174],[-55.57041,-15.77625],[-55.7089,-15.70531],[-55.89308,-15.69849],[-56.14578,-15.76989],[-56.09629,-15.92905],[-55.95494,-16.17415],[-55.88879,-16.12322],[-55.69462,-16.29784],[-55.49379,-16.38924],[-55.60372,-17.36648],[-55.60277,-17.36739],[-55.53091,-17.32828],[-55.36101,-17.36011],[-55.02454,-17.10319],[-54.89509,-17.07408],[-54.93221,-16.90401],[-54.97076,-16.4711],[-55.1578,-16.44245]]]},"properties":{"cod_ibge":"510780","name":"Santo Antônio de Leverger","uf":"MT"}},
{"type":"Feature","geometry":{"type":"Polygon","coordinates":[[[-59.0455,-14.00004],[-58.08416,-14.00004],[-58.23693,-13.92637],[-58.40825,-13.55758],[-58.35019,-13.46208],[-58.28261,-13.18696],[-58.29213,-12.93049],[-58.39778,-12.79861],[-58.44395,-12.43846],[-58.52771,-12.27521],[-58.47488,-12.16789],[-58.44823,-11.92233],[-58.73711,-12.1406],[-58.86941,-12.21336],[-58.84609,-12.33569],[-58.93128,-12.64127],[-58.9151,-12.9173],[-58.95983,-13.12648],[-59.03741,-13.2429],[-58.99838,-13.44435],[-59.03027,-13.50073],[-58.98315,-13.85589],[-59.0455,-14.00004]]]},"properties":{"cod_ibge":"510787","name":"Sapezal","uf":"MT"}},
{"type":"Feature","geometry":{"type":"Polygon","coordinates":[[[-51.65939,-11.96598],[-51.60323,-11.98145],[-51.38764,-12.2029],[-51.28342,-12.34706],[-51.30626,-12.17062],[-51.08497,-12.08376],[-51.22488,-11.98599],[-51.183,-11.8523],[-51.33529,-11.8473],[-51.47616,-11.92278],[-51.65939,-11.96598]]]},"properties":{"cod_ibge":"510788","name":"Serra Nova Dourada","uf":"MT"}},
{"type":"Feature","geometry":{"type":"Polygon","coordinates":[[[-52.25047,-11.82865],[-52.18194,-11.75953],[-52.02584,-11.79],[-51.98491,-11.72725],[-51.45332,-11.67677],[-51.33529,-11.8473],[-51.183,-11.8523],[-51.22488,-11.98599],[-51.08497,-12.08376],[-50.95028,-12.08513],[-50.84178,-11.88777],[-50.71709,-11.72725],[-50.66997,-11.58173],[-50.73898,-11.54444],[-50.69996,-11.31298],[-51.51899,-11.17837],[-51.48711,-11.25204],[-51.62703,-11.36709],[-51.66082,-11.46122],[-51.79026,-11.51852],[-51.92399,-11.51852],[-52.0206,-11.40211],[-52.02536,-11.31298],[-52.22334,-11.0324],[-52.44226,-11.09789],[-52.75636,-11.04423],[-52.87058,-11.08879],[-52.93054,-10.9551],[-53.10044,-10.88961],[-53.12281,-10.8305],[-53.31793,-10.95783],[-53.24464,-11.21112],[-53.00669,-11.53762],[-52.5836,-11.70451],[-52.38705,-11.71406],[-52.25047,-11.82865]]]},"properties":{"cod_ibge":"510785","name":"São Félix do Araguaia","uf":"MT"}},
{"type":"Feature","geometry":{"type":"Polygon","coordinates":[[[-56.30093,-16.39697],[-56.21622,-16.18779],[-56.48082,-16.27147],[-56.38945,-16.04682],[-56.56078,-15.94132],[-56.53508,-15.83082],[-56.62026,-15.78307],[-56.86441,-15.819],[-57.00765,-15.80354],[-57.15328,-16.0009],[-57.0719,-16.26783],[-57.07571,-16.41926],[-57.18802,-16.52794],[-57.40313,-16.63799],[-57.36363,-16.82307],[-57.43216,-16.92038],[-57.33413,-17.20959],[-57.33698,-17.35784],[-57.49689,-17.53337],[-57.69249,-17.62705],[-57.6844,-17.71663],[-57.48547,-17.86215],[-57.10141,-17.77211],[-56.87583,-17.53291],[-56.72306,-17.30827],[-56.58743,-17.04953],[-56.61884,-16.87172],[-56.30093,-16.39697]]]},"properties":{"cod_ibge":"510650","name":"Poconé","uf":"MT"}},
{"type":"Feature","geometry":{"type":"MultiPolygon","coordinates":[[[[-58.61908,-14.82812],[-58.75662,-14.59393],[-58.78613,-14.81357],[-58.85418,-15.00001],[-58.72235,-15.00001],[-58.61908,-14.82812]]],[[[-57.74817,-14.9127],[-58.00944,-14.76309],[-58.15412,-14.71489],[-58.22788,-14.76991],[-58.2355,-14.91225],[-58.12794,-14.88996],[-58.01753,-15.00001],[-57.73104,-15.00001],[-57.67678,-15.13598],[-57.62586,-15.17463],[-57.57208,-15.40564],[-57.50783,-15.51023],[-57.49689,-15.64711],[-57.36744,-15.48522],[-57.29653,-15.33652],[-57.13805,-15.23284],[-56.98053,-15.38199],[-56.81967,-15.14507],[-56.92675,-14.9368],[-57.07809,-14.91634],[-57.14757,-14.8022],[-57.23323,-14.81948],[-57.31509,-14.95681],[-57.49498,-14.87769],[-57.74817,-14.9127]]]]},"properties":{"cod_ibge":"510170","name":"Barra do Bugres","uf":"MT"}},
{"type":"Feature","geometry":{"type":"Polygon","coordinates":[[[-53.21085,-16.45609],[-53.36552,-16.48337],[-53.49735,-16.66936],[-53.82144,-16.79896],[-53.86237,-16.75758],[-54.01704,-16.93357],[-53.929,-17.09455],[-53.68295,-17.22551],[-53.56207,-17.25007],[-53.35315,-16.99041],[-53.36219,-16.85262],[-53.14708,-16.58569],[-53.16564,-16.53658],[-53.21085,-16.45609]]]},"properties":{"cod_ibge":"510040","name":"Alto Garças","uf":"MT"}},
{"type":"Feature","geometry":{"type":"Polygon","coordinates":[[[-58.15555,-14.22332],[-58.23217,-14.38566],[-57.73484,-14.29153],[-57.69106,-14.08735],[-57.62824,-13.96366],[-57.36554,-13.58622],[-57.54305,-13.58213],[-57.61872,-13.34066],[-57.48689,-13.15513],[-57.67012,-13.16195],[-57.74912,-13.26972],[-57.9214,-13.20743],[-58.06227,-13.24426],[-58.17316,-13.1806],[-58.18505,-13.02507],[-58.29213,-12.93049],[-58.28261,-13.18696],[-58.35019,-13.46208],[-58.40825,-13.55758],[-58.23693,-13.92637],[-58.08416,-14.00004],[-58.09653,-14.07143],[-58.09749,-14.07189],[-58.10986,-14.16829],[-58.10986,-14.16875],[-58.12556,-14.1933],[-58.12699,-14.19512],[-58.15507,-14.22332],[-58.15555,-14.22332]]]},"properties":{"cod_ibge":"510263","name":"Campo Novo do Parecis","uf":"MT"}},
{"type":"Feature","geometry":{"type":"Polygon","coordinates":[[[-54.57576,-15.8813],[-54.6105,-15.98089],[-54.89081,-15.99817],[-54.92698,-16.05546],[-55.08736,-16.08911],[-55.25536,-16.17279],[-55.1578,-16.44245],[-54.97076,-16.4711],[-54.93983,-16.33104],[-54.71948,-16.16597],[-54.47963,-16.0682],[-54.45773,-15.92177],[-54.57576,-15.8813]]]},"properties":{"cod_ibge":"510520","name":"Juscimeira","uf":"MT"}},
{"type":"Feature","geometry":{"type":"Polygon","coordinates":[[[-55.87927,-13.25654],[-55.89022,-13.04599],[-55.99302,-12.87319],[-56.04156,-12.69857],[-56.11675,-12.63809],[-56.26857,-12.70221],[-56.40135,-12.88911],[-56.50224,-12.8832],[-56.61075,-13.02098],[-56.34566,-13.11148],[-56.16577,-13.3925],[-55.97731,-13.45344],[-55.96732,-13.33021],[-55.87927,-13.25654]]]},"properties":{"cod_ibge":"510525","name":"Lucas do Rio Verde","uf":"MT"}},
{"type":"Feature","geometry":{"type":"Polygon","coordinates":[[[-52.81394,-14.77901],[-52.6864,-14.55164],[-52.93007,-14.2556],[-53.03905,-14.10417],[-52.98908,-14.00504],[-53.11424,-13.73038],[-53.10092,-13.63488],[-53.22418,-13.77494],[-53.36552,-14.13919],[-53.45499,-14.2647],[-53.46737,-14.40339],[-53.35077,-14.57847],[-53.40122,-14.7258],[-53.29176,-14.86268],[-53.09854,-14.87951],[-53.02382,-14.73854],[-52.81394,-14.77901]]]},"properties":{"cod_ibge":"510260","name":"Campinápolis","uf":"MT"}},
{"type":"Feature","geometry":{"type":"Polygon","coordinates":[[[-58.39065,-15.88494],[-58.29261,-15.99589],[-58.13223,-15.84719],[-58.28737,-15.81673],[-58.2474,-15.70895],[-58.56055,-15.69304],[-58.39065,-15.88494]]]},"properties":{"cod_ibge":"510395","name":"Glória D'Oeste","uf":"MT"}},
{"type":"Feature","geometry":{"type":"Polygon","coordinates":[[[-54.47963,-16.0682],[-54.46344,-16.23736],[-54.33876,-16.32512],[-54.22692,-16.32285],[-54.14982,-16.29966],[-53.94851,-16.35605],[-53.94185,-16.20735],[-53.80431,-16.21008],[-53.85476,-16.13277],[-53.76624,-15.88539],[-53.84619,-15.83355],[-53.93756,-15.61482],[-53.90996,-15.4925],[-53.73292,-15.34334],[-53.89902,-15.26103],[-54.03465,-15.33379],[-54.04417,-15.61573],[-54.18361,-15.67576],[-54.2036,-15.53206],[-54.36446,-15.598],[-54.35779,-15.45475],[-54.50628,-15.402],[-54.54673,-15.55252],[-54.69616,-15.88903],[-54.57576,-15.8813],[-54.45773,-15.92177],[-54.47963,-16.0682]]]},"properties":{"cod_ibge":"510700","name":"Poxoréu","uf":"MT"}},
{"type":"Feature","geometry":{"type":"Polygon","coordinates":[[[-57.89522,-15.46703],[-57.8324,-15.50978],[-57.79909,-15.77352],[-57.69677,-15.59936],[-57.71248,-15.4543],[-57.50783,-15.51023],[-57.57208,-15.40564],[-57.62586,-15.17463],[-57.67678,-15.13598],[-57.82289,-15.14189],[-57.9609,-15.22147],[-58.10367,-15.40609],[-58.01848,-15.3588],[-57.89522,-15.46703]]]},"properties":{"cod_ibge":"510523","name":"Lambari D'Oeste","uf":"MT"}},
{"type":"Feature","geometry":{"type":"Polygon","coordinates":[[[-54.97695,-15.6271],[-54.90271,-15.49659],[-54.55244,-15.36562],[-54.44298,-15.10233],[-54.56672,-14.96818],[-54.69712,-14.95272],[-54.87511,-15.06368],[-55.09878,-15.10597],[-55.33388,-15.35334],[-55.26583,-15.40337],[-55.38195,-15.63392],[-55.41336,-15.7617],[-55.30961,-15.88766],[-55.2011,-15.71123],[-54.97695,-15.6271]]]},"properties":{"cod_ibge":"510267","name":"Campo Verde","uf":"MT"}},
{"type":"Feature","geometry":{"type":"Polygon","coordinates":[[[-54.28641,-11.87185],[-54.13412,-11.67177],[-53.9685,-11.53307],[-53.87379,-11.51124],[-53.77909,-11.28979],[-54.01752,-11.24795],[-54.30068,-11.36891],[-54.42109,-11.3248],[-54.50628,-11.41302],[-54.60336,-11.18383],[-54.69854,-11.25568],[-54.72805,-11.64903],[-54.64096,-11.71406],[-54.56005,-11.86185],[-54.28641,-11.87185]]]},"properties":{"cod_ibge":"510830","name":"União do Sul","uf":"MT"}},
{"type":"Feature","geometry":{"type":"Polygon","coordinates":[[[-54.50628,-15.402],[-54.35779,-15.45475],[-54.36446,-15.598],[-54.2036,-15.53206],[-54.18361,-15.67576],[-54.04417,-15.61573],[-54.03465,-15.33379],[-53.89902,-15.26103],[-53.92472,-15.08323],[-53.93281,-14.99183],[-54.04179,-14.81857],[-53.77718,-14.63531],[-53.96088,-14.60393],[-54.13412,-14.62803],[-54.33733,-14.73262],[-54.52817,-14.77946],[-54.49819,-14.86313],[-54.69712,-14.95272],[-54.56672,-14.96818],[-54.44298,-15.10233],[-54.55244,-15.36562],[-54.50628,-15.402]]]},"properties":{"cod_ibge":"510704","name":"Primavera do Leste","uf":"MT"}},
{"type":"Feature","geometry":{"type":"Polygon","coordinates":[[[-56.94959,-14.50298],[-56.90676,-14.59165],[-56.72592,-14.64895],[-56.88725,-14.3611],[-56.9772,-14.43568],[-56.94959,-14.50298]]]},"properties":{"cod_ibge":"510130","name":"Arenápolis","uf":"MT"}},
{"type":"Feature","geometry":{"type":"Polygon","coordinates":[[[-59.08547,-14.66487],[-59.02836,-14.72307],[-59.03455,-15.02548],[-58.96459,-15.12643],[-59.01361,-15.23284],[-59.14877,-15.2292],[-59.19684,-15.36699],[-59.09309,-15.46703],[-58.94222,-15.2965],[-58.94936,-15.18145],[-58.85418,-15.00001],[-58.78613,-14.81357],[-58.75662,-14.59393],[-58.96269,-14.58574],[-59.05359,-14.65259],[-59.08547,-14.66487]]]},"properties":{"cod_ibge":"510835","name":"Vale de São Domingos","uf":"MT"}},
{"type":"Feature","geometry":{"type":"Polygon","coordinates":[[[-59.09071,-14.27652],[-59.085,-14.2606],[-59.06739,-14.16647],[-59.06691,-14.16647],[-59.0455,-14.00004],[-58.98315,-13.85589],[-59.03027,-13.50073],[-58.99838,-13.44435],[-59.03741,-13.2429],[-58.95983,-13.12648],[-58.9151,-12.9173],[-58.93128,-12.64127],[-59.03217,-12.70448],[-59.10974,-12.83772],[-59.22872,-12.92048],[-59.24728,-13.04463],[-59.34294,-13.11284],[-59.42765,-13.29019],[-59.38815,-13.47072],[-59.45668,-13.69582],[-59.43384,-13.85679],[-59.37054,-13.98185],[-59.34437,-14.05233],[-59.41909,-14.24469],[-59.31201,-14.51026],[-59.27393,-14.37383],[-59.09071,-14.27652]]]},"properties":{"cod_ibge":"510268","name":"Campos de Júlio","uf":"MT"}},
{"type":"Feature","geometry":{"type":"Polygon","coordinates":[[[-51.51899,-11.17837],[-51.39764,-11.02422],[-51.55421,-11.03922],[-51.76837,-10.93691],[-51.99062,-11.02149],[-52.1886,-10.93827],[-52.22334,-11.0324],[-52.02536,-11.31298],[-52.0206,-11.40211],[-51.92399,-11.51852],[-51.79026,-11.51852],[-51.66082,-11.46122],[-51.62703,-11.36709],[-51.48711,-11.25204],[-51.51899,-11.17837]]]},"properties":{"cod_ibge":"510269","name":"Canabrava do Norte","uf":"MT"}},
{"type":"Feature","geometry":{"type":"Polygon","coordinates":[[[-51.08735,-14.92134],[-51.08973,-14.8404],[-50.96409,-14.52845],[-50.99787,-14.41385],[-50.89889,-14.11509],[-50.8413,-14.10417],[-50.8551,-13.75721],[-50.75897,-13.52029],[-50.61096,-13.3202],[-50.59478,-13.09692],[-50.51102,-12.86091],[-50.62524,-12.79998],[-50.68377,-12.64809],[-50.73041,-12.78452],[-50.84273,-12.89184],[-50.94552,-12.69266],[-51.00739,-12.85409],[-51.11114,-12.96232],[-51.14208,-13.10011],[-51.38098,-13.45253],[-51.46855,-13.6176],[-51.55516,-13.71355],[-51.73173,-14.17648],[-51.71935,-14.37202],[-51.69127,-14.53618],[-51.47378,-14.35474],[-51.38003,-14.4957],[-51.53184,-14.71398],[-51.61941,-14.99046],[-51.35005,-14.99046],[-51.33863,-14.975],[-51.27581,-15.04367],[-51.08735,-14.92134]]]},"properties":{"cod_ibge":"510310","name":"Cocalinho","uf":"MT"}},
{"type":"Feature","geometry":{"type":"Polygon","coordinates":[[[-55.56993,-10.12656],[-55.51711,-10.16067],[-55.43097,-10.43169],[-55.33055,-10.50172],[-55.16779,-10.35439],[-55.16636,-10.21796],[-55.24203,-10.14611],[-55.35197,-10.18704],[-55.55756,-10.05698],[-55.56993,-10.12656]]]},"properties":{"cod_ibge":"510880","name":"Nova Guarita","uf":"MT"}},
{"type":"Feature","geometry":{"type":"Polygon","coordinates":[[[-53.10092,-13.63488],[-52.41846,-13.66671],[-52.04202,-13.75812],[-51.89544,-13.77812],[-51.60466,-13.61078],[-51.46855,-13.6176],[-51.38098,-13.45253],[-51.5761,-13.35476],[-51.69698,-13.42661],[-51.8883,-13.39069],[-51.93018,-13.21607],[-52.12483,-13.10693],[-52.28045,-13.24062],[-52.4494,-13.0519],[-52.49984,-12.72949],[-52.64262,-12.66992],[-52.92483,-12.60262],[-52.91722,-12.75678],[-52.81347,-12.84909],[-52.92769,-13.20106],[-53.06903,-13.44707],[-53.10092,-13.63488]]]},"properties":{"cod_ibge":"510270","name":"Canarana","uf":"MT"}},
{"type":"Feature","geometry":{"type":"Polygon","coordinates":[[[-57.71961,-14.3752],[-57.61729,-14.39657],[-57.50926,-14.32609],[-57.28892,-14.41931],[-56.9772,-14.43568],[-56.88725,-14.3611],[-56.86678,-14.26333],[-56.93912,-14.16465],[-57.14614,-14.16238],[-57.50831,-14.22241],[-57.58921,-14.19421],[-57.73294,-14.30335],[-57.71961,-14.3752]]]},"properties":{"cod_ibge":"510885","name":"Nova Marilândia","uf":"MT"}},
{"type":"Feature","geometry":{"type":"Polygon","coordinates":[[[-60.74354,-9.69865],[-60.87679,-9.77232],[-61.03718,-9.97331],[-61.36413,-10.0388],[-61.54021,-10.00014],[-61.60113,-10.15021],[-61.46169,-10.41987],[-61.47644,-10.72272],[-61.55021,-10.98602],[-61.42885,-10.98738],[-61.00053,-10.99239],[-60.4599,-10.98966],[-60.40422,-10.85233],[-60.3966,-10.76411],[-60.52224,-10.67134],[-60.52415,-10.4708],[-60.63741,-10.293],[-60.61076,-10.01106],[-60.68167,-9.73685],[-60.64741,-9.63635],[-60.74354,-9.6991],[-60.74354,-9.69865]]]},"properties":{"cod_ibge":"510757","name":"Rondolândia","uf":"MT"}},
{"type":"Feature","geometry":{"type":"Polygon","coordinates":[[[-56.41134,-13.8386],[-56.26809,-14.126],[-56.06155,-14.14374],[-56.02871,-14.22286],[-55.71271,-14.11463],[-55.66464,-14.01732],[-55.5509,-14.02187],[-55.38195,-14.14374],[-55.53757,-13.90409],[-55.52853,-13.81405],[-55.69224,-13.41433],[-55.76934,-13.34248],[-55.87927,-13.25654],[-55.96732,-13.33021],[-55.97731,-13.45344],[-56.16577,-13.3925],[-56.34566,-13.11148],[-56.61075,-13.02098],[-56.50224,-12.8832],[-56.77351,-12.83499],[-56.73972,-12.95459],[-56.72544,-13.11875],[-56.64358,-13.25381],[-56.6117,-13.40024],[-56.41753,-13.58759],[-56.38326,-13.71628],[-56.41134,-13.8386]]]},"properties":{"cod_ibge":"510622","name":"Nova Mutum","uf":"MT"}},
{"type":"Feature","geometry":{"type":"Polygon","coordinates":[[[-55.55756,-10.05698],[-55.57469,-9.95149],[-55.73317,-9.78778],[-55.83216,-9.73639],[-55.89593,-10.03743],[-56.00301,-10.12429],[-56.17386,-10.17294],[-56.06393,-10.34029],[-55.94209,-10.38212],[-55.80789,-10.24025],[-55.69034,-10.24934],[-55.56993,-10.12656],[-55.55756,-10.05698]]]},"properties":{"cod_ibge":"510279","name":"Carlinda","uf":"MT"}},
{"type":"Feature","geometry":{"type":"Polygon","coordinates":[[[-57.11045,-14.60803],[-57.16946,-14.66441],[-57.6625,-14.754],[-57.74817,-14.9127],[-57.49498,-14.87769],[-57.31509,-14.95681],[-57.23323,-14.81948],[-57.14757,-14.8022],[-57.12235,-14.6826],[-57.1214,-14.68215],[-57.08428,-14.6485],[-57.0838,-14.64804],[-57.11045,-14.60803]]]},"properties":{"cod_ibge":"510623","name":"Nova Olímpia","uf":"MT"}},
{"type":"Feature","geometry":{"type":"Polygon","coordinates":[[[-55.3967,-14.56801],[-55.51282,-14.74945],[-55.49379,-14.8786],[-55.16827,-14.79265],[-55.10973,-14.99956],[-54.87511,-15.06368],[-54.69712,-14.95272],[-54.49819,-14.86313],[-54.52817,-14.77946],[-54.62525,-14.73535],[-54.74756,-14.79629],[-54.92412,-14.79401],[-54.90699,-14.65168],[-54.92984,-14.41931],[-55.04691,-14.54436],[-55.23299,-14.63486],[-55.3967,-14.56801]]]},"properties":{"cod_ibge":"510620","name":"Nova Brasilândia","uf":"MT"}},
{"type":"Feature","geometry":{"type":"Polygon","coordinates":[[[-55.61657,-10.96146],[-55.67463,-10.81686],[-55.62371,-10.52673],[-55.70699,-10.29618],[-55.69034,-10.24934],[-55.80789,-10.24025],[-55.94209,-10.38212],[-56.06393,-10.34029],[-56.28189,-10.40577],[-56.26476,-10.57948],[-56.40896,-10.57948],[-56.43371,-10.68271],[-56.40373,-10.80003],[-56.57077,-10.95009],[-56.5089,-11.09516],[-56.32092,-11.09288],[-55.88308,-10.87324],[-55.76458,-10.98556],[-55.61657,-10.96146]]]},"properties":{"cod_ibge":"510621","name":"Nova Canaã do Norte","uf":"MT"}},
{"type":"Feature","geometry":{"type":"Polygon","coordinates":[[[-56.50224,-12.8832],[-56.40135,-12.88911],[-56.26857,-12.70221],[-56.11675,-12.63809],[-56.05964,-12.42846],[-56.19004,-12.38207],[-56.2443,-12.44164],[-56.35661,-12.26611],[-56.41515,-12.24792],[-56.52889,-12.34842],[-56.68642,-12.31841],[-56.8468,-12.37161],[-56.95626,-12.29931],[-56.95292,-12.46984],[-56.90295,-12.62991],[-56.77351,-12.83499],[-56.50224,-12.8832]]]},"properties":{"cod_ibge":"510800","name":"Tapurah","uf":"MT"}},
{"type":"Feature","geometry":{"type":"Polygon","coordinates":[[[-55.55756,-10.05698],[-55.35197,-10.18704],[-55.24203,-10.14611],[-55.13781,-10.04607],[-55.03263,-9.96831],[-54.95696,-9.67682],[-54.99551,-9.50538],[-55.86738,-9.43445],[-55.934,-9.60861],[-55.83216,-9.73639],[-55.73317,-9.78778],[-55.57469,-9.95149],[-55.55756,-10.05698]]]},"properties":{"cod_ibge":"510626","name":"Novo Mundo","uf":"MT"}},
{"type":"Feature","geometry":{"type":"Polygon","coordinates":[[[-59.02313,-9.97968],[-59.18065,-9.99605],[-59.16781,-9.82143],[-59.25347,-9.77505],[-59.43479,-9.76868],[-59.64705,-9.86645],[-59.78506,-9.75322],[-59.83646,-9.61725],[-59.77269,-9.48265],[-59.91546,-9.41444],[-60.16674,-9.40079],[-60.26953,-9.32122],[-60.47846,-9.31667],[-60.62361,-9.36532],[-60.59077,-9.55313],[-60.64741,-9.63635],[-60.68167,-9.73685],[-60.61076,-10.01106],[-60.63741,-10.293],[-60.52415,-10.4708],[-60.52224,-10.67134],[-60.3966,-10.76411],[-60.40422,-10.85233],[-60.26144,-10.91917],[-59.96686,-10.81958],[-59.88357,-10.85778],[-59.71415,-10.80412],[-59.66132,-10.74182],[-59.4919,-10.74182],[-59.36578,-10.80185],[-59.1145,-10.81231],[-58.93223,-10.73591],[-58.88226,-10.61859],[-58.88131,-10.39258],[-58.7966,-10.28117],[-58.84371,-10.13111],[-58.86655,-10.06699],[-59.02313,-9.97968]]]},"properties":{"cod_ibge":"510140","name":"Aripuanã","uf":"MT"}},
{"type":"Feature","geometry":{"type":"Polygon","coordinates":[[[-57.40789,-11.49396],[-57.1252,-11.4594],[-57.06,-11.35936],[-57.139,-11.31752],[-57.28225,-11.28433],[-57.55685,-11.32616],[-57.40789,-11.49396]]]},"properties":{"cod_ibge":"510627","name":"Novo Horizonte do Norte","uf":"MT"}},
{"type":"Feature","geometry":{"type":"Polygon","coordinates":[[[-56.45036,-15.14371],[-56.45132,-15.26785],[-56.35566,-15.41246],[-56.27856,-15.34016],[-56.27523,-15.2101],[-56.12913,-15.09687],[-56.24239,-14.97637],[-56.46607,-15.09642],[-56.45036,-15.14371]]]},"properties":{"cod_ibge":"510010","name":"Acorizal","uf":"MT"}},
{"type":"Feature","geometry":{"type":"Polygon","coordinates":[[[-54.43061,-13.10102],[-54.40871,-13.03053],[-54.40776,-13.02962],[-54.32733,-12.85409],[-54.34209,-12.71767],[-54.29926,-12.57397],[-54.21788,-12.53486],[-54.15648,-12.39208],[-53.96945,-12.21336],[-53.90235,-12.24065],[-53.78242,-12.09422],[-53.85571,-12.07239],[-54.14411,-12.17289],[-54.45345,-12.36343],[-54.55958,-12.46756],[-54.70568,-12.49667],[-54.74661,-12.60126],[-54.91556,-12.66674],[-54.95363,-12.74177],[-55.22918,-12.73722],[-55.2763,-12.66674],[-55.45143,-12.79725],[-55.33959,-13.08965],[-55.28248,-13.25199],[-55.09545,-13.26018],[-54.85464,-13.19788],[-54.74947,-13.24426],[-54.63096,-13.15513],[-54.53673,-13.17605],[-54.43061,-13.10102]]]},"properties":{"cod_ibge":"510624","name":"Nova Ubiratã","uf":"MT"}},
{"type":"Feature","geometry":{"type":"Polygon","coordinates":[[[-55.27439,-10.87461],[-55.16208,-10.72318],[-55.23965,-10.56584],[-55.33055,-10.50172],[-55.43097,-10.43169],[-55.51711,-10.16067],[-55.56993,-10.12656],[-55.69034,-10.24934],[-55.70699,-10.29618],[-55.62371,-10.52673],[-55.67463,-10.81686],[-55.61657,-10.96146],[-55.44572,-11.0133],[-55.39385,-10.92372],[-55.27439,-10.87461]]]},"properties":{"cod_ibge":"510320","name":"Colíder","uf":"MT"}},
{"type":"Feature","geometry":{"type":"Polygon","coordinates":[[[-51.71935,-14.37202],[-51.9259,-14.57619],[-52.10436,-14.68169],[-52.21335,-14.56846],[-52.33042,-14.53481],[-52.32423,-14.35064],[-52.38229,-14.1833],[-52.93007,-14.2556],[-52.6864,-14.55164],[-52.81394,-14.77901],[-52.67783,-14.86177],[-52.60359,-14.93726],[-52.48842,-14.89406],[-52.34565,-14.93453],[-52.23905,-14.82221],[-52.09056,-14.85995],[-52.01584,-14.8022],[-51.93875,-14.78537],[-51.69127,-14.53618],[-51.71935,-14.37202]]]},"properties":{"cod_ibge":"510625","name":"Nova Xavantina","uf":"MT"}},
{"type":"Feature","geometry":{"type":"Polygon","coordinates":[[[-55.16208,-10.72318],[-54.8832,-10.72818],[-54.79801,-10.61995],[-54.64001,-10.53719],[-54.65524,-10.44397],[-55.03263,-10.30254],[-55.15399,-10.22569],[-55.16636,-10.21796],[-55.16779,-10.35439],[-55.33055,-10.50172],[-55.23965,-10.56584],[-55.16208,-10.72318]]]},"properties":{"cod_ibge":"510805","name":"Terra Nova do Norte","uf":"MT"}}
]}