{"type":"FeatureCollection", "features": [
{"type":"Feature","geometry":{"type":"Polygon","coordinates":[[[-36.58545,-10.4999],[-36.48931,-10.42442],[-36.56213,-10.41577],[-36.6002,-10.49672],[-36.58545,-10.4999]]]},"properties":{"cod_ibge":"280270","name":"Ilha das Flores","uf":"SE"}},
{"type":"Feature","geometry":{"type":"Polygon","coordinates":[[[-37.38878,-11.05287],[-37.45541,-10.97738],[-37.53108,-10.99602],[-37.54631,-11.16564],[-37.38878,-11.05287]]]},"properties":{"cod_ibge":"280620","name":"Salgado","uf":"SE"}},
{"type":"Feature","geometry":{"type":"Polygon","coordinates":[[[-37.7933,-11.1329],[-37.70669,-11.17428],[-37.62245,-11.06742],[-37.82233,-11.00421],[-37.87563,-10.86369],[-37.97272,-10.88052],[-37.94607,-10.99557],[-37.7933,-11.1329]]]},"properties":{"cod_ibge":"280580","name":"Riachão do Dantas","uf":"SE"}},
{"type":"Feature","geometry":{"type":"Polygon","coordinates":[[[-37.59675,-10.2507],[-37.40353,-10.29254],[-37.39592,-10.28845],[-37.33215,-10.21114],[-37.31501,-10.1543],[-37.41971,-10.06153],[-37.42019,-10.06244],[-37.53298,-10.11428],[-37.7795,-10.13338],[-37.7657,-10.19614],[-37.59675,-10.2507]]]},"properties":{"cod_ibge":"280450","name":"Nossa Senhora da Glória","uf":"SE"}},
{"type":"Feature","geometry":{"type":"Polygon","coordinates":[[[-37.66623,-10.0156],[-37.46588,-9.74822],[-37.65957,-9.67819],[-37.66909,-9.65818],[-37.90229,-9.91874],[-37.79092,-10.03288],[-37.66623,-10.0156]]]},"properties":{"cod_ibge":"280540","name":"Poço Redondo","uf":"SE"}},
{"type":"Feature","geometry":{"type":"Polygon","coordinates":[[[-36.87289,-10.74137],[-37.03994,-10.88416],[-37.0347,-10.95737],[-36.85291,-10.7441],[-36.87289,-10.74137]]]},"properties":{"cod_ibge":"280060","name":"Barra dos Coqueiros","uf":"SE"}},
{"type":"Feature","geometry":{"type":"Polygon","coordinates":[[[-37.24791,-10.59449],[-37.32072,-10.54037],[-37.39449,-10.58221],[-37.32881,-10.6536],[-37.29645,-10.60085],[-37.24791,-10.59449]]]},"properties":{"cod_ibge":"280410","name":"Moita Bonita","uf":"SE"}},
{"type":"Feature","geometry":{"type":"Polygon","coordinates":[[[-37.23934,-10.298],[-37.11751,-10.40941],[-37.12513,-10.37485],[-37.16415,-10.33983],[-37.26124,-10.23843],[-37.23934,-10.298]]]},"properties":{"cod_ibge":"280190","name":"Cumbe","uf":"SE"}},
{"type":"Feature","geometry":{"type":"Polygon","coordinates":[[[-37.70478,-11.19202],[-37.59675,-11.20339],[-37.54631,-11.16564],[-37.53108,-10.99602],[-37.62245,-11.06742],[-37.70669,-11.17428],[-37.70478,-11.19202]]]},"properties":{"cod_ibge":"280067","name":"Boquim","uf":"SE"}},
{"type":"Feature","geometry":{"type":"Polygon","coordinates":[[[-37.15035,-10.16294],[-36.94333,-10.22751],[-36.91811,-10.12474],[-36.94761,-10.07472],[-36.94856,-10.06972],[-37.06659,-10.13656],[-37.15035,-10.16294]]]},"properties":{"cod_ibge":"280110","name":"Canhoba","uf":"SE"}},
{"type":"Feature","geometry":{"type":"Polygon","coordinates":[[[-37.5306,-10.64587],[-37.64006,-10.60495],[-37.6629,-10.71727],[-37.61769,-10.71272],[-37.59485,-10.69589],[-37.50062,-10.68862],[-37.5306,-10.64587]]]},"properties":{"cod_ibge":"280370","name":"Macambira","uf":"SE"}},
{"type":"Feature","geometry":{"type":"Polygon","coordinates":[[[-37.09181,-10.64087],[-37.07182,-10.61495],[-37.13845,-10.47034],[-37.20746,-10.60768],[-37.09181,-10.64087]]]},"properties":{"cod_ibge":"280720","name":"Siriri","uf":"SE"}},
{"type":"Feature","geometry":{"type":"Polygon","coordinates":[[[-37.06183,-10.06153],[-36.95332,-10.02288],[-37.13369,-9.91374],[-37.22602,-9.89783],[-37.28551,-10.00924],[-37.41971,-10.06153],[-37.31501,-10.1543],[-37.22031,-10.13565],[-37.17081,-10.04971],[-37.06183,-10.06153]]]},"properties":{"cod_ibge":"280240","name":"Gararu","uf":"SE"}},
{"type":"Feature","geometry":{"type":"Polygon","coordinates":[[[-37.7795,-10.13338],[-37.53298,-10.11428],[-37.42019,-10.06244],[-37.56296,-9.99923],[-37.66623,-10.0156],[-37.79092,-10.03288],[-37.7795,-10.13338]]]},"properties":{"cod_ibge":"280420","name":"Monte Alegre de Sergipe","uf":"SE"}},
{"type":"Feature","geometry":{"type":"Polygon","coordinates":[[[-38.145,-10.71818],[-38.21448,-10.725],[-38.23685,-10.80822],[-38.2102,-10.931],[-38.18069,-10.94282],[-38.08646,-10.82186],[-37.97034,-10.82504],[-37.97224,-10.75728],[-38.0422,-10.7009],[-38.145,-10.71818]]]},"properties":{"cod_ibge":"280550","name":"Poço Verde","uf":"SE"}},
{"type":"Feature","geometry":{"type":"Polygon","coordinates":[[[-36.58545,-10.4999],[-36.48598,-10.53628],[-36.39603,-10.49672],[-36.48693,-10.42305],[-36.48931,-10.42442],[-36.58545,-10.4999]]]},"properties":{"cod_ibge":"280070","name":"Brejo Grande","uf":"SE"}},
{"type":"Feature","geometry":{"type":"Polygon","coordinates":[[[-37.61769,-10.71272],[-37.57629,-10.83868],[-37.49681,-10.83232],[-37.59485,-10.69589],[-37.61769,-10.71272]]]},"properties":{"cod_ibge":"280680","name":"São Domingos","uf":"SE"}},
{"type":"Feature","geometry":{"type":"Polygon","coordinates":[[[-37.90229,-9.91874],[-37.66909,-9.65818],[-37.84232,-9.57951],[-37.89419,-9.53949],[-38.00318,-9.51493],[-38.06124,-9.58769],[-38.00365,-9.90465],[-37.90229,-9.91874]]]},"properties":{"cod_ibge":"280120","name":"Canindé de São Francisco","uf":"SE"}},
{"type":"Feature","geometry":{"type":"Polygon","coordinates":[[[-36.92905,-10.22297],[-36.86766,-10.22842],[-36.84482,-10.18886],[-36.85053,-10.1784],[-36.88241,-10.14748],[-36.94333,-10.22751],[-36.92905,-10.22297]]]},"properties":{"cod_ibge":"280730","name":"Telha","uf":"SE"}},
{"type":"Feature","geometry":{"type":"Polygon","coordinates":[[[-36.91668,-10.68544],[-37.01138,-10.67589],[-36.94999,-10.71272],[-36.91668,-10.68544]]]},"properties":{"cod_ibge":"280250","name":"General Maynard","uf":"SE"}},
{"type":"Feature","geometry":{"type":"Polygon","coordinates":[[[-37.4102,-10.41668],[-37.54773,-10.4617],[-37.47444,-10.56629],[-37.39449,-10.58221],[-37.32072,-10.54037],[-37.35975,-10.48353],[-37.4102,-10.41668]]]},"properties":{"cod_ibge":"280600","name":"Ribeirópolis","uf":"SE"}},
{"type":"Feature","geometry":{"type":"Polygon","coordinates":[[[-36.91573,-10.39349],[-36.90288,-10.32437],[-36.93381,-10.27617],[-37.00948,-10.30209],[-36.91573,-10.39349]]]},"properties":{"cod_ibge":"280380","name":"Malhada dos Bois","uf":"SE"}},
{"type":"Feature","geometry":{"type":"Polygon","coordinates":[[[-37.41971,-10.06153],[-37.28551,-10.00924],[-37.22602,-9.89783],[-37.29645,-9.83052],[-37.46588,-9.74822],[-37.66623,-10.0156],[-37.56296,-9.99923],[-37.42019,-10.06244],[-37.41971,-10.06153]]]},"properties":{"cod_ibge":"280560","name":"Porto da Folha","uf":"SE"}},
{"type":"Feature","geometry":{"type":"Polygon","coordinates":[[[-36.84434,-10.26207],[-36.90288,-10.32437],[-36.91573,-10.39349],[-36.90288,-10.40259],[-36.81864,-10.298],[-36.84434,-10.26207]]]},"properties":{"cod_ibge":"280690","name":"São Francisco","uf":"SE"}},
{"type":"Feature","geometry":{"type":"Polygon","coordinates":[[[-37.80615,-10.6004],[-37.70669,-10.63314],[-37.6886,-10.53173],[-37.72287,-10.50991],[-37.81519,-10.51718],[-37.80615,-10.6004]]]},"properties":{"cod_ibge":"280520","name":"Pinhão","uf":"SE"}},
{"type":"Feature","geometry":{"type":"Polygon","coordinates":[[[-37.66957,-11.23931],[-37.66338,-11.28979],[-37.52346,-11.29934],[-37.54631,-11.16564],[-37.59675,-11.20339],[-37.66957,-11.23931]]]},"properties":{"cod_ibge":"280040","name":"Arauá","uf":"SE"}},
{"type":"Feature","geometry":{"type":"Polygon","coordinates":[[[-37.79996,-11.52125],[-37.63244,-11.51807],[-37.65291,-11.4826],[-37.73001,-11.40165],[-37.76142,-11.40574],[-37.83328,-11.48214],[-37.79996,-11.52125]]]},"properties":{"cod_ibge":"280170","name":"Cristinápolis","uf":"SE"}},
{"type":"Feature","geometry":{"type":"Polygon","coordinates":[[[-37.2303,-10.67452],[-37.19889,-10.67725],[-37.20413,-10.62405],[-37.24791,-10.59449],[-37.29645,-10.60085],[-37.2303,-10.67452]]]},"properties":{"cod_ibge":"280650","name":"Santa Rosa de Lima","uf":"SE"}},
{"type":"Feature","geometry":{"type":"Polygon","coordinates":[[[-37.06469,-10.82322],[-37.31787,-10.83186],[-37.31787,-10.83232],[-37.10228,-10.91735],[-37.03375,-10.87006],[-37.06469,-10.82322]]]},"properties":{"cod_ibge":"280480","name":"Nossa Senhora do Socorro","uf":"SE"}},
{"type":"Feature","geometry":{"type":"Polygon","coordinates":[[[-37.87563,-10.86369],[-37.82233,-11.00421],[-37.62245,-11.06742],[-37.53108,-10.99602],[-37.45541,-10.97738],[-37.45588,-10.88188],[-37.49681,-10.83232],[-37.57629,-10.83868],[-37.61769,-10.71272],[-37.6629,-10.71727],[-37.67766,-10.71545],[-37.73286,-10.7973],[-37.87563,-10.86369]]]},"properties":{"cod_ibge":"280350","name":"Lagarto","uf":"SE"}},
{"type":"Feature","geometry":{"type":"Polygon","coordinates":[[[-37.40353,-10.29254],[-37.4102,-10.41668],[-37.35975,-10.48353],[-37.34119,-10.3844],[-37.39592,-10.28845],[-37.40353,-10.29254]]]},"properties":{"cod_ibge":"280700","name":"São Miguel do Aleixo","uf":"SE"}},
{"type":"Feature","geometry":{"type":"Polygon","coordinates":[[[-37.39592,-10.28845],[-37.34119,-10.3844],[-37.23934,-10.298],[-37.26124,-10.23843],[-37.33215,-10.21114],[-37.39592,-10.28845]]]},"properties":{"cod_ibge":"280220","name":"Feira Nova","uf":"SE"}},
{"type":"Feature","geometry":{"type":"Polygon","coordinates":[[[-37.09086,-10.65497],[-37.1613,-10.75137],[-37.08801,-10.78321],[-37.06849,-10.74774],[-37.09086,-10.65497]]]},"properties":{"cod_ibge":"280400","name":"Maruim","uf":"SE"}},
{"type":"Feature","geometry":{"type":"Polygon","coordinates":[[[-36.87289,-10.74137],[-36.85291,-10.7441],[-36.67301,-10.63087],[-36.75772,-10.5904],[-36.78152,-10.57493],[-36.92334,-10.6768],[-36.90002,-10.69271],[-36.87289,-10.74137]]]},"properties":{"cod_ibge":"280530","name":"Pirambu","uf":"SE"}},
{"type":"Feature","geometry":{"type":"Polygon","coordinates":[[[-37.28122,-10.72045],[-37.33643,-10.72182],[-37.4021,-10.82504],[-37.40306,-10.82595],[-37.31834,-10.83459],[-37.31787,-10.83232],[-37.31787,-10.83186],[-37.24458,-10.7782],[-37.28122,-10.72045]]]},"properties":{"cod_ibge":"280050","name":"Areia Branca","uf":"SE"}},
{"type":"Feature","geometry":{"type":"Polygon","coordinates":[[[-37.06469,-10.82322],[-37.03375,-10.87006],[-37.03994,-10.88416],[-36.87289,-10.74137],[-36.90002,-10.69271],[-36.91668,-10.68544],[-36.94999,-10.71272],[-37.06849,-10.74774],[-37.08801,-10.78321],[-37.06469,-10.82322]]]},"properties":{"cod_ibge":"280660","name":"Santo Amaro das Brotas","uf":"SE"}},
{"type":"Feature","geometry":{"type":"Polygon","coordinates":[[[-37.59485,-10.69589],[-37.49681,-10.83232],[-37.45588,-10.88188],[-37.40306,-10.82595],[-37.4021,-10.82504],[-37.50062,-10.68862],[-37.59485,-10.69589]]]},"properties":{"cod_ibge":"280100","name":"Campo do Brito","uf":"SE"}},
{"type":"Feature","geometry":{"type":"Polygon","coordinates":[[[-36.75772,-10.5904],[-36.67301,-10.63087],[-36.48598,-10.53628],[-36.58545,-10.4999],[-36.6002,-10.49672],[-36.70537,-10.40077],[-36.75772,-10.5904]]]},"properties":{"cod_ibge":"280490","name":"Pacatuba","uf":"SE"}},
{"type":"Feature","geometry":{"type":"Polygon","coordinates":[[[-37.80615,-10.6004],[-37.84756,-10.69908],[-37.97224,-10.75728],[-37.97034,-10.82504],[-37.97272,-10.88052],[-37.87563,-10.86369],[-37.73286,-10.7973],[-37.67766,-10.71545],[-37.70669,-10.63314],[-37.80615,-10.6004]]]},"properties":{"cod_ibge":"280710","name":"Simão Dias","uf":"SE"}},
{"type":"Feature","geometry":{"type":"Polygon","coordinates":[[[-37.47444,-10.56629],[-37.54773,-10.4617],[-37.57534,-10.37076],[-37.72287,-10.50991],[-37.6886,-10.53173],[-37.64006,-10.60495],[-37.5306,-10.64587],[-37.47444,-10.56629]]]},"properties":{"cod_ibge":"280230","name":"Frei Paulo","uf":"SE"}},
{"type":"Feature","geometry":{"type":"Polygon","coordinates":[[[-37.08801,-10.78321],[-37.1613,-10.75137],[-37.24458,-10.7782],[-37.31787,-10.83186],[-37.06469,-10.82322],[-37.08801,-10.78321]]]},"properties":{"cod_ibge":"280360","name":"Laranjeiras","uf":"SE"}},
{"type":"Feature","geometry":{"type":"Polygon","coordinates":[[[-37.38878,-11.05287],[-37.34975,-11.19702],[-37.26028,-11.28979],[-37.15463,-11.16155],[-37.16653,-11.10516],[-37.32834,-10.97511],[-37.31834,-10.83459],[-37.40306,-10.82595],[-37.45588,-10.88188],[-37.45541,-10.97738],[-37.38878,-11.05287]]]},"properties":{"cod_ibge":"280320","name":"Itaporanga d'Ajuda","uf":"SE"}},
{"type":"Feature","geometry":{"type":"Polygon","coordinates":[[[-37.16653,-11.10516],[-37.10228,-10.91735],[-37.31787,-10.83232],[-37.31834,-10.83459],[-37.32834,-10.97511],[-37.16653,-11.10516]]]},"properties":{"cod_ibge":"280670","name":"São Cristóvão","uf":"SE"}},
{"type":"Feature","geometry":{"type":"Polygon","coordinates":[[[-37.6629,-10.71727],[-37.64006,-10.60495],[-37.6886,-10.53173],[-37.70669,-10.63314],[-37.67766,-10.71545],[-37.6629,-10.71727]]]},"properties":{"cod_ibge":"280500","name":"Pedra Mole","uf":"SE"}},
{"type":"Feature","geometry":{"type":"Polygon","coordinates":[[[-36.94333,-10.22751],[-37.15035,-10.16294],[-37.15035,-10.16339],[-37.16415,-10.33983],[-37.12513,-10.37485],[-37.01805,-10.3321],[-37.00948,-10.30209],[-36.93381,-10.27617],[-36.92905,-10.22297],[-36.94333,-10.22751]]]},"properties":{"cod_ibge":"280020","name":"Aquidabã","uf":"SE"}},
{"type":"Feature","geometry":{"type":"Polygon","coordinates":[[[-37.01138,-10.67589],[-36.91668,-10.68544],[-36.90002,-10.69271],[-36.92334,-10.6768],[-37.01138,-10.64133],[-37.01138,-10.67589]]]},"properties":{"cod_ibge":"280150","name":"Carmópolis","uf":"SE"}},
{"type":"Feature","geometry":{"type":"Polygon","coordinates":[[[-37.60246,-11.38892],[-37.40877,-11.42393],[-37.40591,-11.30206],[-37.52346,-11.29934],[-37.66338,-11.28979],[-37.69193,-11.30798],[-37.68289,-11.31616],[-37.67528,-11.32344],[-37.66481,-11.33253],[-37.65624,-11.34026],[-37.60246,-11.38892]]]},"properties":{"cod_ibge":"280630","name":"Santa Luzia do Itanhy","uf":"SE"}},
{"type":"Feature","geometry":{"type":"Polygon","coordinates":[[[-37.65624,-11.34026],[-37.66481,-11.33253],[-37.67528,-11.32344],[-37.68289,-11.31616],[-37.69193,-11.30798],[-37.73001,-11.40165],[-37.65291,-11.4826],[-37.60246,-11.38892],[-37.65624,-11.34026]]]},"properties":{"cod_ibge":"280760","name":"Umbaúba","uf":"SE"}},
{"type":"Feature","geometry":{"type":"Polygon","coordinates":[[[-37.63244,-11.51807],[-37.52013,-11.54944],[-37.36784,-11.45849],[-37.40877,-11.42393],[-37.60246,-11.38892],[-37.65291,-11.4826],[-37.63244,-11.51807]]]},"properties":{"cod_ibge":"280280","name":"Indiaroba","uf":"SE"}},
{"type":"Feature","geometry":{"type":"Polygon","coordinates":[[[-37.20746,-10.60768],[-37.13845,-10.47034],[-37.11751,-10.40941],[-37.23934,-10.298],[-37.34119,-10.3844],[-37.35975,-10.48353],[-37.32072,-10.54037],[-37.24791,-10.59449],[-37.20413,-10.62405],[-37.20746,-10.60768]]]},"properties":{"cod_ibge":"280460","name":"Nossa Senhora das Dores","uf":"SE"}},
{"type":"Feature","geometry":{"type":"Polygon","coordinates":[[[-37.1613,-10.75137],[-37.19889,-10.67725],[-37.2303,-10.67452],[-37.28122,-10.72045],[-37.24458,-10.7782],[-37.1613,-10.75137]]]},"properties":{"cod_ibge":"280590","name":"Riachuelo","uf":"SE"}},
{"type":"Feature","geometry":{"type":"Polygon","coordinates":[[[-37.01138,-10.64133],[-36.92334,-10.6768],[-36.78152,-10.57493],[-36.90288,-10.40259],[-36.93524,-10.44943],[-37.01138,-10.64133]]]},"properties":{"cod_ibge":"280330","name":"Japaratuba","uf":"SE"}},
{"type":"Feature","geometry":{"type":"Polygon","coordinates":[[[-37.20413,-10.62405],[-37.19889,-10.67725],[-37.1613,-10.75137],[-37.09086,-10.65497],[-37.09181,-10.64087],[-37.20746,-10.60768],[-37.20413,-10.62405]]]},"properties":{"cod_ibge":"280200","name":"Divina Pastora","uf":"SE"}},
{"type":"Feature","geometry":{"type":"Polygon","coordinates":[[[-36.90288,-10.32437],[-36.84434,-10.26207],[-36.86766,-10.22842],[-36.92905,-10.22297],[-36.93381,-10.27617],[-36.90288,-10.32437]]]},"properties":{"cod_ibge":"280160","name":"Cedro de São João","uf":"SE"}},
{"type":"Feature","geometry":{"type":"Polygon","coordinates":[[[-37.59675,-11.20339],[-37.70478,-11.19202],[-37.66957,-11.23931],[-37.59675,-11.20339]]]},"properties":{"cod_ibge":"280510","name":"Pedrinhas","uf":"SE"}},
{"type":"Feature","geometry":{"type":"Polygon","coordinates":[[[-37.15463,-11.16155],[-37.0347,-10.95737],[-37.03994,-10.88416],[-37.03375,-10.87006],[-37.10228,-10.91735],[-37.16653,-11.10516],[-37.15463,-11.16155]]]},"properties":{"cod_ibge":"280030","name":"Aracaju","uf":"SE"}},
{"type":"Feature","geometry":{"type":"Polygon","coordinates":[[[-37.39449,-10.58221],[-37.47444,-10.56629],[-37.5306,-10.64587],[-37.50062,-10.68862],[-37.4021,-10.82504],[-37.33643,-10.72182],[-37.32881,-10.6536],[-37.39449,-10.58221]]]},"properties":{"cod_ibge":"280290","name":"Itabaiana","uf":"SE"}},
{"type":"Feature","geometry":{"type":"Polygon","coordinates":[[[-36.64636,-10.25753],[-36.68348,-10.27071],[-36.58735,-10.30118],[-36.64636,-10.25753]]]},"properties":{"cod_ibge":"280640","name":"Santana do São Francisco","uf":"SE"}},
{"type":"Feature","geometry":{"type":"Polygon","coordinates":[[[-37.06659,-10.13656],[-36.94856,-10.06972],[-36.95332,-10.02288],[-37.06183,-10.06153],[-37.06659,-10.13656]]]},"properties":{"cod_ibge":"280470","name":"Nossa Senhora de Lourdes","uf":"SE"}},
{"type":"Feature","geometry":{"type":"Polygon","coordinates":[[[-37.52346,-11.29934],[-37.40591,-11.30206],[-37.40877,-11.42393],[-37.36784,-11.45849],[-37.34119,-11.44212],[-37.26028,-11.28979],[-37.34975,-11.19702],[-37.38878,-11.05287],[-37.54631,-11.16564],[-37.52346,-11.29934]]]},"properties":{"cod_ibge":"280210","name":"Estância","uf":"SE"}},
{"type":"Feature","geometry":{"type":"Polygon","coordinates":[[[-37.01805,-10.3321],[-36.93524,-10.44943],[-36.90288,-10.40259],[-36.91573,-10.39349],[-37.00948,-10.30209],[-37.01805,-10.3321]]]},"properties":{"cod_ibge":"280430","name":"Muribeca","uf":"SE"}},
{"type":"Feature","geometry":{"type":"Polygon","coordinates":[[[-36.75772,-10.5904],[-36.70537,-10.40077],[-36.79532,-10.28299],[-36.81864,-10.298],[-36.90288,-10.40259],[-36.78152,-10.57493],[-36.75772,-10.5904]]]},"properties":{"cod_ibge":"280340","name":"Japoatã","uf":"SE"}},
{"type":"Feature","geometry":{"type":"Polygon","coordinates":[[[-37.93607,-11.26978],[-37.76142,-11.40574],[-37.73001,-11.40165],[-37.69193,-11.30798],[-37.66338,-11.28979],[-37.66957,-11.23931],[-37.70478,-11.19202],[-37.70669,-11.17428],[-37.7933,-11.1329],[-37.93607,-11.26978]]]},"properties":{"cod_ibge":"280300","name":"Itabaianinha","uf":"SE"}},
{"type":"Feature","geometry":{"type":"Polygon","coordinates":[[[-37.13845,-10.47034],[-37.07182,-10.61495],[-37.01138,-10.64133],[-36.93524,-10.44943],[-37.01805,-10.3321],[-37.12513,-10.37485],[-37.11751,-10.40941],[-37.13845,-10.47034]]]},"properties":{"cod_ibge":"280130","name":"Capela","uf":"SE"}},
{"type":"Feature","geometry":{"type":"Polygon","coordinates":[[[-37.07182,-10.61495],[-37.09181,-10.64087],[-37.09086,-10.65497],[-37.06849,-10.74774],[-36.94999,-10.71272],[-37.01138,-10.67589],[-37.01138,-10.64133],[-37.07182,-10.61495]]]},"properties":{"cod_ibge":"280610","name":"Rosário do Catete","uf":"SE"}},
{"type":"Feature","geometry":{"type":"Polygon","coordinates":[[[-37.32881,-10.6536],[-37.33643,-10.72182],[-37.28122,-10.72045],[-37.2303,-10.67452],[-37.29645,-10.60085],[-37.32881,-10.6536]]]},"properties":{"cod_ibge":"280390","name":"Malhador","uf":"SE"}},
{"type":"Feature","geometry":{"type":"Polygon","coordinates":[[[-38.18069,-10.94282],[-38.10169,-11.01649],[-37.99414,-11.34345],[-37.98224,-11.34799],[-37.93607,-11.26978],[-37.7933,-11.1329],[-37.94607,-10.99557],[-37.97272,-10.88052],[-37.97034,-10.82504],[-38.08646,-10.82186],[-38.18069,-10.94282]]]},"properties":{"cod_ibge":"280740","name":"Tobias Barreto","uf":"SE"}},
{"type":"Feature","geometry":{"type":"Polygon","coordinates":[[[-37.16415,-10.33983],[-37.15035,-10.16339],[-37.22031,-10.13565],[-37.31501,-10.1543],[-37.33215,-10.21114],[-37.26124,-10.23843],[-37.16415,-10.33983]]]},"properties":{"cod_ibge":"280260","name":"Graccho Cardoso","uf":"SE"}},
{"type":"Feature","geometry":{"type":"Polygon","coordinates":[[[-36.70537,-10.40077],[-36.6002,-10.49672],[-36.56213,-10.41577],[-36.58735,-10.30118],[-36.68348,-10.27071],[-36.70157,-10.27026],[-36.79532,-10.28299],[-36.70537,-10.40077]]]},"properties":{"cod_ibge":"280440","name":"Neópolis","uf":"SE"}},
{"type":"Feature","geometry":{"type":"Polygon","coordinates":[[[-36.86766,-10.22842],[-36.84434,-10.26207],[-36.81864,-10.298],[-36.79532,-10.28299],[-36.70157,-10.27026],[-36.7206,-10.2648],[-36.84482,-10.18886],[-36.86766,-10.22842]]]},"properties":{"cod_ibge":"280570","name":"Propriá","uf":"SE"}},
{"type":"Feature","geometry":{"type":"Polygon","coordinates":[[[-37.4102,-10.41668],[-37.40353,-10.29254],[-37.59675,-10.2507],[-37.57534,-10.37076],[-37.54773,-10.4617],[-37.4102,-10.41668]]]},"properties":{"cod_ibge":"280445","name":"Nossa Senhora Aparecida","uf":"SE"}},
{"type":"Feature","geometry":{"type":"Polygon","coordinates":[[[-37.06183,-10.06153],[-37.17081,-10.04971],[-37.22031,-10.13565],[-37.15035,-10.16339],[-37.15035,-10.16294],[-37.06659,-10.13656],[-37.06183,-10.06153]]]},"properties":{"cod_ibge":"280310","name":"Itabi","uf":"SE"}},
{"type":"Feature","geometry":{"type":"Polygon","coordinates":[[[-37.76855,-10.28936],[-37.84756,-10.44351],[-37.81519,-10.51718],[-37.72287,-10.50991],[-37.57534,-10.37076],[-37.59675,-10.2507],[-37.7657,-10.19614],[-37.76855,-10.28936]]]},"properties":{"cod_ibge":"280140","name":"Carira","uf":"SE"}},
{"type":"Feature","geometry":{"type":"Polygon","coordinates":[[[-37.76142,-11.40574],[-37.93607,-11.26978],[-37.98224,-11.34799],[-37.83328,-11.48214],[-37.76142,-11.40574]]]},"properties":{"cod_ibge":"280750","name":"Tomar do Geru","uf":"SE"}},
{"type":"Feature","geometry":{"type":"Polygon","coordinates":[[[-36.91811,-10.12474],[-36.94333,-10.22751],[-36.88241,-10.14748],[-36.91811,-10.12474]]]},"properties":{"cod_ibge":"280010","name":"Amparo do São Francisco","uf":"SE"}}
]}