{"type":"FeatureCollection", "features": [
{"type":"Feature","geometry":{"type":"Polygon","coordinates":[[[-60.60648,3.44835],[-60.74306,3.49837],[-61.00053,3.44789],[-61.00053,2.68165],[-60.91963,2.63163],[-60.94437,2.52113],[-60.83682,2.43746],[-60.82444,2.54705],[-60.64931,2.8349],[-60.56841,2.88492],[-60.37423,3.17096],[-60.40898,3.25508],[-60.32141,3.36922],[-60.28572,3.44971],[-60.4104,3.58022],[-60.49226,3.58113],[-60.60648,3.44835]]]},"properties":{"cod_ibge":"140010","name":"Boa Vista","uf":"RR"}},
{"type":"Feature","geometry":{"type":"Polygon","coordinates":[[[-61.02195,1.99954],[-60.76067,1.95771],[-60.58982,1.8513],[-60.52795,1.72306],[-60.38994,1.73807],[-60.23003,1.88359],[-60.15674,1.99954],[-60.27049,2.07185],[-60.1577,2.15916],[-60.22194,2.59343],[-60.31237,2.64664],[-60.3571,2.79261],[-60.56841,2.88492],[-60.64931,2.8349],[-60.82444,2.54705],[-60.83682,2.43746],[-60.84586,2.31331],[-60.93819,2.21509],[-61.05288,2.06275],[-61.02195,1.99954]]]},"properties":{"cod_ibge":"140017","name":"Cantá","uf":"RR"}},
{"type":"Feature","geometry":{"type":"Polygon","coordinates":[[[-60.15674,1.99954],[-59.73461,1.99954],[-59.71986,2.23737],[-59.90927,2.3888],[-59.89785,2.48202],[-59.9916,2.68438],[-59.98399,2.92858],[-59.90642,3.21416],[-59.80505,3.35558],[-59.80552,3.51065],[-59.87263,3.56385],[-60.05252,3.52702],[-60.1972,3.40697],[-60.32141,3.36922],[-60.40898,3.25508],[-60.37423,3.17096],[-60.56841,2.88492],[-60.3571,2.79261],[-60.31237,2.64664],[-60.22194,2.59343],[-60.1577,2.15916],[-60.27049,2.07185],[-60.15674,1.99954]]]},"properties":{"cod_ibge":"140015","name":"Bonfim","uf":"RR"}},
{"type":"Feature","geometry":{"type":"Polygon","coordinates":[[[-62.73617,1.5298],[-62.64004,1.43839],[-62.52106,1.0837],[-62.44254,0.95864],[-62.463,0.77675],[-62.53819,0.67534],[-62.53296,0.50891],[-62.44634,0.3793],[-62.45253,0.20741],[-62.40922,0.07508],[-62.32594,-0.00313],[-62.1884,-0.32236],[-62.28025,-0.4506],[-62.28691,-0.63249],[-62.50107,-0.78165],[-62.37591,-0.83667],[-62.31261,-0.93035],[-62.17174,-1.00583],[-62.01755,-1.1418],[-61.89667,-1.39555],[-61.84003,-1.401],[-61.88096,-1.1177],[-61.86764,-0.7239],[-61.81005,-0.60839],[-61.84479,-0.38875],[-61.79102,-0.10636],[-61.75865,0.30973],[-61.68394,0.48981],[-61.45407,0.78539],[-61.31749,0.99502],[-61.12807,0.94364],[-61.0129,1.09779],[-60.82064,1.06414],[-60.71403,0.86724],[-60.56127,0.93909],[-60.39993,1.13144],[-60.26716,1.12826],[-60.09059,1.10052],[-59.98256,1.13554],[-59.77935,1.27605],[-59.8179,1.48978],[-59.7646,1.60619],[-59.63039,1.62393],[-59.41385,1.55162],[-59.53283,1.71624],[-59.69131,1.75671],[-59.75127,1.90678],[-59.73461,1.99954],[-60.15674,1.99954],[-60.23003,1.88359],[-60.38994,1.73807],[-60.52795,1.72306],[-60.58982,1.8513],[-60.76067,1.95771],[-61.02195,1.99954],[-61.20041,1.9718],[-61.47882,2.01319],[-61.61493,1.93861],[-61.95854,1.91405],[-62.28549,1.75853],[-62.67097,1.53525],[-62.73617,1.5298]]]},"properties":{"cod_ibge":"140020","name":"Caracaraí","uf":"RR"}},
{"type":"Feature","geometry":{"type":"Polygon","coordinates":[[[-59.43336,0.26335],[-59.19208,0.26335],[-58.89559,0.26335],[-58.89559,1.22967],[-58.92414,1.29015],[-59.26917,1.39974],[-59.41385,1.55162],[-59.63039,1.62393],[-59.7646,1.60619],[-59.8179,1.48978],[-59.77935,1.27605],[-59.7389,1.07597],[-59.81457,0.6185],[-59.74366,0.5421],[-59.59422,0.56347],[-59.4643,0.42796],[-59.43336,0.26335]]]},"properties":{"cod_ibge":"140023","name":"Caroebe","uf":"RR"}},
{"type":"Feature","geometry":{"type":"Polygon","coordinates":[[[-60.93819,2.21509],[-61.05098,2.29785],[-61.19423,2.25511],[-61.3389,2.26375],[-61.41172,2.40927],[-61.50785,2.45019],[-61.72106,2.437],[-61.93141,2.26056],[-62.34021,2.19281],[-62.42302,2.11005],[-62.5834,2.15188],[-62.61243,2.24238],[-62.82183,2.27011],[-63.07311,2.48339],[-63.03266,2.65892],[-62.91273,2.76169],[-63.01648,2.80171],[-63.24397,2.81808],[-63.46098,2.76123],[-63.5238,2.57252],[-63.6699,2.59753],[-63.96021,2.47293],[-63.8498,2.49385],[-63.74891,2.4411],[-63.59233,2.4561],[-63.37294,2.42609],[-63.37151,2.21145],[-63.27633,2.15461],[-63.1464,2.17325],[-63.02362,2.01455],[-62.83849,2.01637],[-62.72951,1.96044],[-62.72856,1.69987],[-62.80518,1.59119],[-62.73617,1.5298],[-62.67097,1.53525],[-62.28549,1.75853],[-61.95854,1.91405],[-61.61493,1.93861],[-61.47882,2.01319],[-61.20041,1.9718],[-61.02195,1.99954],[-61.05288,2.06275],[-60.93819,2.21509]]]},"properties":{"cod_ibge":"140028","name":"Iracema","uf":"RR"}},
{"type":"Feature","geometry":{"type":"Polygon","coordinates":[[[-64.13058,3.47609],[-64.00066,3.43334],[-63.84789,3.45426],[-63.74082,3.56976],[-63.71321,3.698],[-63.56996,3.72801],[-63.39483,3.61569],[-63.15307,3.60569],[-63.17448,3.52338],[-63.0003,3.34421],[-62.82136,3.24644],[-62.63623,3.24872],[-62.45681,3.18596],[-62.44729,3.1323],[-62.23266,3.16004],[-62.12558,3.23371],[-61.82147,3.32284],[-61.5978,3.31147],[-61.31653,3.35694],[-61.21897,3.44971],[-61.00053,3.44789],[-60.74306,3.49837],[-60.60648,3.44835],[-60.63218,3.52975],[-60.85014,3.63206],[-60.87775,3.84352],[-60.95675,4.02177],[-61.14092,4.02086],[-61.23991,4.08225],[-61.24753,4.2114],[-61.34842,4.32554],[-61.50833,4.3219],[-61.55782,4.25187],[-61.75342,4.2546],[-61.92475,4.15501],[-61.99042,4.17775],[-62.11797,4.0868],[-62.42112,4.18321],[-62.54105,4.12636],[-62.56199,4.03769],[-62.73379,4.03951],[-62.83944,3.73529],[-62.95081,3.61114],[-63.07311,3.68663],[-63.09596,3.79077],[-63.20589,3.81487],[-63.33391,3.95265],[-63.51333,3.84806],[-63.59566,3.90491],[-63.8498,3.94856],[-63.99638,3.904],[-64.13201,4.10272],[-64.29477,4.16138],[-64.50179,4.1059],[-64.63314,4.11818],[-64.77687,4.28189],[-64.82589,4.23186],[-64.73451,4.02268],[-64.59507,3.96175],[-64.51179,3.83851],[-64.24242,3.65889],[-64.13058,3.47609]]]},"properties":{"cod_ibge":"140002","name":"Amajari","uf":"RR"}},
{"type":"Feature","geometry":{"type":"Polygon","coordinates":[[[-61.00053,3.44789],[-61.21897,3.44971],[-61.31653,3.35694],[-61.5978,3.31147],[-61.82147,3.32284],[-62.12558,3.23371],[-62.23266,3.16004],[-62.44729,3.1323],[-62.45681,3.18596],[-62.63623,3.24872],[-62.82136,3.24644],[-63.0003,3.34421],[-63.17448,3.52338],[-63.15307,3.60569],[-63.39483,3.61569],[-63.56996,3.72801],[-63.71321,3.698],[-63.74082,3.56976],[-63.84789,3.45426],[-64.00066,3.43334],[-64.13058,3.47609],[-64.12202,3.27827],[-64.21958,3.09501],[-64.14486,3.02589],[-64.01541,2.81216],[-63.98638,2.64891],[-64.0492,2.56706],[-63.96021,2.47293],[-63.6699,2.59753],[-63.5238,2.57252],[-63.46098,2.76123],[-63.24397,2.81808],[-63.01648,2.80171],[-62.91273,2.76169],[-62.66431,2.70303],[-62.40732,2.78261],[-62.00993,2.73395],[-61.85955,2.68393],[-61.77579,2.72031],[-61.62778,2.93358],[-61.40601,2.86128],[-61.29274,2.67301],[-61.00053,2.68165],[-61.00053,3.44789]]]},"properties":{"cod_ibge":"140005","name":"Alto Alegre","uf":"RR"}},
{"type":"Feature","geometry":{"type":"Polygon","coordinates":[[[-60.03777,0.26335],[-59.43336,0.26335],[-59.4643,0.42796],[-59.59422,0.56347],[-59.74366,0.5421],[-59.81457,0.6185],[-59.7389,1.07597],[-59.77935,1.27605],[-59.98256,1.13554],[-59.98113,0.99957],[-60.05014,0.89953],[-60.06918,0.61213],[-60.15294,0.56347],[-60.03777,0.26335]]]},"properties":{"cod_ibge":"140050","name":"São João da Baliza","uf":"RR"}},
{"type":"Feature","geometry":{"type":"Polygon","coordinates":[[[-60.26716,1.12826],[-60.30666,1.04095],[-60.20148,0.87952],[-60.29571,0.77584],[-60.15294,0.56347],[-60.06918,0.61213],[-60.05014,0.89953],[-59.98113,0.99957],[-59.98256,1.13554],[-60.09059,1.10052],[-60.26716,1.12826]]]},"properties":{"cod_ibge":"140060","name":"São Luiz","uf":"RR"}},
{"type":"Feature","geometry":{"type":"Polygon","coordinates":[[[-59.70891,4.16183],[-59.73176,4.28643],[-59.67941,4.3692],[-59.86263,4.45241],[-60.16103,4.51744],[-60.02539,4.74299],[-59.97209,5.07495],[-60.13009,5.24912],[-60.54318,5.18727],[-60.68072,5.23275],[-60.58363,4.9549],[-60.65217,4.88442],[-60.59886,4.3892],[-60.53985,4.21049],[-60.32998,4.16047],[-60.20148,4.18139],[-60.04491,4.30371],[-59.70891,4.16183]]]},"properties":{"cod_ibge":"140070","name":"Uiramutã","uf":"RR"}},
{"type":"Feature","geometry":{"type":"Polygon","coordinates":[[[-61.00053,2.68165],[-61.29274,2.67301],[-61.40601,2.86128],[-61.62778,2.93358],[-61.77579,2.72031],[-61.85955,2.68393],[-62.00993,2.73395],[-62.40732,2.78261],[-62.66431,2.70303],[-62.91273,2.76169],[-63.03266,2.65892],[-63.07311,2.48339],[-62.82183,2.27011],[-62.61243,2.24238],[-62.5834,2.15188],[-62.42302,2.11005],[-62.34021,2.19281],[-61.93141,2.26056],[-61.72106,2.437],[-61.50785,2.45019],[-61.41172,2.40927],[-61.3389,2.26375],[-61.19423,2.25511],[-61.05098,2.29785],[-60.93819,2.21509],[-60.84586,2.31331],[-60.83682,2.43746],[-60.94437,2.52113],[-60.91963,2.63163],[-61.00053,2.68165]]]},"properties":{"cod_ibge":"140030","name":"Mucajaí","uf":"RR"}},
{"type":"Feature","geometry":{"type":"Polygon","coordinates":[[[-59.70891,4.16183],[-60.04491,4.30371],[-60.20148,4.18139],[-60.32998,4.16047],[-60.53985,4.21049],[-60.43943,4.03587],[-60.49321,3.9381],[-60.48703,3.74302],[-60.4104,3.58022],[-60.28572,3.44971],[-60.32141,3.36922],[-60.1972,3.40697],[-60.05252,3.52702],[-59.87263,3.56385],[-59.66846,3.703],[-59.66561,3.78167],[-59.51617,3.94629],[-59.70891,4.16183]]]},"properties":{"cod_ibge":"140040","name":"Normandia","uf":"RR"}},
{"type":"Feature","geometry":{"type":"Polygon","coordinates":[[[-61.50833,4.3219],[-61.34842,4.32554],[-61.24753,4.2114],[-61.23991,4.08225],[-61.14092,4.02086],[-60.95675,4.02177],[-60.87775,3.84352],[-60.85014,3.63206],[-60.63218,3.52975],[-60.60648,3.44835],[-60.49226,3.58113],[-60.4104,3.58022],[-60.48703,3.74302],[-60.49321,3.9381],[-60.43943,4.03587],[-60.53985,4.21049],[-60.59886,4.3892],[-60.65217,4.88442],[-60.7207,4.77755],[-60.89964,4.71798],[-60.99768,4.51562],[-61.32796,4.51608],[-61.34461,4.4174],[-61.46216,4.43468],[-61.50833,4.3219]]]},"properties":{"cod_ibge":"140045","name":"Pacaraima","uf":"RR"}},
{"type":"Feature","geometry":{"type":"Polygon","coordinates":[[[-61.84003,-1.401],[-61.60494,-1.4483],[-61.47454,-1.57881],[-61.62683,-1.29414],[-61.54307,-1.06222],[-61.58066,-0.9781],[-61.53545,-0.75436],[-61.45836,-0.65477],[-61.07906,-0.50607],[-60.92772,-0.60566],[-60.80636,-0.74027],[-60.7621,-0.84849],[-60.66359,-0.88124],[-60.49797,-0.78074],[-60.34663,-0.73981],[-60.30523,-0.6666],[-60.39993,-0.51744],[-60.22765,-0.12182],[-60.03777,0.26335],[-60.15294,0.56347],[-60.29571,0.77584],[-60.20148,0.87952],[-60.30666,1.04095],[-60.26716,1.12826],[-60.39993,1.13144],[-60.56127,0.93909],[-60.71403,0.86724],[-60.82064,1.06414],[-61.0129,1.09779],[-61.12807,0.94364],[-61.31749,0.99502],[-61.45407,0.78539],[-61.68394,0.48981],[-61.75865,0.30973],[-61.79102,-0.10636],[-61.84479,-0.38875],[-61.81005,-0.60839],[-61.86764,-0.7239],[-61.88096,-1.1177],[-61.84003,-1.401]]]},"properties":{"cod_ibge":"140047","name":"Rorainópolis","uf":"RR"}}
]}