{"type":"FeatureCollection", "features": [
{"type":"Feature","geometry":{"type":"Polygon","coordinates":[[[-55.83692,-21.48552],[-55.66369,-21.40048],[-55.6951,-21.34182],[-55.618,-21.13764],[-55.48617,-21.02259],[-55.68653,-20.918],[-55.74031,-20.76339],[-55.84548,-20.73338],[-55.93829,-20.8216],[-56.08487,-20.76566],[-56.2324,-21.10445],[-56.19956,-21.28134],[-56.01634,-21.36001],[-55.83692,-21.48552]]]},"properties":{"cod_ibge":"500580","name":"Nioaque","uf":"MS"}},
{"type":"Feature","geometry":{"type":"Polygon","coordinates":[[[-57.75245,-17.56429],[-57.72152,-17.82895],[-57.60016,-18.04268],[-57.55828,-18.24049],[-57.76673,-18.89941],[-57.78339,-19.03492],[-58.13128,-19.75932],[-57.85906,-19.97169],[-58.14841,-20.15176],[-58.07321,-20.38777],[-57.9985,-20.45553],[-58.01325,-20.60832],[-57.91378,-20.67062],[-57.83383,-20.93619],[-57.74531,-20.7984],[-57.5402,-20.62333],[-57.27131,-20.17905],[-57.13044,-20.27318],[-56.9672,-20.2227],[-56.99814,-20.18905],[-57.06762,-20.01534],[-56.99528,-19.62108],[-56.85156,-19.60562],[-56.61884,-19.51376],[-56.58029,-19.2773],[-55.97303,-19.27912],[-55.9716,-19.46602],[-55.81979,-19.32732],[-55.70081,-19.08631],[-55.52805,-18.94034],[-55.39908,-18.582],[-55.30628,-18.24777],[-55.13876,-17.64796],[-55.29962,-17.5411],[-55.5152,-17.4838],[-55.60277,-17.36739],[-55.60372,-17.36648],[-56.01205,-17.23688],[-56.04394,-17.1714],[-56.25143,-17.21914],[-56.45084,-17.32646],[-56.72306,-17.30827],[-56.87583,-17.53291],[-57.10141,-17.77211],[-57.48547,-17.86215],[-57.6844,-17.71663],[-57.69249,-17.62705],[-57.75245,-17.56429]],[[-57.61587,-19.00218],[-57.46595,-19.02765],[-57.50783,-19.21],[-57.66726,-19.16725],[-57.61587,-19.00218]]]},"properties":{"cod_ibge":"500320","name":"Corumbá","uf":"MS"}},
{"type":"Feature","geometry":{"type":"Polygon","coordinates":[[[-57.83383,-20.93619],[-57.86619,-21.03942],[-57.85477,-21.31681],[-57.96185,-21.56237],[-57.88333,-21.68924],[-57.95995,-21.85295],[-57.99183,-22.09032],[-57.80528,-22.14989],[-57.69106,-22.0885],[-57.51688,-22.17354],[-57.37886,-21.96936],[-57.19754,-21.88796],[-57.16042,-21.74745],[-56.9415,-21.59375],[-56.78921,-21.44732],[-56.79635,-21.2295],[-56.85869,-21.11354],[-56.85965,-20.88617],[-56.87345,-20.58013],[-56.94198,-20.41506],[-56.9672,-20.2227],[-57.13044,-20.27318],[-57.27131,-20.17905],[-57.5402,-20.62333],[-57.74531,-20.7984],[-57.83383,-20.93619]]]},"properties":{"cod_ibge":"500690","name":"Porto Murtinho","uf":"MS"}},
{"type":"Feature","geometry":{"type":"Polygon","coordinates":[[[-53.58063,-18.43739],[-53.37218,-18.68295],[-53.34553,-18.77527],[-53.48973,-18.84984],[-53.38265,-18.94352],[-53.29176,-18.89031],[-53.16659,-18.94397],[-53.04571,-18.798],[-53.04333,-18.72343],[-52.92102,-18.61338],[-52.96243,-18.54062],[-52.83869,-18.42375],[-52.82061,-18.31052],[-53.09949,-18.3137],[-53.14327,-18.08406],[-53.07236,-18.03404],[-53.23798,-18.00766],[-53.22037,-18.12681],[-53.43548,-18.38237],[-53.58063,-18.43739]]]},"properties":{"cod_ibge":"500325","name":"Costa Rica","uf":"MS"}},
{"type":"Feature","geometry":{"type":"Polygon","coordinates":[[[-54.73424,-19.77251],[-54.63477,-19.87665],[-54.49057,-19.86755],[-54.40919,-20.03217],[-54.22359,-20.04308],[-54.09985,-20.11811],[-53.89664,-19.98669],[-53.98801,-19.72249],[-54.02132,-19.63336],[-54.3992,-19.59607],[-54.43061,-19.55333],[-54.55101,-19.5315],[-54.72234,-19.59698],[-54.73424,-19.77251]]]},"properties":{"cod_ibge":"500150","name":"Bandeirantes","uf":"MS"}},
{"type":"Feature","geometry":{"type":"Polygon","coordinates":[[[-56.81443,-21.56692],[-56.63216,-21.56009],[-56.36422,-21.62649],[-56.25096,-21.78155],[-56.08677,-21.89433],[-55.89403,-21.81157],[-55.98112,-21.78019],[-56.12437,-21.6274],[-56.11866,-21.47688],[-56.1967,-21.43186],[-56.22716,-21.29089],[-56.30807,-21.41776],[-56.78921,-21.44732],[-56.9415,-21.59375],[-56.81443,-21.56692]]]},"properties":{"cod_ibge":"500500","name":"Jardim","uf":"MS"}},
{"type":"Feature","geometry":{"type":"Polygon","coordinates":[[[-54.80515,-19.20136],[-54.69093,-19.02401],[-54.55054,-18.95352],[-54.52055,-18.84666],[-54.57338,-18.71251],[-54.72615,-18.58928],[-54.7566,-18.49105],[-54.93412,-18.43739],[-55.10973,-18.24595],[-55.30628,-18.24777],[-55.39908,-18.582],[-55.46476,-19.21864],[-55.24965,-19.25183],[-55.10164,-19.33505],[-54.99361,-19.23592],[-54.80515,-19.20136]]]},"properties":{"cod_ibge":"500740","name":"Rio Verde de Mato Grosso","uf":"MS"}},
{"type":"Feature","geometry":{"type":"Polygon","coordinates":[[[-53.42453,-19.78479],[-53.17992,-20.05945],[-53.06808,-20.30046],[-52.86867,-20.45417],[-52.81727,-20.54148],[-52.48271,-20.82523],[-52.36421,-20.88435],[-52.35517,-20.82842],[-52.46272,-20.61151],[-52.61263,-20.43143],[-52.73589,-20.25317],[-52.71305,-19.81162],[-52.61311,-19.79025],[-52.54648,-19.63609],[-52.47605,-19.61108],[-52.51555,-19.5506],[-52.57599,-19.41372],[-52.71162,-19.55242],[-52.86058,-19.53741],[-53.01954,-19.43055],[-53.40312,-19.5174],[-53.48545,-19.58698],[-53.42453,-19.78479]]]},"properties":{"cod_ibge":"500020","name":"Água Clara","uf":"MS"}},
{"type":"Feature","geometry":{"type":"Polygon","coordinates":[[[-57.04953,-22.2322],[-57.03764,-22.14898],[-56.86393,-21.98801],[-56.76161,-21.68197],[-56.81443,-21.56692],[-56.9415,-21.59375],[-57.16042,-21.74745],[-57.19754,-21.88796],[-57.37886,-21.96936],[-57.51688,-22.17354],[-57.32556,-22.23902],[-57.04953,-22.2322]]]},"properties":{"cod_ibge":"500280","name":"Caracol","uf":"MS"}},
{"type":"Feature","geometry":{"type":"Polygon","coordinates":[[[-56.102,-20.41915],[-55.58707,-20.50964],[-55.45,-20.44871],[-55.48665,-20.14949],[-55.3453,-20.15995],[-55.24584,-20.22634],[-55.08355,-20.15404],[-55.13971,-19.97169],[-55.31294,-19.98806],[-55.34673,-19.76069],[-55.24108,-19.52149],[-55.10164,-19.33505],[-55.24965,-19.25183],[-55.46476,-19.21864],[-55.39908,-18.582],[-55.52805,-18.94034],[-55.70081,-19.08631],[-55.81979,-19.32732],[-55.9716,-19.46602],[-55.97303,-19.27912],[-56.58029,-19.2773],[-56.61884,-19.51376],[-56.85156,-19.60562],[-56.99528,-19.62108],[-56.78493,-19.79661],[-56.48653,-19.82071],[-56.26143,-19.9876],[-56.22764,-20.2891],[-56.102,-20.41915]]]},"properties":{"cod_ibge":"500110","name":"Aquidauana","uf":"MS"}},
{"type":"Feature","geometry":{"type":"Polygon","coordinates":[[[-56.08487,-20.76566],[-55.93829,-20.8216],[-55.84548,-20.73338],[-55.74031,-20.76339],[-55.68653,-20.918],[-55.48617,-21.02259],[-55.30771,-21.03942],[-55.41859,-20.83842],[-55.52615,-20.7402],[-55.58707,-20.50964],[-56.102,-20.41915],[-56.15149,-20.61833],[-56.08487,-20.76566]]]},"properties":{"cod_ibge":"500070","name":"Anastácio","uf":"MS"}},
{"type":"Feature","geometry":{"type":"Polygon","coordinates":[[[-54.39015,-23.81379],[-54.1541,-23.92611],[-54.08414,-23.86517],[-54.08367,-23.8056],[-54.05131,-23.68737],[-54.27498,-23.56414],[-54.33019,-23.55413],[-54.41633,-23.78832],[-54.39015,-23.81379]]]},"properties":{"cod_ibge":"500375","name":"Eldorado","uf":"MS"}},
{"type":"Feature","geometry":{"type":"Polygon","coordinates":[[[-55.76648,-22.38408],[-55.72365,-22.55188],[-55.61372,-22.69285],[-55.35149,-22.70786],[-55.33912,-22.50868],[-54.98552,-22.35725],[-55.14923,-22.22356],[-55.35673,-22.2031],[-55.48903,-22.12306],[-55.52329,-21.98437],[-55.41193,-21.89478],[-55.56946,-21.79656],[-55.73269,-21.78019],[-55.8293,-21.66332],[-55.95256,-21.68833],[-55.89403,-21.81157],[-56.08677,-21.89433],[-56.01491,-22.06122],[-55.87737,-22.14944],[-55.69177,-22.1317],[-55.76648,-22.38408]]]},"properties":{"cod_ibge":"500660","name":"Ponta Porã","uf":"MS"}},
{"type":"Feature","geometry":{"type":"Polygon","coordinates":[[[-53.6801,-17.25416],[-53.76291,-17.24643],[-54.08462,-17.61886],[-54.30259,-17.66161],[-54.50247,-17.48062],[-54.74709,-17.51973],[-54.86083,-17.62386],[-55.13686,-17.65024],[-55.15732,-17.74391],[-55.07213,-17.8717],[-54.96458,-17.89307],[-54.84512,-18.00266],[-54.68903,-17.9149],[-54.7566,-17.73209],[-54.63668,-17.69935],[-54.48629,-17.7521],[-54.14078,-17.74664],[-54.07653,-17.65115],[-53.7572,-17.67298],[-53.70389,-17.66115],[-53.6801,-17.25416]]]},"properties":{"cod_ibge":"500793","name":"Sonora","uf":"MS"}},
{"type":"Feature","geometry":{"type":"Polygon","coordinates":[[[-54.81609,-20.74065],[-54.97552,-20.77612],[-55.20539,-20.58513],[-55.22109,-20.692],[-55.15161,-20.8025],[-55.25393,-21.01577],[-55.3196,-21.24223],[-55.25678,-21.40867],[-55.02787,-21.58602],[-55.0136,-21.48461],[-54.89271,-21.33773],[-54.7014,-21.35546],[-54.48248,-21.12263],[-54.50675,-20.99394],[-54.67332,-20.88662],[-54.72186,-20.71473],[-54.81609,-20.74065]]]},"properties":{"cod_ibge":"500790","name":"Sidrolândia","uf":"MS"}},
{"type":"Feature","geometry":{"type":"Polygon","coordinates":[[[-53.356,-22.33406],[-53.5002,-22.58462],[-53.55874,-22.66648],[-53.50639,-22.76334],[-53.65202,-22.91977],[-53.6563,-22.98161],[-53.63393,-23.00344],[-53.54684,-22.89021],[-53.41026,-22.81381],[-53.32745,-22.7647],[-53.28271,-22.5728],[-53.356,-22.33406]]]},"properties":{"cod_ibge":"500797","name":"Taquarussu","uf":"MS"}},
{"type":"Feature","geometry":{"type":"Polygon","coordinates":[[[-55.13162,-23.76831],[-54.99694,-23.87745],[-54.70949,-23.73648],[-54.64905,-23.71829],[-54.81276,-23.5464],[-54.92127,-23.56686],[-55.08831,-23.47091],[-55.15494,-23.38087],[-55.27201,-23.5705],[-55.13162,-23.76831]]]},"properties":{"cod_ibge":"500795","name":"Tacuru","uf":"MS"}},
{"type":"Feature","geometry":{"type":"Polygon","coordinates":[[[-54.32543,-22.39227],[-54.46297,-22.36317],[-54.50532,-22.45775],[-54.4544,-22.62146],[-54.43061,-22.62601],[-54.34827,-22.44275],[-54.32543,-22.39227]]]},"properties":{"cod_ibge":"500840","name":"Vicentina","uf":"MS"}},
{"type":"Feature","geometry":{"type":"Polygon","coordinates":[[[-54.57528,-22.40409],[-54.50532,-22.45775],[-54.46297,-22.36317],[-54.32543,-22.39227],[-54.2807,-22.29223],[-54.30354,-22.23584],[-54.57528,-22.40409]]]},"properties":{"cod_ibge":"500380","name":"Fátima do Sul","uf":"MS"}},
{"type":"Feature","geometry":{"type":"Polygon","coordinates":[[[-54.18599,-20.46508],[-54.20598,-20.67244],[-54.15839,-20.77158],[-54.02323,-20.85479],[-53.96802,-20.95665],[-53.85618,-20.98985],[-53.682,-21.18994],[-53.61775,-21.36228],[-53.62013,-21.57374],[-53.60919,-21.59102],[-53.43834,-21.55509],[-53.34315,-21.59602],[-53.14137,-21.57556],[-53.02525,-21.61557],[-52.99717,-21.6324],[-53.13804,-21.15219],[-53.29414,-20.95302],[-53.17563,-20.82296],[-53.12757,-20.68972],[-52.89723,-20.61333],[-52.81727,-20.54148],[-52.86867,-20.45417],[-53.06808,-20.30046],[-53.17992,-20.05945],[-53.42453,-19.78479],[-53.6011,-19.76978],[-53.86237,-19.53013],[-53.90425,-19.70203],[-53.98801,-19.72249],[-53.89664,-19.98669],[-54.09985,-20.11811],[-53.98991,-20.30456],[-53.88759,-20.36504],[-54.18599,-20.46508]]]},"properties":{"cod_ibge":"500710","name":"Ribas do Rio Pardo","uf":"MS"}},
{"type":"Feature","geometry":{"type":"Polygon","coordinates":[[[-55.61372,-22.69285],[-55.66607,-22.85247],[-55.539,-23.24127],[-55.4343,-23.09121],[-55.2782,-22.95706],[-55.07261,-22.91749],[-55.23299,-22.84701],[-55.35149,-22.70786],[-55.61372,-22.69285]]]},"properties":{"cod_ibge":"500124","name":"Aral Moreira","uf":"MS"}},
{"type":"Feature","geometry":{"type":"Polygon","coordinates":[[[-54.64905,-23.71829],[-54.41633,-23.78832],[-54.33019,-23.55413],[-54.27498,-23.56414],[-54.24119,-23.41771],[-54.40015,-23.25673],[-54.33495,-23.1003],[-54.46725,-23.04118],[-54.47058,-23.05028],[-54.63382,-23.16351],[-54.64334,-23.27492],[-54.81419,-23.30584],[-54.88272,-23.44136],[-54.81276,-23.5464],[-54.64905,-23.71829]]]},"properties":{"cod_ibge":"500430","name":"Iguatemi","uf":"MS"}},
{"type":"Feature","geometry":{"type":"Polygon","coordinates":[[[-56.99814,-20.18905],[-56.82586,-20.27136],[-56.77731,-20.41688],[-56.6807,-20.35776],[-56.42895,-20.31911],[-56.38897,-20.486],[-56.2738,-20.6447],[-56.15149,-20.61833],[-56.102,-20.41915],[-56.22764,-20.2891],[-56.26143,-19.9876],[-56.48653,-19.82071],[-56.78493,-19.79661],[-56.99528,-19.62108],[-57.06762,-20.01534],[-56.99814,-20.18905]]]},"properties":{"cod_ibge":"500560","name":"Miranda","uf":"MS"}},
{"type":"Feature","geometry":{"type":"Polygon","coordinates":[[[-53.14994,-21.97436],[-53.10901,-22.14125],[-52.94815,-22.47321],[-52.65547,-22.30314],[-52.45606,-22.18536],[-52.39181,-22.11488],[-52.6074,-21.91707],[-52.63357,-21.83203],[-52.87105,-21.87978],[-53.07141,-21.8384],[-53.14994,-21.97436]]]},"properties":{"cod_ibge":"500080","name":"Anaurilândia","uf":"MS"}},
{"type":"Feature","geometry":{"type":"Polygon","coordinates":[[[-53.99753,-22.15808],[-53.77766,-22.23675],[-53.58825,-22.19491],[-53.79241,-21.92343],[-53.89854,-21.88251],[-54.12555,-21.94571],[-54.087,-22.0835],[-53.99753,-22.15808]]]},"properties":{"cod_ibge":"500085","name":"Angélica","uf":"MS"}},
{"type":"Feature","geometry":{"type":"Polygon","coordinates":[[[-54.08414,-23.86517],[-54.1541,-23.92611],[-54.39015,-23.81379],[-54.4268,-23.93111],[-54.28641,-24.06844],[-54.16886,-23.99887],[-54.08414,-23.86517]]]},"properties":{"cod_ibge":"500568","name":"Mundo Novo","uf":"MS"}},
{"type":"Feature","geometry":{"type":"Polygon","coordinates":[[[-54.62716,-21.92434],[-54.49866,-21.93389],[-54.23215,-21.9539],[-54.12555,-21.94571],[-53.89854,-21.88251],[-54.09128,-21.74517],[-54.18504,-21.73199],[-54.34161,-21.61512],[-54.43679,-21.5992],[-54.60098,-21.4887],[-54.7014,-21.35546],[-54.89271,-21.33773],[-55.0136,-21.48461],[-55.02787,-21.58602],[-54.82942,-21.83157],[-54.62716,-21.92434]]]},"properties":{"cod_ibge":"500720","name":"Rio Brilhante","uf":"MS"}},
{"type":"Feature","geometry":{"type":"Polygon","coordinates":[[[-54.43061,-19.55333],[-54.3992,-19.59607],[-54.02132,-19.63336],[-53.98801,-19.72249],[-53.90425,-19.70203],[-53.86237,-19.53013],[-53.6011,-19.76978],[-53.42453,-19.78479],[-53.48545,-19.58698],[-53.63774,-19.26684],[-53.60824,-19.18362],[-53.44167,-19.17726],[-53.33982,-19.04993],[-53.38265,-18.94352],[-53.48973,-18.84984],[-53.59491,-18.97171],[-53.9585,-19.00491],[-54.05845,-19.10177],[-54.18599,-19.02264],[-54.24643,-19.06857],[-54.20836,-19.25092],[-54.31782,-19.32414],[-54.42965,-19.47647],[-54.43061,-19.55333]]]},"properties":{"cod_ibge":"500260","name":"Camapuã","uf":"MS"}},
{"type":"Feature","geometry":{"type":"Polygon","coordinates":[[[-53.48973,-18.84984],[-53.34553,-18.77527],[-53.37218,-18.68295],[-53.58063,-18.43739],[-53.84048,-18.45831],[-53.98135,-18.54289],[-54.08081,-18.51606],[-54.18028,-18.58155],[-54.30449,-18.56245],[-54.39349,-18.70478],[-54.29783,-18.7398],[-54.18599,-19.02264],[-54.05845,-19.10177],[-53.9585,-19.00491],[-53.59491,-18.97171],[-53.48973,-18.84984]]]},"properties":{"cod_ibge":"500390","name":"Figueirão","uf":"MS"}},
{"type":"Feature","geometry":{"type":"Polygon","coordinates":[[[-56.38897,-20.486],[-56.40706,-20.58604],[-56.58219,-20.71337],[-56.69689,-20.88572],[-56.85965,-20.88617],[-56.85869,-21.11354],[-56.79635,-21.2295],[-56.78921,-21.44732],[-56.30807,-21.41776],[-56.22716,-21.29089],[-56.19956,-21.28134],[-56.2324,-21.10445],[-56.08487,-20.76566],[-56.15149,-20.61833],[-56.2738,-20.6447],[-56.38897,-20.486]]]},"properties":{"cod_ibge":"500220","name":"Bonito","uf":"MS"}},
{"type":"Feature","geometry":{"type":"Polygon","coordinates":[[[-54.68236,-22.06577],[-54.58004,-22.12988],[-54.49866,-21.93389],[-54.62716,-21.92434],[-54.68236,-22.06577]]]},"properties":{"cod_ibge":"500350","name":"Douradina","uf":"MS"}},
{"type":"Feature","geometry":{"type":"Polygon","coordinates":[[[-54.34827,-22.44275],[-54.02799,-22.5437],[-54.11508,-22.35544],[-54.2807,-22.29223],[-54.32543,-22.39227],[-54.34827,-22.44275]]]},"properties":{"cod_ibge":"500400","name":"Glória de Dourados","uf":"MS"}},
{"type":"Feature","geometry":{"type":"Polygon","coordinates":[[[-54.68903,-17.9149],[-54.6995,-18.12317],[-54.5986,-18.23685],[-54.43251,-18.1359],[-54.20312,-18.09134],[-54.10889,-18.10225],[-54.03275,-17.95355],[-53.95184,-17.91581],[-53.85571,-17.70253],[-53.7572,-17.67298],[-54.07653,-17.65115],[-54.14078,-17.74664],[-54.48629,-17.7521],[-54.63668,-17.69935],[-54.7566,-17.73209],[-54.68903,-17.9149]]]},"properties":{"cod_ibge":"500640","name":"Pedro Gomes","uf":"MS"}},
{"type":"Feature","geometry":{"type":"Polygon","coordinates":[[[-55.26202,-23.99159],[-55.06214,-23.99341],[-54.68379,-23.83061],[-54.70949,-23.73648],[-54.99694,-23.87745],[-55.13162,-23.76831],[-55.27963,-23.82607],[-55.26202,-23.99159]]]},"properties":{"cod_ibge":"500770","name":"Sete Quedas","uf":"MS"}},
{"type":"Feature","geometry":{"type":"Polygon","coordinates":[[[-54.78135,-20.17268],[-54.51722,-20.285],[-54.48914,-20.39141],[-54.26499,-20.49236],[-54.18599,-20.46508],[-53.88759,-20.36504],[-53.98991,-20.30456],[-54.09985,-20.11811],[-54.22359,-20.04308],[-54.40919,-20.03217],[-54.64857,-20.00125],[-54.76279,-20.04445],[-54.78135,-20.17268]]]},"properties":{"cod_ibge":"500490","name":"Jaraguari","uf":"MS"}},
{"type":"Feature","geometry":{"type":"Polygon","coordinates":[[[-51.03357,-19.7907],[-51.16016,-19.86346],[-51.32292,-19.84982],[-51.47521,-19.95941],[-51.63892,-19.9826],[-51.68842,-20.04717],[-51.5623,-20.18905],[-51.34338,-20.35549],[-51.10924,-20.28],[-51.00121,-20.09629],[-51.00025,-20.08537],[-51.03357,-19.7907]]]},"properties":{"cod_ibge":"500100","name":"Aparecida do Taboado","uf":"MS"}},
{"type":"Feature","geometry":{"type":"Polygon","coordinates":[[[-53.12757,-20.68972],[-53.03952,-20.73611],[-52.99431,-20.86207],[-52.61263,-21.15083],[-52.48128,-21.35046],[-52.16385,-21.57874],[-52.10198,-21.56964],[-51.96207,-21.49325],[-51.86117,-21.33682],[-51.87973,-21.19812],[-52.10627,-21.03896],[-52.30948,-20.95302],[-52.36421,-20.88435],[-52.48271,-20.82523],[-52.81727,-20.54148],[-52.89723,-20.61333],[-53.12757,-20.68972]]]},"properties":{"cod_ibge":"500230","name":"Brasilândia","uf":"MS"}},
{"type":"Feature","geometry":{"type":"Polygon","coordinates":[[[-56.22716,-21.29089],[-56.1967,-21.43186],[-56.11866,-21.47688],[-56.12437,-21.6274],[-55.98112,-21.78019],[-55.89403,-21.81157],[-55.95256,-21.68833],[-55.8293,-21.66332],[-55.83692,-21.48552],[-56.01634,-21.36001],[-56.19956,-21.28134],[-56.22716,-21.29089]]]},"properties":{"cod_ibge":"500410","name":"Guia Lopes da Laguna","uf":"MS"}},
{"type":"Feature","geometry":{"type":"Polygon","coordinates":[[[-53.07141,-21.8384],[-52.87105,-21.87978],[-52.63357,-21.83203],[-52.6074,-21.91707],[-52.39181,-22.11488],[-52.319,-21.97209],[-52.16147,-21.77064],[-52.19717,-21.66878],[-52.31043,-21.63103],[-52.69259,-21.73972],[-52.8187,-21.66832],[-52.99717,-21.6324],[-53.02525,-21.61557],[-53.07141,-21.8384]]]},"properties":{"cod_ibge":"500190","name":"Bataguassu","uf":"MS"}},
{"type":"Feature","geometry":{"type":"Polygon","coordinates":[[[-54.82942,-21.83157],[-55.02787,-21.58602],[-55.25678,-21.40867],[-55.3196,-21.24223],[-55.25393,-21.01577],[-55.30771,-21.03942],[-55.48617,-21.02259],[-55.618,-21.13764],[-55.6951,-21.34182],[-55.66369,-21.40048],[-55.83692,-21.48552],[-55.8293,-21.66332],[-55.73269,-21.78019],[-55.56946,-21.79656],[-55.41193,-21.89478],[-55.22728,-21.92571],[-55.01074,-21.8866],[-54.98123,-21.82021],[-54.82942,-21.83157]]]},"properties":{"cod_ibge":"500540","name":"Maracaju","uf":"MS"}},
{"type":"Feature","geometry":{"type":"Polygon","coordinates":[[[-51.68842,-20.04717],[-51.84785,-20.00579],[-52.03298,-20.04217],[-52.11388,-20.12448],[-52.12007,-20.13039],[-52.06724,-20.36231],[-51.92637,-20.51828],[-51.75124,-20.43552],[-51.56754,-20.61833],[-51.41905,-20.46508],[-51.34338,-20.35549],[-51.5623,-20.18905],[-51.68842,-20.04717]]]},"properties":{"cod_ibge":"500780","name":"Selvíria","uf":"MS"}},
{"type":"Feature","geometry":{"type":"Polygon","coordinates":[[[-55.4343,-23.09121],[-55.3415,-23.26173],[-55.15494,-23.38087],[-55.08831,-23.47091],[-54.92127,-23.56686],[-54.81276,-23.5464],[-54.88272,-23.44136],[-54.81419,-23.30584],[-54.64334,-23.27492],[-54.63382,-23.16351],[-54.47058,-23.05028],[-54.73662,-22.88839],[-54.81324,-22.87157],[-55.07261,-22.91749],[-55.2782,-22.95706],[-55.4343,-23.09121]]]},"properties":{"cod_ibge":"500060","name":"Amambai","uf":"MS"}},
{"type":"Feature","geometry":{"type":"Polygon","coordinates":[[[-53.40407,-17.99266],[-53.46784,-18.03495],[-53.77433,-18.00084],[-53.95184,-17.91581],[-54.03275,-17.95355],[-54.10889,-18.10225],[-54.20312,-18.09134],[-54.14173,-18.15955],[-54.13983,-18.33098],[-54.08081,-18.51606],[-53.98135,-18.54289],[-53.84048,-18.45831],[-53.58063,-18.43739],[-53.43548,-18.38237],[-53.22037,-18.12681],[-53.23798,-18.00766],[-53.40407,-17.99266]]]},"properties":{"cod_ibge":"500025","name":"Alcinópolis","uf":"MS"}},
{"type":"Feature","geometry":{"type":"Polygon","coordinates":[[[-52.61263,-20.43143],[-52.46272,-20.61151],[-52.35517,-20.82842],[-52.36421,-20.88435],[-52.30948,-20.95302],[-52.10627,-21.03896],[-51.87973,-21.19812],[-51.77265,-21.05124],[-51.62369,-20.94438],[-51.63512,-20.75475],[-51.57515,-20.62333],[-51.56754,-20.61833],[-51.75124,-20.43552],[-51.92637,-20.51828],[-52.06724,-20.36231],[-52.12007,-20.13039],[-52.21763,-19.96668],[-52.21335,-19.86892],[-52.38896,-19.63336],[-52.47605,-19.61108],[-52.54648,-19.63609],[-52.61311,-19.79025],[-52.71305,-19.81162],[-52.73589,-20.25317],[-52.61263,-20.43143]]]},"properties":{"cod_ibge":"500830","name":"Três Lagoas","uf":"MS"}},
{"type":"Feature","geometry":{"type":"Polygon","coordinates":[[[-54.9641,-22.36408],[-55.12686,-22.64101],[-55.04072,-22.67512],[-54.81324,-22.87157],[-54.73662,-22.88839],[-54.74471,-22.77107],[-54.59813,-22.63419],[-54.4544,-22.62146],[-54.50532,-22.45775],[-54.57528,-22.40409],[-54.72139,-22.44138],[-54.9641,-22.36408]]]},"properties":{"cod_ibge":"500240","name":"Caarapó","uf":"MS"}},
{"type":"Feature","geometry":{"type":"Polygon","coordinates":[[[-54.33495,-23.1003],[-54.40015,-23.25673],[-54.24119,-23.41771],[-54.27498,-23.56414],[-54.05131,-23.68737],[-54.03084,-23.62825],[-53.96041,-23.44363],[-53.83001,-23.30539],[-53.85476,-23.21762],[-54.07653,-23.13395],[-54.11555,-23.16624],[-54.33495,-23.1003]]]},"properties":{"cod_ibge":"500460","name":"Itaquiraí","uf":"MS"}},
{"type":"Feature","geometry":{"type":"Polygon","coordinates":[[[-54.9641,-22.36408],[-54.72139,-22.44138],[-54.57528,-22.40409],[-54.30354,-22.23584],[-54.22739,-22.13807],[-54.23215,-21.9539],[-54.49866,-21.93389],[-54.58004,-22.12988],[-54.68236,-22.06577],[-54.87082,-22.20082],[-55.0174,-22.14171],[-55.09926,-22.00574],[-55.01074,-21.8866],[-55.22728,-21.92571],[-55.41193,-21.89478],[-55.52329,-21.98437],[-55.48903,-22.12306],[-55.35673,-22.2031],[-55.14923,-22.22356],[-54.98552,-22.35725],[-54.9641,-22.36408]]]},"properties":{"cod_ibge":"500370","name":"Dourados","uf":"MS"}},
{"type":"Feature","geometry":{"type":"Polygon","coordinates":[[[-53.356,-22.33406],[-53.28271,-22.5728],[-53.32745,-22.7647],[-53.23988,-22.73332],[-53.12804,-22.65238],[-53.1052,-22.62191],[-52.94815,-22.47321],[-53.10901,-22.14125],[-53.14994,-21.97436],[-53.356,-22.33406]]]},"properties":{"cod_ibge":"500200","name":"Batayporã","uf":"MS"}},
{"type":"Feature","geometry":{"type":"Polygon","coordinates":[[[-55.30628,-18.24777],[-55.10973,-18.24595],[-54.93412,-18.43739],[-54.7566,-18.49105],[-54.72615,-18.58928],[-54.57338,-18.71251],[-54.39349,-18.70478],[-54.30449,-18.56245],[-54.18028,-18.58155],[-54.08081,-18.51606],[-54.13983,-18.33098],[-54.14173,-18.15955],[-54.20312,-18.09134],[-54.43251,-18.1359],[-54.5986,-18.23685],[-54.6995,-18.12317],[-54.68903,-17.9149],[-54.84512,-18.00266],[-54.96458,-17.89307],[-55.07213,-17.8717],[-55.15732,-17.74391],[-55.13686,-17.65024],[-55.13876,-17.64796],[-55.30628,-18.24777]]]},"properties":{"cod_ibge":"500330","name":"Coxim","uf":"MS"}},
{"type":"Feature","geometry":{"type":"Polygon","coordinates":[[[-54.43061,-22.62601],[-54.32591,-22.58462],[-54.22739,-22.71059],[-54.09128,-22.75743],[-53.9409,-22.86293],[-53.76481,-22.90112],[-53.6563,-22.98161],[-53.65202,-22.91977],[-53.50639,-22.76334],[-53.55874,-22.66648],[-53.77766,-22.73105],[-53.92757,-22.65693],[-54.02799,-22.5437],[-54.34827,-22.44275],[-54.43061,-22.62601]]]},"properties":{"cod_ibge":"500510","name":"Jateí","uf":"MS"}},
{"type":"Feature","geometry":{"type":"Polygon","coordinates":[[[-54.73662,-22.88839],[-54.47058,-23.05028],[-54.46725,-23.04118],[-54.42585,-22.82154],[-54.09128,-22.75743],[-54.22739,-22.71059],[-54.32591,-22.58462],[-54.43061,-22.62601],[-54.4544,-22.62146],[-54.59813,-22.63419],[-54.74471,-22.77107],[-54.73662,-22.88839]]]},"properties":{"cod_ibge":"500515","name":"Juti","uf":"MS"}},
{"type":"Feature","geometry":{"type":"Polygon","coordinates":[[[-53.02525,-21.61557],[-53.14137,-21.57556],[-53.34315,-21.59602],[-53.43834,-21.55509],[-53.60919,-21.59102],[-53.73483,-21.62103],[-53.79241,-21.92343],[-53.58825,-22.19491],[-53.4845,-22.45002],[-53.5616,-22.57007],[-53.5002,-22.58462],[-53.356,-22.33406],[-53.14994,-21.97436],[-53.07141,-21.8384],[-53.02525,-21.61557]]]},"properties":{"cod_ibge":"500620","name":"Nova Andradina","uf":"MS"}},
{"type":"Feature","geometry":{"type":"Polygon","coordinates":[[[-54.73424,-19.77251],[-54.83798,-19.84345],[-54.93745,-20.06991],[-55.04215,-20.15631],[-54.9127,-20.20679],[-54.78135,-20.17268],[-54.76279,-20.04445],[-54.64857,-20.00125],[-54.40919,-20.03217],[-54.49057,-19.86755],[-54.63477,-19.87665],[-54.73424,-19.77251]]]},"properties":{"cod_ibge":"500750","name":"Rochedo","uf":"MS"}},
{"type":"Feature","geometry":{"type":"Polygon","coordinates":[[[-51.69223,-19.11814],[-51.85213,-19.05266],[-51.94065,-18.96808],[-52.07914,-18.95125],[-52.18717,-18.84575],[-52.3052,-18.84029],[-52.4118,-18.74389],[-52.59169,-18.96535],[-52.52745,-19.06266],[-52.54172,-19.22364],[-52.44083,-19.33641],[-52.12625,-19.3737],[-51.97825,-19.19135],[-51.86831,-19.22318],[-51.61846,-19.2914],[-51.53898,-19.1427],[-51.69223,-19.11814]]]},"properties":{"cod_ibge":"500290","name":"Cassilândia","uf":"MS"}},
{"type":"Feature","geometry":{"type":"Polygon","coordinates":[[[-53.04571,-18.798],[-52.89866,-18.78572],[-52.82965,-18.92669],[-52.93244,-19.1959],[-52.7259,-19.2682],[-52.57599,-19.41372],[-52.51555,-19.5506],[-52.44083,-19.33641],[-52.54172,-19.22364],[-52.52745,-19.06266],[-52.59169,-18.96535],[-52.4118,-18.74389],[-52.50175,-18.67613],[-52.74827,-18.69205],[-52.87343,-18.64566],[-52.92102,-18.61338],[-53.04333,-18.72343],[-53.04571,-18.798]]]},"properties":{"cod_ibge":"500295","name":"Chapadão do Sul","uf":"MS"}},
{"type":"Feature","geometry":{"type":"Polygon","coordinates":[[[-52.57599,-19.41372],[-52.7259,-19.2682],[-52.93244,-19.1959],[-52.82965,-18.92669],[-52.89866,-18.78572],[-53.04571,-18.798],[-53.16659,-18.94397],[-53.29176,-18.89031],[-53.38265,-18.94352],[-53.33982,-19.04993],[-53.44167,-19.17726],[-53.60824,-19.18362],[-53.63774,-19.26684],[-53.48545,-19.58698],[-53.40312,-19.5174],[-53.01954,-19.43055],[-52.86058,-19.53741],[-52.71162,-19.55242],[-52.57599,-19.41372]]]},"properties":{"cod_ibge":"500627","name":"Paraíso das Águas","uf":"MS"}},
{"type":"Feature","geometry":{"type":"Polygon","coordinates":[[[-53.5616,-22.57007],[-53.4845,-22.45002],[-53.58825,-22.19491],[-53.77766,-22.23675],[-53.99753,-22.15808],[-54.11508,-22.35544],[-54.02799,-22.5437],[-53.91948,-22.43502],[-53.80764,-22.53233],[-53.5616,-22.57007]]]},"properties":{"cod_ibge":"500470","name":"Ivinhema","uf":"MS"}},
{"type":"Feature","geometry":{"type":"Polygon","coordinates":[[[-52.99717,-21.6324],[-52.8187,-21.66832],[-52.69259,-21.73972],[-52.31043,-21.63103],[-52.19717,-21.66878],[-52.16147,-21.77064],[-52.05582,-21.67696],[-52.10198,-21.56964],[-52.16385,-21.57874],[-52.48128,-21.35046],[-52.61263,-21.15083],[-52.99431,-20.86207],[-53.03952,-20.73611],[-53.12757,-20.68972],[-53.17563,-20.82296],[-53.29414,-20.95302],[-53.13804,-21.15219],[-52.99717,-21.6324]]]},"properties":{"cod_ibge":"500755","name":"Santa Rita do Pardo","uf":"MS"}},
{"type":"Feature","geometry":{"type":"Polygon","coordinates":[[[-54.02799,-22.5437],[-53.92757,-22.65693],[-53.77766,-22.73105],[-53.55874,-22.66648],[-53.5002,-22.58462],[-53.5616,-22.57007],[-53.80764,-22.53233],[-53.91948,-22.43502],[-54.02799,-22.5437]]]},"properties":{"cod_ibge":"500625","name":"Novo Horizonte do Sul","uf":"MS"}},
{"type":"Feature","geometry":{"type":"Polygon","coordinates":[[[-54.81609,-20.74065],[-54.76755,-20.61469],[-54.76279,-20.32638],[-54.9127,-20.20679],[-55.04215,-20.15631],[-55.08355,-20.15404],[-55.24584,-20.22634],[-55.35625,-20.34821],[-55.20539,-20.58513],[-54.97552,-20.77612],[-54.81609,-20.74065]]]},"properties":{"cod_ibge":"500800","name":"Terenos","uf":"MS"}},
{"type":"Feature","geometry":{"type":"Polygon","coordinates":[[[-56.08677,-21.89433],[-56.25096,-21.78155],[-56.36422,-21.62649],[-56.63216,-21.56009],[-56.81443,-21.56692],[-56.76161,-21.68197],[-56.86393,-21.98801],[-57.03764,-22.14898],[-57.04953,-22.2322],[-56.84394,-22.30087],[-56.55602,-22.19537],[-56.5189,-22.10851],[-56.3923,-22.07986],[-56.34566,-22.17991],[-56.20908,-22.17536],[-56.01491,-22.06122],[-56.08677,-21.89433]]]},"properties":{"cod_ibge":"500210","name":"Bela Vista","uf":"MS"}},
{"type":"Feature","geometry":{"type":"Polygon","coordinates":[[[-54.2807,-22.29223],[-54.11508,-22.35544],[-53.99753,-22.15808],[-54.087,-22.0835],[-54.12555,-21.94571],[-54.23215,-21.9539],[-54.22739,-22.13807],[-54.30354,-22.23584],[-54.2807,-22.29223]]]},"properties":{"cod_ibge":"500345","name":"Deodápolis","uf":"MS"}},
{"type":"Feature","geometry":{"type":"Polygon","coordinates":[[[-56.38897,-20.486],[-56.42895,-20.31911],[-56.6807,-20.35776],[-56.77731,-20.41688],[-56.82586,-20.27136],[-56.99814,-20.18905],[-56.9672,-20.2227],[-56.94198,-20.41506],[-56.87345,-20.58013],[-56.85965,-20.88617],[-56.69689,-20.88572],[-56.58219,-20.71337],[-56.40706,-20.58604],[-56.38897,-20.486]]]},"properties":{"cod_ibge":"500215","name":"Bodoquena","uf":"MS"}},
{"type":"Feature","geometry":{"type":"Polygon","coordinates":[[[-55.25393,-21.01577],[-55.15161,-20.8025],[-55.22109,-20.692],[-55.20539,-20.58513],[-55.35625,-20.34821],[-55.24584,-20.22634],[-55.3453,-20.15995],[-55.48665,-20.14949],[-55.45,-20.44871],[-55.58707,-20.50964],[-55.52615,-20.7402],[-55.41859,-20.83842],[-55.30771,-21.03942],[-55.25393,-21.01577]]]},"properties":{"cod_ibge":"500348","name":"Dois Irmãos do Buriti","uf":"MS"}},
{"type":"Feature","geometry":{"type":"Polygon","coordinates":[[[-57.61587,-19.00218],[-57.66726,-19.16725],[-57.50783,-19.21],[-57.46595,-19.02765],[-57.61587,-19.00218]]]},"properties":{"cod_ibge":"500520","name":"Ladário","uf":"MS"}},
{"type":"Feature","geometry":{"type":"Polygon","coordinates":[[[-55.35149,-22.70786],[-55.23299,-22.84701],[-55.07261,-22.91749],[-54.81324,-22.87157],[-55.04072,-22.67512],[-55.12686,-22.64101],[-54.9641,-22.36408],[-54.98552,-22.35725],[-55.33912,-22.50868],[-55.35149,-22.70786]]]},"properties":{"cod_ibge":"500525","name":"Laguna Carapã","uf":"MS"}},
{"type":"Feature","geometry":{"type":"Polygon","coordinates":[[[-50.93505,-19.46738],[-51.0921,-19.30777],[-51.44856,-19.16043],[-51.53898,-19.1427],[-51.61846,-19.2914],[-51.86831,-19.22318],[-51.7955,-19.56879],[-51.5109,-19.88529],[-51.47521,-19.95941],[-51.32292,-19.84982],[-51.16016,-19.86346],[-51.03357,-19.7907],[-51.03833,-19.69157],[-50.93505,-19.46738]]]},"properties":{"cod_ibge":"500630","name":"Paranaíba","uf":"MS"}},
{"type":"Feature","geometry":{"type":"Polygon","coordinates":[[[-55.56041,-23.48319],[-55.53043,-23.6278],[-55.43002,-23.79014],[-55.4462,-23.91701],[-55.26202,-23.99159],[-55.27963,-23.82607],[-55.13162,-23.76831],[-55.27201,-23.5705],[-55.29724,-23.51093],[-55.56041,-23.48319]]]},"properties":{"cod_ibge":"500635","name":"Paranhos","uf":"MS"}},
{"type":"Feature","geometry":{"type":"Polygon","coordinates":[[[-54.43061,-19.55333],[-54.42965,-19.47647],[-54.31782,-19.32414],[-54.20836,-19.25092],[-54.24643,-19.06857],[-54.18599,-19.02264],[-54.29783,-18.7398],[-54.39349,-18.70478],[-54.57338,-18.71251],[-54.52055,-18.84666],[-54.55054,-18.95352],[-54.69093,-19.02401],[-54.80515,-19.20136],[-54.71092,-19.30322],[-54.79468,-19.45556],[-54.72234,-19.59698],[-54.55101,-19.5315],[-54.43061,-19.55333]]]},"properties":{"cod_ibge":"500769","name":"São Gabriel do Oeste","uf":"MS"}},
{"type":"Feature","geometry":{"type":"Polygon","coordinates":[[[-54.68379,-23.83061],[-54.4268,-23.93111],[-54.39015,-23.81379],[-54.41633,-23.78832],[-54.64905,-23.71829],[-54.70949,-23.73648],[-54.68379,-23.83061]]]},"properties":{"cod_ibge":"500480","name":"Japorã","uf":"MS"}},
{"type":"Feature","geometry":{"type":"Polygon","coordinates":[[[-54.33495,-23.1003],[-54.11555,-23.16624],[-54.07653,-23.13395],[-53.85476,-23.21762],[-53.83001,-23.30539],[-53.96041,-23.44363],[-53.76243,-23.3595],[-53.71484,-23.28356],[-53.63679,-23.12486],[-53.63393,-23.00344],[-53.6563,-22.98161],[-53.76481,-22.90112],[-53.9409,-22.86293],[-54.09128,-22.75743],[-54.42585,-22.82154],[-54.46725,-23.04118],[-54.33495,-23.1003]]]},"properties":{"cod_ibge":"500570","name":"Naviraí","uf":"MS"}},
{"type":"Feature","geometry":{"type":"Polygon","coordinates":[[[-56.34566,-22.17991],[-56.21241,-22.27586],[-55.8431,-22.28722],[-55.76648,-22.38408],[-55.69177,-22.1317],[-55.87737,-22.14944],[-56.01491,-22.06122],[-56.20908,-22.17536],[-56.34566,-22.17991]]]},"properties":{"cod_ibge":"500090","name":"Antônio João","uf":"MS"}},
{"type":"Feature","geometry":{"type":"Polygon","coordinates":[[[-51.47521,-19.95941],[-51.5109,-19.88529],[-51.7955,-19.56879],[-51.86831,-19.22318],[-51.97825,-19.19135],[-52.12625,-19.3737],[-52.44083,-19.33641],[-52.51555,-19.5506],[-52.47605,-19.61108],[-52.38896,-19.63336],[-52.21335,-19.86892],[-52.21763,-19.96668],[-52.12007,-20.13039],[-52.11388,-20.12448],[-52.03298,-20.04217],[-51.84785,-20.00579],[-51.68842,-20.04717],[-51.63892,-19.9826],[-51.47521,-19.95941]]]},"properties":{"cod_ibge":"500440","name":"Inocência","uf":"MS"}},
{"type":"Feature","geometry":{"type":"Polygon","coordinates":[[[-55.04215,-20.15631],[-54.93745,-20.06991],[-54.83798,-19.84345],[-54.73424,-19.77251],[-54.72234,-19.59698],[-54.79468,-19.45556],[-54.83846,-19.64746],[-55.0274,-19.69793],[-55.24108,-19.52149],[-55.34673,-19.76069],[-55.31294,-19.98806],[-55.13971,-19.97169],[-55.08355,-20.15404],[-55.04215,-20.15631]]]},"properties":{"cod_ibge":"500310","name":"Corguinho","uf":"MS"}},
{"type":"Feature","geometry":{"type":"Polygon","coordinates":[[[-55.539,-23.24127],[-55.50426,-23.3786],[-55.56041,-23.48319],[-55.29724,-23.51093],[-55.27201,-23.5705],[-55.15494,-23.38087],[-55.3415,-23.26173],[-55.4343,-23.09121],[-55.539,-23.24127]]]},"properties":{"cod_ibge":"500315","name":"Coronel Sapucaia","uf":"MS"}},
{"type":"Feature","geometry":{"type":"Polygon","coordinates":[[[-54.7014,-21.35546],[-54.60098,-21.4887],[-54.43679,-21.5992],[-54.34161,-21.61512],[-54.18504,-21.73199],[-54.09128,-21.74517],[-53.89854,-21.88251],[-53.79241,-21.92343],[-53.73483,-21.62103],[-53.60919,-21.59102],[-53.62013,-21.57374],[-53.85904,-21.56373],[-54.0061,-21.51326],[-54.19931,-21.335],[-54.29212,-21.14128],[-54.50675,-20.99394],[-54.48248,-21.12263],[-54.7014,-21.35546]]]},"properties":{"cod_ibge":"500600","name":"Nova Alvorada do Sul","uf":"MS"}},
{"type":"Feature","geometry":{"type":"Polygon","coordinates":[[[-55.24108,-19.52149],[-55.0274,-19.69793],[-54.83846,-19.64746],[-54.79468,-19.45556],[-54.71092,-19.30322],[-54.80515,-19.20136],[-54.99361,-19.23592],[-55.10164,-19.33505],[-55.24108,-19.52149]]]},"properties":{"cod_ibge":"500730","name":"Rio Negro","uf":"MS"}},
{"type":"Feature","geometry":{"type":"Polygon","coordinates":[[[-54.81609,-20.74065],[-54.72186,-20.71473],[-54.67332,-20.88662],[-54.50675,-20.99394],[-54.29212,-21.14128],[-54.19931,-21.335],[-54.0061,-21.51326],[-53.85904,-21.56373],[-53.62013,-21.57374],[-53.61775,-21.36228],[-53.682,-21.18994],[-53.85618,-20.98985],[-53.96802,-20.95665],[-54.02323,-20.85479],[-54.15839,-20.77158],[-54.20598,-20.67244],[-54.18599,-20.46508],[-54.26499,-20.49236],[-54.48914,-20.39141],[-54.51722,-20.285],[-54.78135,-20.17268],[-54.9127,-20.20679],[-54.76279,-20.32638],[-54.76755,-20.61469],[-54.81609,-20.74065]]]},"properties":{"cod_ibge":"500270","name":"Campo Grande","uf":"MS"}},
{"type":"Feature","geometry":{"type":"Polygon","coordinates":[[[-54.62716,-21.92434],[-54.82942,-21.83157],[-54.98123,-21.82021],[-55.01074,-21.8866],[-55.09926,-22.00574],[-55.0174,-22.14171],[-54.87082,-22.20082],[-54.68236,-22.06577],[-54.62716,-21.92434]]]},"properties":{"cod_ibge":"500450","name":"Itaporã","uf":"MS"}}
]}