{"type":"FeatureCollection", "features": [
{"type":"Feature","geometry":{"type":"Polygon","coordinates":[[[-46.24118,-12.78888],[-46.57062,-11.31392],[-45.7588,-10.33061],[-45.94704,-10.3189],[-46.79024,-9.38631],[-46.82553,-8.46543],[-47.46872,-7.53285],[-47.48048,-5.55062],[-48.71978,-5.35942],[-48.14327,-5.60915],[-48.6688,-6.65489],[-49.21393,-6.92803],[-49.30414,-8.37959],[-50.23361,-9.84285],[-50.58265,-10.713],[-50.64933,-11.60267],[-50.48461,-12.84351],[-49.21786,-12.76937],[-47.76285,-13.31176],[-46.24118,-12.78888]]]},"properties":{"sigla":"TO","nome":"Tocantins"}},
{"type":"Feature","geometry":{"type":"Polygon","coordinates":[[[-35.15023,-8.91417],[-34.89138,-7.54456],[-37.12683,-8.17668],[-37.23664,-7.27141],[-38.24456,-7.84891],[-38.69557,-7.61869],[-40.53883,-7.38847],[-40.57805,-8.10645],[-41.37026,-8.71126],[-40.24469,-9.07025],[-39.3662,-8.53177],[-38.23279,-9.33169],[-37.75433,-8.85174],[-36.99741,-9.30437],[-35.15023,-8.91417]]]},"properties":{"sigla":"PE","nome":"Pernambuco"}},
{"type":"Feature","geometry":{"type":"Polygon","coordinates":[[[-50.48461,-12.84351],[-51.09642,-14.89208],[-51.63763,-15.17693],[-53.01027,-16.8626],[-53.05341,-18.0176],[-52.47298,-18.70826],[-50.92385,-19.45745],[-50.31205,-18.68485],[-48.93156,-18.30245],[-47.9511,-18.48975],[-47.27655,-18.06053],[-47.304,-16.03928],[-46.8726,-15.02865],[-46.02156,-14.86867],[-46.24118,-12.78888],[-47.76285,-13.31176],[-49.21786,-12.76937],[-50.48461,-12.84351]]]},"properties":{"sigla":"GO","nome":"Goiás"}},
{"type":"Feature","geometry":{"type":"Polygon","coordinates":[[[-37.48764,-11.52072],[-36.40521,-10.49839],[-38.0014,-9.53069],[-37.48764,-11.52072]]]},"properties":{"sigla":"SE","nome":"Sergipe"}},
{"type":"Feature","geometry":{"type":"Polygon","coordinates":[[[-48.08444,-25.3144],[-46.43727,-24.02283],[-44.72735,-23.35168],[-44.82932,-22.40739],[-46.34707,-22.86393],[-47.46087,-19.96472],[-48.99823,-20.15982],[-50.47676,-19.78132],[-51.00621,-20.07788],[-52.05334,-21.72063],[-53.15538,-22.70394],[-51.2729,-22.65322],[-49.97869,-22.90295],[-49.21786,-24.3428],[-48.08444,-25.3144]]]},"properties":{"sigla":"SP","nome":"São Paulo"}},
{"type":"Feature","geometry":{"type":"Polygon","coordinates":[[[-49.70416,-29.32569],[-48.77469,-28.52187],[-48.58252,-25.98165],[-50.53951,-26.02847],[-52.0102,-26.58256],[-53.64953,-26.26259],[-53.83778,-27.17177],[-52.24944,-27.24591],[-49.75907,-28.47114],[-49.70416,-29.32569]]]},"properties":{"sigla":"SC","nome":"Santa Catarina"}},
{"type":"Feature","geometry":{"type":"Polygon","coordinates":[[[-58.97146,1.32086],[-59.75191,1.86714],[-59.9833,2.86216],[-59.58327,3.99765],[-60.14801,4.51662],[-60.98729,4.51662],[-62.74427,4.03277],[-64.12868,4.11471],[-64.04632,2.48366],[-63.37961,2.23003],[-62.43837,0.8253],[-62.50504,-0.77844],[-60.73629,-0.84867],[-60.05389,0.22829],[-58.8695,0.22439],[-58.97146,1.32086]]]},"properties":{"sigla":"RR","nome":"Roraima"}},
{"type":"Feature","geometry":{"type":"Polygon","coordinates":[[[-66.63865,-9.91699],[-65.30131,-9.84285],[-65.39151,-11.26709],[-64.39536,-12.46111],[-63.67375,-12.46892],[-61.8344,-13.54588],[-60.74413,-13.68245],[-59.88917,-12.58988],[-60.00683,-11.13442],[-61.5285,-11.00175],[-61.61086,-8.76979],[-62.85016,-8.00109],[-63.99141,-8.43032],[-64.12868,-8.75418],[-66.83082,-9.83895],[-66.63865,-9.91699]]]},"properties":{"sigla":"RO","nome":"Rondônia"}},
{"type":"Feature","geometry":{"type":"Polygon","coordinates":[[[-53.83778,-27.17177],[-55.7634,-28.22532],[-57.06937,-29.7315],[-56.00263,-30.79675],[-54.58685,-31.464],[-52.6377,-33.13017],[-52.22198,-31.74885],[-51.2023,-30.39875],[-50.31205,-30.46118],[-49.70416,-29.32569],[-49.75907,-28.47114],[-52.24944,-27.24591],[-53.83778,-27.17177]]]},"properties":{"sigla":"RS","nome":"Rio Grande do Sul"}},
{"type":"Feature","geometry":{"type":"Polygon","coordinates":[[[-38.52693,-6.38175],[-37.75825,-6.17104],[-37.2288,-6.83048],[-36.5111,-6.40126],[-34.9659,-6.50271],[-35.47966,-5.16432],[-37.24057,-4.83264],[-37.72687,-5.07067],[-38.52693,-6.38175]]]},"properties":{"sigla":"RN","nome":"Rio Grande do Norte"}},
{"type":"Feature","geometry":{"type":"Polygon","coordinates":[[[-44.72735,-23.35168],[-42.03305,-22.91855],[-40.97023,-21.98987],[-40.96239,-21.2758],[-41.86441,-20.77634],[-43.04881,-22.0445],[-44.82932,-22.40739],[-44.72735,-23.35168]]]},"properties":{"sigla":"RJ","nome":"Rio de Janeiro"}},
{"type":"Feature","geometry":{"type":"Polygon","coordinates":[[[-45.7588,-10.33061],[-44.81363,-10.87689],[-43.95083,-10.45157],[-43.4959,-9.33169],[-42.48014,-9.47996],[-41.37026,-8.71126],[-40.57805,-8.10645],[-40.53883,-7.38847],[-41.00161,-5.37503],[-41.20554,-4.63754],[-41.0722,-4.32538],[-41.11926,-4.1771],[-41.38595,-3.58009],[-41.40948,-3.52546],[-41.40556,-3.29524],[-41.24868,-3.0221],[-41.84088,-2.76847],[-42.86056,-4.49707],[-42.85271,-4.95361],[-43.00174,-6.76805],[-43.7116,-6.69781],[-44.32732,-7.11143],[-45.47642,-7.68503],[-45.97842,-8.92587],[-45.94704,-10.3189],[-45.7588,-10.33061]]]},"properties":{"sigla":"PI","nome":"Piauí"}},
{"type":"Feature","geometry":{"type":"Polygon","coordinates":[[[-53.15538,-22.70394],[-54.24565,-24.05405],[-54.61822,-25.43927],[-53.64953,-26.26259],[-52.0102,-26.58256],[-50.53951,-26.02847],[-48.58252,-25.98165],[-48.08444,-25.3144],[-49.21786,-24.3428],[-49.97869,-22.90295],[-51.2729,-22.65322],[-53.15538,-22.70394]]]},"properties":{"sigla":"PR","nome":"Paraná"}},
{"type":"Feature","geometry":{"type":"Polygon","coordinates":[[[-34.89138,-7.54456],[-34.9659,-6.50271],[-36.5111,-6.40126],[-37.2288,-6.83048],[-37.75825,-6.17104],[-38.52693,-6.38175],[-38.69557,-7.61869],[-38.24456,-7.84891],[-37.23664,-7.27141],[-37.12683,-8.17668],[-34.89138,-7.54456]]]},"properties":{"sigla":"PB","nome":"Paraíba"}},
{"type":"Feature","geometry":{"type":"MultiPolygon","coordinates":[[[[-48.87666,-1.4886],[-48.40996,-0.26337],[-50.32774,-0.09948],[-50.81404,-1.34033],[-50.58658,-1.79686],[-50.04928,-1.70712],[-49.79829,-1.81247],[-49.51199,-1.62127],[-48.87666,-1.4886]]],[[[-48.71978,-5.35942],[-47.08438,-3.89226],[-46.26863,-2.12854],[-46.08823,-1.21156],[-46.82161,-0.7121],[-48.05307,-0.7043],[-48.95901,-1.83198],[-50.41794,-1.95295],[-50.66501,-1.76955],[-50.81796,-1.43788],[-51.90039,-1.14913],[-52.52004,-0.87989],[-53.43775,1.26623],[-54.73588,1.76959],[-54.7751,2.45635],[-57.10075,2.02322],[-58.50869,1.27013],[-58.97146,1.32086],[-58.8695,0.22439],[-58.75184,-0.63016],[-56.63405,-2.22609],[-56.37129,-2.35486],[-58.21063,-6.31932],[-58.13611,-7.33775],[-57.5949,-8.70736],[-56.77523,-9.40192],[-54.26526,-9.62434],[-50.23361,-9.84285],[-49.30414,-8.37959],[-49.21393,-6.92803],[-48.6688,-6.65489],[-48.14327,-5.60915],[-48.71978,-5.35942]]]]},"properties":{"sigla":"PA","nome":"Pará"}},
{"type":"Feature","geometry":{"type":"Polygon","coordinates":[[[-46.02156,-14.86867],[-46.8726,-15.02865],[-47.304,-16.03928],[-47.27655,-18.06053],[-47.9511,-18.48975],[-48.93156,-18.30245],[-50.31205,-18.68485],[-50.92385,-19.45745],[-51.00621,-20.07788],[-50.47676,-19.78132],[-48.99823,-20.15982],[-47.46087,-19.96472],[-46.34707,-22.86393],[-44.82932,-22.40739],[-43.04881,-22.0445],[-41.86441,-20.77634],[-40.95847,-19.46526],[-40.88003,-17.96688],[-40.20547,-17.97858],[-40.60942,-17.39718],[-39.94663,-16.32022],[-40.21332,-15.82466],[-41.35849,-15.49689],[-44.31948,-14.24434],[-46.02156,-14.86867]]]},"properties":{"sigla":"MG","nome":"Minas Gerais"}},
{"type":"Feature","geometry":{"type":"Polygon","coordinates":[[[-50.23361,-9.84285],[-54.26526,-9.62434],[-56.77523,-9.40192],[-57.5949,-8.70736],[-58.13611,-7.33775],[-58.54398,-8.74638],[-61.61086,-8.76979],[-61.5285,-11.00175],[-60.00683,-11.13442],[-59.88917,-12.58988],[-60.74413,-13.68245],[-60.28136,-14.62284],[-60.15978,-16.26169],[-58.44594,-16.33193],[-58.39888,-17.2489],[-57.71648,-17.72885],[-56.12029,-17.18647],[-55.17905,-17.68593],[-54.12015,-17.6313],[-53.05341,-18.0176],[-53.01027,-16.8626],[-51.63763,-15.17693],[-51.09642,-14.89208],[-50.48461,-12.84351],[-50.64933,-11.60267],[-50.58265,-10.713],[-50.23361,-9.84285]]]},"properties":{"sigla":"MT","nome":"Mato Grosso"}},
{"type":"Feature","geometry":{"type":"Polygon","coordinates":[[[-45.94704,-10.3189],[-45.97842,-8.92587],[-45.47642,-7.68503],[-44.32732,-7.11143],[-43.7116,-6.69781],[-43.00174,-6.76805],[-42.85271,-4.95361],[-42.86056,-4.49707],[-41.84088,-2.76847],[-42.93115,-2.47192],[-44.3587,-2.52654],[-44.5391,-1.83198],[-46.08823,-1.21156],[-46.26863,-2.12854],[-47.08438,-3.89226],[-48.71978,-5.35942],[-47.48048,-5.55062],[-47.46872,-7.53285],[-46.82553,-8.46543],[-46.79024,-9.38631],[-45.94704,-10.3189]]]},"properties":{"sigla":"MA","nome":"Maranhão"}},
{"type":"Feature","geometry":{"type":"Polygon","coordinates":[[[-53.05341,-18.0176],[-54.12015,-17.6313],[-55.17905,-17.68593],[-56.12029,-17.18647],[-57.71648,-17.72885],[-57.52038,-18.2049],[-58.12042,-19.7423],[-57.81452,-20.97144],[-57.98316,-22.09132],[-55.84968,-22.29033],[-55.40651,-23.9643],[-54.24565,-24.05405],[-53.15538,-22.70394],[-52.05334,-21.72063],[-51.00621,-20.07788],[-50.92385,-19.45745],[-52.47298,-18.70826],[-53.05341,-18.0176]]]},"properties":{"sigla":"MS","nome":"Mato Grosso do Sul"}},
{"type":"Feature","geometry":{"type":"Polygon","coordinates":[[[-40.96239,-21.2758],[-39.71524,-19.44965],[-39.66818,-18.32587],[-40.20547,-17.97858],[-40.88003,-17.96688],[-40.95847,-19.46526],[-41.86441,-20.77634],[-40.96239,-21.2758]]]},"properties":{"sigla":"ES","nome":"Espírito Santo"}},
{"type":"Feature","geometry":null,"properties":{"sigla":"DF","nome":"Distrito Federal"}},
{"type":"Feature","geometry":{"type":"Polygon","coordinates":[[[-38.69557,-7.61869],[-38.52693,-6.38175],[-37.72687,-5.07067],[-37.24057,-4.83264],[-38.49163,-3.72447],[-39.99369,-2.85041],[-41.24868,-3.0221],[-41.40556,-3.29524],[-41.30359,-3.47474],[-41.40948,-3.52546],[-41.38595,-3.58009],[-41.12318,-3.92737],[-41.11926,-4.1771],[-41.0722,-4.32538],[-41.00161,-5.37503],[-40.53883,-7.38847],[-38.69557,-7.61869]]]},"properties":{"sigla":"CE","nome":"Ceará"}},
{"type":"Feature","geometry":{"type":"Polygon","coordinates":[[[-46.24118,-12.78888],[-46.02156,-14.86867],[-44.31948,-14.24434],[-41.35849,-15.49689],[-40.21332,-15.82466],[-39.94663,-16.32022],[-40.60942,-17.39718],[-40.20547,-17.97858],[-39.66818,-18.32587],[-39.13089,-17.68983],[-38.87205,-15.87539],[-38.95833,-13.37809],[-38.31907,-12.93716],[-37.48764,-11.52072],[-38.0014,-9.53069],[-38.23279,-9.33169],[-39.3662,-8.53177],[-40.24469,-9.07025],[-41.37026,-8.71126],[-42.48014,-9.47996],[-43.4959,-9.33169],[-43.95083,-10.45157],[-44.81363,-10.87689],[-45.7588,-10.33061],[-46.57062,-11.31392],[-46.24118,-12.78888]]]},"properties":{"sigla":"BA","nome":"Bahia"}},
{"type":"Feature","geometry":{"type":"Polygon","coordinates":[[[-63.37961,2.23003],[-65.18758,0.93065],[-66.31314,0.75116],[-67.4191,2.14419],[-67.91325,1.74618],[-69.84672,1.71106],[-70.0585,-0.15801],[-69.3761,-1.33643],[-69.94869,-4.26295],[-70.76443,-4.14589],[-72.85084,-5.1253],[-73.12537,-6.44808],[-73.79601,-7.12314],[-72.63907,-7.60309],[-70.35656,-8.16108],[-66.83082,-9.83895],[-64.12868,-8.75418],[-63.99141,-8.43032],[-62.85016,-8.00109],[-61.61086,-8.76979],[-58.54398,-8.74638],[-58.13611,-7.33775],[-58.21063,-6.31932],[-56.37129,-2.35486],[-56.70072,-2.58508],[-57.04192,-2.51484],[-56.63405,-2.22609],[-58.75184,-0.63016],[-58.8695,0.22439],[-60.05389,0.22829],[-60.73629,-0.84867],[-62.50504,-0.77844],[-62.43837,0.8253],[-63.37961,2.23003]]]},"properties":{"sigla":"AM","nome":"Amazonas"}},
{"type":"Feature","geometry":{"type":"Polygon","coordinates":[[[-51.90039,-1.14913],[-51.22584,-0.11509],[-51.09249,-0.05266],[-49.91594,1.14917],[-50.46108,1.83983],[-51.25329,4.14593],[-51.77489,3.97814],[-52.9083,2.19491],[-54.7751,2.45635],[-54.73588,1.76959],[-53.43775,1.26623],[-52.52004,-0.87989],[-51.90039,-1.14913]]]},"properties":{"sigla":"AP","nome":"Amapá"}},
{"type":"Feature","geometry":{"type":"Polygon","coordinates":[[[-38.23279,-9.33169],[-38.0014,-9.53069],[-36.40521,-10.49839],[-35.15023,-8.91417],[-36.99741,-9.30437],[-37.75433,-8.85174],[-38.23279,-9.33169]]]},"properties":{"sigla":"AL","nome":"Alagoas"}},
{"type":"Feature","geometry":{"type":"Polygon","coordinates":[[[-66.83082,-9.83895],[-70.35656,-8.16108],[-72.63907,-7.60309],[-73.79601,-7.12314],[-73.53324,-8.35618],[-72.18413,-10.00283],[-70.62716,-9.83505],[-70.63108,-11.00956],[-68.2819,-10.97834],[-66.63865,-9.91699],[-66.83082,-9.83895]]]},"properties":{"sigla":"AC","nome":"Acre"}}
]}